id,name,brewery_type,street,city,state,postal_code,website_url,phone,created_at,updated_at,country,longitude,latitude,tags
brick-oven-pizza-co/-brick-and-forge-brewing,Brick Oven Pizza Co/ Brick & Forge Brewing,brewpub,4714 S 14th St,Abilene,Texas,79605-4733,,8702364200,2018-07-24 01:34:18.53124,2018-08-24 16:19:30.693853,United States,-99.7833577689721,32.4296805543171,
grain-theory-brewing-company,Grain Theory Brewing Company,planning,,Abilene,Texas,79601,http://www.graintheorybrewing.com,2142260915,2018-07-24 01:34:19.483559,2018-08-11 21:39:49.998636,United States,,,
pappy-slokum-brewing-co,Pappy Slokum Brewing Co.,micro,409 S Treadaway Blvd,Abilene,Texas,79602-1750,http://waggonerr@gmail.com,3252014112,2018-07-24 01:34:20.673601,2018-08-24 16:22:25.596245,United States,-99.726991,32.444828,
sockdolager-brewing-company,Sockdolager Brewing Company,micro,720 China St,Abilene,Texas,79602-2722,http://www.sockdolagerbrewery.com,3257211718,2018-07-24 01:34:21.286839,2018-08-24 16:23:12.120427,United States,-99.7270701020408,32.4413907142857,
bitter-sisters-brewing-company,Bitter Sisters Brewing Company,micro,15103 Surveyor Blvd,Addison,Texas,75001-4316,http://www.bittersistersbrewery.com,9724790949,2018-07-24 01:34:17.970531,2018-08-24 16:19:10.508985,United States,-96.845846,32.951222,
the-manhattan-project-beer-company,The Manhattan Project Beer Company,micro,15103 Surveyor Blvd,Addison,Texas,75001-4316,http://www.manhattanproject.beer,,2018-07-24 01:34:21.729243,2018-08-24 16:23:48.2627,United States,-96.845846,32.951222,
cactus-land-brewing-company,Cactus Land Brewing Company,micro,368 County Road 325,Adkins,Texas,78101-2812,http://www.cactuslandbrewing.com,2104142776,2018-07-24 01:34:18.639566,2018-08-11 21:39:48.083999,United States,,,
nine-band-brewing-co,Nine Band Brewing Co.,micro,9 Prestige Cir,Allen,Texas,75002-3419,http://www.ninebandbrewing.com,9726635707,2018-07-24 01:34:20.370664,2018-08-24 16:22:02.538874,United States,-96.6728078612257,33.0931001,
two-rows-restaurant-and-brewery-allen,Two Rows Restaurant and Brewery - Allen,contract,711 Central Expy S,Allen,Texas,75013-8012,http://www.tworows.com/,9723968670,2018-07-24 01:34:22.034913,2018-08-24 16:24:09.279916,United States,-96.6798728886911,33.0921542,
brewery-in-planning-lucas,Brewery In Planning - Lucas,planning,,Allen,Texas,75002,,2147358587,2018-07-24 01:34:18.408865,2018-08-11 21:39:47.526362,United States,,,
big-bend-brewing-co,Big Bend Brewing Co,micro,3401 W Highway 90,Alpine,Texas,79830-4127,http://www.bigbendbrewing.com,4328373700,2018-07-24 01:34:17.924893,2018-08-11 21:39:46.352635,United States,,,
fetching-lab-brewing-co,Fetching Lab Brewing Co.,micro,1578 County Road 423 Suite B,Alvin,Texas,77511,http://www.fetchinglabbrewery@gmail.com,2814147355,2018-07-24 01:34:19.129012,2018-08-11 21:39:49.243498,United States,,,
gordon-street-tavern,Gordon Street Tavern,brewpub,114 N Gordon St,Alvin,Texas,77511-2331,http://www.gordonstreettavern.com,2819687402,2018-07-24 01:34:19.46981,2018-08-24 16:20:52.179922,United States,-95.2439868476612,29.4240309728195,
pondaseta-brewing-co,Pondaseta Brewing Co.,planning,,Amarillo,Texas,79119,http://www.pondaseta.com,,2018-07-24 01:34:20.794222,2018-08-11 21:39:53.282797,United States,,,
big-texan-brewery,Big Texan Brewery,brewpub,7701 Interstate 40 Access Rd,Amarillo,Texas,79118-6915,http://www.bigtexan.com,8063726000,2018-07-24 01:34:17.956665,2018-08-11 21:39:46.408106,United States,,,
long-wooden-spoon-brewing,Long Wooden Spoon Brewing,micro,4098 Business Park Dr,Amarillo,Texas,79110-4233,http://www.lwsbrewing.com,8065530397,2018-07-24 01:34:20.169627,2018-08-24 16:21:47.582017,United States,-101.883282639344,35.1428405409836,
six-car-pub,Six Car Pub,planning,,Amarillo,Texas,79106,http://www.sixcarpub.com,8062206881,2018-07-24 01:34:21.236539,2018-08-11 21:39:54.27247,United States,,,
compadre-brewing,Compadre Brewing,planning,,Aound Rock,Texas,78660,http://www.compadrebrewing.com,3615103472,2018-07-24 01:34:18.793273,2018-08-11 21:39:48.456124,United States,,,
aransas-pass-brewing-company-llc,"Aransas Pass Brewing Company, LLC",planning,,Aransas Pass,Texas,78336-1920,,,2018-07-24 01:34:17.594841,2018-08-11 21:39:45.45153,United States,,,
division-brewing,Division Brewing,micro,506 E Main St,Arlington,Texas,76010-1228,http://www.divisionbrewing.com,2146978350,2018-07-24 01:34:18.967342,2018-08-24 16:20:06.593579,United States,-97.1025690408163,32.7363074081633,
legal-draft-beer-company,Legal Draft Beer Company,micro,500 E Division St,Arlington,Texas,76011-7212,http://www.legaldraftbeer.com,8179622210,2018-07-24 01:34:20.118323,2018-08-24 16:21:43.227927,United States,-97.0489748,32.7400863,
humperdinks-arlington,Humperdinks - Arlington,brewpub,700 Six Flags Dr,Arlington,Texas,76011-6327,http://www.humperdinks.com,8176408553,2018-07-24 01:34:19.744019,2018-08-24 16:21:13.420978,United States,-97.0769526,32.7497637,
athens-brewing-co,Athens Brewing Co,brewpub,101 E Tyler St,Athens,Texas,75751-2547,http://www.athensbrewingco.com,9039527493,2018-07-24 01:34:17.626462,2018-08-24 16:18:41.711542,United States,-95.852642,32.205458,
jester-king-brewery,Jester King Brewery,micro,13187 Fitzhugh Rd,Austin,Texas,78736-6510,http://www.jesterkingbrewery.com,5125375100,2018-07-24 01:34:19.903321,2018-08-24 16:21:26.875852,United States,-98.0824692,30.2547264,
oasis-texas-brewing-company,Oasis Texas Brewing Company,micro,6548 Comanche Trl Ste 301,Austin,Texas,78732-1210,http://www.otxbc.com,5122849407,2018-07-24 01:34:20.501771,2018-08-24 16:22:10.184852,United States,-98.151206,30.043267,
barking-armadillo-brewing,Barking Armadillo Brewing,planning,,Austin,Texas,78723-3342,,,2018-07-24 01:34:17.797704,2018-08-11 21:39:46.076042,United States,,,
barrel-assembly,Barrel Assembly,planning,,Austin,Texas,78751-3019,http://www.barrelassembly.com,15124236579,2018-07-24 01:34:17.810121,2018-08-11 21:39:46.107028,United States,,,
bnaf-llc,"Bnaf, LLC",planning,,Austin,Texas,78727-7602,,,2018-07-24 01:34:18.121946,2018-08-11 21:39:46.729465,United States,,,
512-brewing-co,(512) Brewing Co,micro,407 Radam Ln Ste F200,Austin,Texas,78745-1197,http://www.512brewing.com,5129211545,2018-07-24 01:34:17.326378,2018-08-11 21:39:44.56336,United States,,,
4th-tap-brewing-cooperative,4th Tap Brewing Cooperative,micro,10615 Metric Blvd,Austin,Texas,78758-4520,,5129089817,2018-07-24 01:34:17.378285,2018-08-24 16:18:23.635761,United States,-97.7118913,30.3852024,
adelberts-brewery-llc,Adelbert's Brewery LLC,micro,2314 Rutland Dr Ste 100,Austin,Texas,78758-5273,http://www.adelbertsbeer.com,5126621462,2018-07-24 01:34:17.471143,2018-08-24 16:18:31.271664,United States,-97.7201589,30.3826286,
batch-craft-beer-and-kolaches,Batch Craft Beer and Kolaches,planning,,Austin,Texas,78723,http://www.batchatx.com,5124013025,2018-07-24 01:34:17.85232,2018-08-11 21:39:46.209111,United States,,,
brewery-in-planning-austin,Brewery in Planning - austin,planning,,Austin,Texas,78739-5704,,5127387003,2018-07-24 01:34:18.218814,2018-08-11 21:39:47.053975,United States,,,
brewery-in-planning-austin,Brewery In Planning - Austin,planning,,Austin,Texas,78705,,,2018-07-24 01:34:18.231493,2018-08-11 21:39:47.083437,United States,,,
brewery-in-planning-austin,Brewery in Planning - Austin,planning,,Austin,Texas,78729-4938,,,2018-07-24 01:34:18.244569,2018-08-11 21:39:47.113717,United States,,,
brewery-in-planning-austin-tx,"Brewery in Planning - Austin, TX",planning,,Austin,Texas,78717,,5124152600,2018-07-24 01:34:18.261212,2018-08-11 21:39:47.143309,United States,,,
austin-beerworks,Austin Beerworks,regional,3001 Industrial Ter,Austin,Texas,78758-7609,http://www.austinbeerworks.com,5128212494,2018-07-24 01:34:17.640417,2018-08-24 16:18:43.151815,United States,-97.729844442969,30.3795705,
black-star-co-op,Black Star Co-op,brewpub,7020 Easy Wind Dr Ste 100,Austin,Texas,78752-2373,http://www.blackstar.coop,5124522337,2018-07-24 01:34:18.038809,2018-08-24 16:19:13.6209,United States,-97.718977,30.3383262,
celis-brewery,Celis Brewery,micro,10001 Metic Blvd.,Austin,Texas,78758,http://www.celisbeers.com,5125242377,2018-07-24 01:34:18.679592,2018-08-11 21:39:48.188022,United States,,,
central-machine-brewing,Central Machine Brewing,planning,,Austin,Texas,78702-5135,,,2018-07-24 01:34:18.704171,2018-08-11 21:39:48.252867,United States,,,
circle-brewing-company,Circle Brewing Company,micro,2340 W Braker Ln Ste B,Austin,Texas,78758-4542,http://www.circlebrewing.com,5128147599,2018-07-24 01:34:18.743725,2018-08-11 21:39:48.345213,United States,,,
destination-brewing-company,Destination Brewing Company,contract,2708 Lawrence Drive,Austin,Texas,78734,http://www.destinationbrewing.co,5129659858,2018-07-24 01:34:18.927249,2018-08-11 21:39:48.754763,United States,,,
draught-house-pub-and-brewery,Draught House Pub and Brewery,micro,4112 Medical Pkwy Ste 100,Austin,Texas,78756-3715,http://www.draughthouse.com,5124526258,2018-07-24 01:34:19.021066,2018-08-24 16:20:12.663533,United States,-97.7428611,30.3110713,
flying-man-brewing-company,Flying Man Brewing Company,micro,2400 Patterson Industrial,Austin,Texas,78660,http://www.flyingmanbrewing.com,5129104099,2018-07-24 01:34:19.169995,2018-08-11 21:39:49.329521,United States,,,
hi-sign-brewing,Hi Sign Brewing,micro,1201 Old Bastrop Hwy Bldg A,Austin,Texas,78742-2600,http://www.hisignbrewing.com,5123825264,2018-07-24 01:34:19.611476,2018-08-11 21:39:50.59644,United States,,,
hold-out-brewing,Hold Out Brewing,planning,,Austin,Texas,78703-5203,http://www.holdoutbrewing.com,2103165572,2018-07-24 01:34:19.623868,2018-08-11 21:39:50.643592,United States,,,
hopped-and-brewed,Hopped And Brewed,planning,,Austin,Texas,78681-7333,http://Hoppedandbrewed@gmail.com,5129225879,2018-07-24 01:34:19.677613,2018-08-11 21:39:50.775341,United States,,,
hops-and-grain-brewing,Hops & Grain Brewing,micro,507 Calles St Ste 101,Austin,Texas,78702-3954,http://www.hopsandgrain.com,5129142467,2018-07-24 01:34:19.69169,2018-08-11 21:39:50.826272,United States,,,
friends-and-allies-brewing-company,Friends and Allies Brewing Company,micro,979 Springdale Rd Ste 124,Austin,Texas,78702-3753,http://www.friendsandallies.beer,,2018-07-24 01:34:19.323618,2018-08-24 16:20:40.392111,United States,-97.6961854,30.2628616,
infamous-brewing,Infamous Brewing,micro,4602 Weletka Dr,Austin,Texas,78734-1829,http://www.infamousbrewing.com,5124878786,2018-07-24 01:34:19.838983,2018-08-11 21:39:51.150921,United States,,,
last-stand-brewing-company,Last Stand Brewing Company,micro,12345 Pauls Valley Rd,Austin,Texas,78737-9615,http://www.laststandbrewing.com,5123733629,2018-07-24 01:34:20.064647,2018-08-11 21:39:51.623738,United States,,,
nomadic-beerworks,Nomadic Beerworks,planning,,Austin,Texas,78704,http://www.nomadicbeerworks.com,,2018-07-24 01:34:20.426968,2018-08-11 21:39:52.479194,United States,,,
independence-brewing,Independence Brewing,regional,3913 Todd Ln Ste 607,Austin,Texas,78744-1061,http://www.independencebrewing.com,5127070099,2018-07-24 01:34:19.80684,2018-08-24 16:21:19.462028,United States,-97.7361012,30.2111313,
lazarus-brewing-company,Lazarus Brewing Company,brewpub,1902 E 6th St,Austin,Texas,78702-3402,http://www.lazarusbrewing.com,,2018-07-24 01:34:20.077735,2018-08-24 16:21:38.626181,United States,-97.7220388,30.2616838,
north-by-northwest-restaurant-and-brewery-north-capital,North By Northwest Restaurant and Brewery - North Capital,brewpub,10010 N Capital of Texas Hwy,Austin,Texas,78759-5837,http://www.nxnwbrew.com,5124676969,2018-07-24 01:34:20.442132,2018-08-11 21:39:52.508369,United States,,,
north-by-northwest-restaurant-and-brewery-slaughter,North By Northwest Restaurant and Brewery - Slaughter,brewpub,5701 W Slaughter Ln Bld D,Austin,Texas,78759-5837,,5124676969,2018-07-24 01:34:20.457934,2018-08-11 21:39:52.546292,United States,,,
oddwood-ales,Oddwood Ales,brewpub,3108 Manor Rd,Austin,Texas,78723-5719,http://www.oddwoodales.com,,2018-07-24 01:34:20.516015,2018-08-11 21:39:52.666914,United States,,,
orf-brewing,Orf Brewing,micro,4700 Burleson Rd Ste F,Austin,Texas,78744-1230,http://www.orfbrewing.com,5124285217,2018-07-24 01:34:20.61894,2018-08-11 21:39:52.860663,United States,,,
oskar-blues-brewery,Oskar Blues Brewery,micro,10420 Metric Blvd # 150,Austin,Texas,78758-4939,,5122437054,2018-07-24 01:34:20.632738,2018-08-24 16:22:20.55046,United States,-97.7147024817276,30.3839295,
pinthouse-pizza-south,Pinthouse Pizza South,brewpub,4236 S Lamar Blvd,Austin,Texas,78704-7905,http://www.pinthousepizza.com,5125685300,2018-07-24 01:34:20.767042,2018-08-24 16:22:34.559923,United States,-97.7958917,30.2361072,
resignation-brewery,Resignation Brewery,contract,98 San Jacinto Blvd Ste 160,Austin,Texas,78701-4640,http://www.kccobrewery.com,4254833232,2018-07-24 01:34:20.961239,2018-08-24 16:22:52.271227,United States,-97.742323,30.262322,
skull-mechanix-brewing,Skull Mechanix Brewing,micro,1005 East St Elmo Rd Bldg 2,Austin,Texas,78745,http://www.skullmechanix.com,7373001002,2018-07-24 01:34:21.249293,2018-08-11 21:39:54.303293,United States,,,
south-austin-brewery,South Austin Brewery,micro,5701 W Slaughter Ln Bldg A130,Austin,Texas,78749-6532,http://www.southaustinbrewery.com,5123542337,2018-07-24 01:34:21.311515,2018-08-11 21:39:54.484095,United States,,,
southern-heights-brewing-co-llc,Southern Heights Brewing Co LLC,micro,6014 Techni Center Dr Ste 2-101,Austin,Texas,78721-2349,http://www.southernheightsbrewing.com,5126506901,2018-07-24 01:34:21.336708,2018-08-11 21:39:54.54309,United States,,,
stache-rabbit-brewing-company,Stache Rabbit Brewing Company,planning,,Austin,Texas,78727-5907,,,2018-07-24 01:34:21.455227,2018-08-11 21:39:54.816937,United States,,,
strange-land-brewery,Strange Land Brewery,micro,5904 Bee Cave Road,Austin,Texas,78746,http://www.strangelandbrewery.com,5122762295,2018-07-24 01:34:21.516289,2018-08-11 21:39:55.06285,United States,,,
the-austin-beer-garden-brewing-co,The Austin Beer Garden Brewing Co,brewpub,1305 W Oltorf St Ste B,Austin,Texas,78704-5362,,,2018-07-24 01:34:21.628467,2018-08-11 21:39:55.347243,United States,,,
the-brewers-table,The Brewer's Table,planning,,Austin,Texas,78702-5033,http://www.caskandcoal.com,5126199569,2018-07-24 01:34:21.653604,2018-08-11 21:39:55.408542,United States,,,
the-brewtorium,The Brewtorium,brewpub,6015 Dillard Cir Ste A,Austin,Texas,78752-4440,http://www.thebrewtorium.com,5125240323,2018-07-24 01:34:21.679259,2018-08-11 21:39:55.461676,United States,,,
two-knights-brewing,Two Knights Brewing,planning,,Austin,Texas,78701-3720,,5124176561,2018-07-24 01:34:22.018444,2018-08-11 21:39:56.268937,United States,,,
thirsty-planet-brewing-co,Thirsty Planet Brewing Co,micro,8201 S Congress Ave,Austin,Texas,78745-7305,http://www.thirstyplanet.net,5128260948,2018-07-24 01:34:21.803623,2018-08-24 16:23:54.445079,United States,-97.7487141,30.2521655,
uncle-billys-brewery,Uncle Billy's Brewery,micro,1530 Barton Springs Rd,Austin,Texas,78704-1013,http://www.unclebillys.com,5124760100,2018-07-24 01:34:22.061388,2018-08-24 16:24:12.220768,United States,-97.7612693851351,30.262109,
zilker-brewing-co,Zilker Brewing Co,micro,1701 E 6th St,Austin,Texas,78702-2701,http://www.zilkerbeer.com,5127654946,2018-07-24 01:34:22.370336,2018-08-24 16:24:38.277079,United States,-97.7245745,30.2621507,
pinthouse-pizza-north,Pinthouse Pizza North,brewpub,4729 Burnet Rd,Austin,Texas,78756-2826,http://www.pinthousepizza.com,,2018-07-24 01:34:20.741239,2018-08-24 16:22:32.969147,United States,-97.7390631,30.3187523,
blue-owl-brewing,Blue Owl Brewing,micro,2400 E Cesar Chavez St Ste 300,Austin,Texas,78702-4638,http://www.blueowlbrewing.com,5125931262,2018-07-24 01:34:18.083483,2018-08-11 21:39:46.630236,United States,,,
frontyard-brewing,Frontyard Brewing,micro,1607 Cuernavaca Dr North Unit #202,Austin,Texas,78733,http://www.frontyardbrewing.com,8503227498,2018-07-24 01:34:19.350085,2018-08-11 21:39:49.710279,United States,,,
st-elmo-brewing-company,St. Elmo Brewing Company,micro,440 E Saint Elmo Rd,Austin,Texas,78745-1281,http://www.stelmobrewing.com,7373001965,2018-07-24 01:34:21.442913,2018-08-24 16:23:25.459776,United States,-97.7611749,30.2174321,
bandera-ale-project-llc,"Bandera Ale Project, LLC",micro,3540 State Highway 16 S Ste 2A,Bandera,Texas,78003-3561,http://www.banderabrewery.com,8305224226,2018-07-24 01:34:17.745979,2018-08-11 21:39:45.962918,United States,,,
turning-point-beer-llc,"Turning Point Beer, LLC",micro,1307 Brown Trl,Bedford,Texas,76022-6401,http://Www.turningpointbeer.com,8179251131,2018-07-24 01:34:21.934652,2018-08-11 21:39:56.103456,United States,,,
huff-brewing-company-llc,"Huff Brewing Company, LLC",micro,9805 Koehn Rd,Bellville,Texas,77418-7327,http://www.huffbrewing.com,,2018-07-24 01:34:19.717399,2018-08-11 21:39:50.893811,United States,,,
lazy-tree-ranch-brewing,Lazy Tree Ranch Brewing,micro,1431 County Road 264,Bertram,Texas,78605,,5125088697,2018-07-24 01:34:20.105187,2018-08-24 16:21:41.660769,United States,-98.069394,30.749121,
brewery-in-planning-big-spring-tx,"Brewery in Planning - Big Spring, TX",planning,,Big Spring,Texas,79720-6010,,4322683056,2018-07-24 01:34:18.274512,2018-08-11 21:39:47.170399,United States,,,
real-ale-brewing-co,Real Ale Brewing Co,regional,231 San Saba Ct,Blanco,Texas,78606-4810,http://www.realalebrewing.com,8308332534,2018-07-24 01:34:20.888872,2018-08-24 16:22:44.828833,United States,-98.4128525,30.113319,
boerne-brewery,Boerne Brewery,micro,9 Hill View Ln,Boerne,Texas,78006-7003,http://www.boernebrewery.com,8306889693,2018-07-24 01:34:18.135594,2018-08-11 21:39:46.777691,United States,,,
dodging-duck-brewhaus,Dodging Duck Brewhaus,brewpub,402 River Rd,Boerne,Texas,78006-2312,http://www.dodgingduck.com,8302483825,2018-07-24 01:34:18.980157,2018-08-24 16:20:08.069776,United States,-98.725961627842,29.7896176101269,
kinematic-brewing-company,Kinematic Brewing Company,micro,635 State Highway 46 E Ste 207,Boerne,Texas,78006-6010,,,2018-07-24 01:34:19.943692,2018-08-11 21:39:51.409063,United States,,,
tusculum-holdings-llc,"Tusculum Holdings, LLC",planning,,Boerne,Texas,78006-2334,http://www.tusculumbrewing.com,3612286227,2018-07-24 01:34:21.948876,2018-08-11 21:39:56.130563,United States,,,
cibolo-creek-brewing-co,Cibolo Creek Brewing Co.,brewpub,448 S Main St,Boerne,Texas,78006-2338,http://www.cibolocreekbrewing.com,8308165275,2018-07-24 01:34:18.730567,2018-08-24 16:19:48.643945,United States,-98.7299602857143,29.7901542653061,
brazos-valley-brewing-company,Brazos Valley Brewing Company,micro,201 W 1st St,Brenham,Texas,77833,http://www.brazosvalleybrewery.com,9799871133,2018-07-24 01:34:18.191017,2018-08-24 16:19:27.712185,United States,-96.3986627,30.16447,
baa-baa-brewhouse,Baa Baa Brewhouse,micro,539 FM 359 Rd S,Brookshire,Texas,77423-8013,http://www.baabaabrewhouse.com,2819341847,2018-07-24 01:34:17.679382,2018-08-11 21:39:45.790734,United States,,,
b-cs-zoigl-brewery,B-CS  Zoigl Brewery,micro,Â 211-C W William Joel Bryan Pkwy,Bryan,Texas,77803-3225,http://www.bcs-zoigl.com,2819353018,2018-07-24 01:34:17.881806,2018-08-11 21:39:46.269307,United States,,,
blackwater-draw-brewing-company,Blackwater Draw Brewing Company,brewpub,701 N Main,Bryan,Texas,77803,http://www.blackwaterbrew.com,9797046191,2018-07-24 01:34:18.055749,2018-08-24 16:19:15.216959,United States,-96.3527774205964,30.6580876,
two-wheel-brewing-company,Two Wheel Brewing Company,micro,535 S Loop 4,Buda,Texas,78610-9388,http://www.twowheelbrewing.com,5123613401,2018-07-24 01:34:22.048024,2018-08-11 21:39:56.327819,United States,,,
la-funke-brewing,La Funke Brewing,planning,,Bulverde,Texas,78163-4156,http://www.lafunke.com,2104602083,2018-07-24 01:34:19.982418,2018-08-11 21:39:51.492941,United States,,,
sun-brewing-co,Sun Brewing Co.,brewpub,101 Canutillo La Union Ave,Canutillo,Texas,79835-6001,http://sunbrewingco.com,9154333048,2018-07-24 01:34:21.541363,2018-08-24 16:23:31.37164,United States,-106.6011179,31.9151882,
guadalupe-brewery,Guadalupe Brewery,micro,168 Rachel Dr,Canyon Lake,Texas,78133-3527,http://www.guadalupebrew.com,5128789214,2018-07-24 01:34:19.54196,2018-08-11 21:39:50.384482,United States,,,
red-horn-brewing-co,Red Horn Brewing Co.,brewpub,13010 W Parmer Ln Ste 800,Cedar Park,Texas,78613-7369,http://www.redhornbrew.com,5125896152,2018-07-24 01:34:20.931144,2018-08-11 21:39:53.606821,United States,,,
whitestone-brewery,Whitestone Brewery,micro,601 E Whitestone Blvd Ste 500,Cedar Park,Texas,78613-9046,http://www.whitestonebrewery.com,5127654828,2018-07-24 01:34:22.22753,2018-08-11 21:39:56.671872,United States,,,
lake-austin-ales,Lake Austin Ales,micro,3200 Woodall Dr STE C-1,Cedar Park,Texas,78613,http://lakeaustinales.com,5129644630,2018-07-24 01:34:19.995865,2018-08-11 21:39:51.525753,United States,,,
thousand-oaks-brewing-co,Thousand Oaks Brewing Co.,micro,3200 Woodall Dr Unit C1,Cedar Park,Texas,78613-7773,http://www.thousandoaksbrewing.com,5126867999,2018-07-24 01:34:21.816879,2018-08-11 21:39:55.834396,United States,,,
red-gap-brewing,Red Gap Brewing,micro,712 Conrad Hilton Blvd,Cisco,Texas,76437-3140,http://redgapbrewing.com,2544334993,2018-07-24 01:34:20.915677,2018-08-24 16:22:47.746586,United States,-98.9795288367347,32.3882625918367,
brewery-in-planning-college-station,Brewery In Planning - College Station,planning,,College Station,Texas,77845,,,2018-07-24 01:34:18.287928,2018-08-11 21:39:47.198169,United States,,,
hullabaloo-diner,Hullabaloo Diner,brewpub,15045 FM 2154 Rd,College Station,Texas,77845-3345,,9796903002,2018-07-24 01:34:19.730208,2018-08-11 21:39:50.92133,United States,,,
new-republic-brewing,New Republic Brewing,micro,11405 N Dowling Rd Ste C,College Station,Texas,77845-8500,http://www.nrb.beer,7134894667,2018-07-24 01:34:20.356968,2018-08-11 21:39:52.323491,United States,,,
tree-farm-brewing-company-llc,"Tree Farm Brewing Company, LLC",contract,3020 Papa Bear Dr,College Station,Texas,77845-1402,http://www.treefarmbrewing.com,9798200535,2018-07-24 01:34:21.870528,2018-08-11 21:39:55.955685,United States,,,
b-52-brewing,B-52 Brewing,micro,12470 Milroy Ln,Conroe,Texas,77304-5160,http://www.b52brewing.com,9364474677,2018-07-24 01:34:17.666498,2018-08-11 21:39:45.761522,United States,,,
copperhead-brewery,Copperhead Brewery,micro,822 N Frazier St,Conroe,Texas,77301-2305,http://www.copperheadbrewery.com,2819196134,2018-07-24 01:34:18.806314,2018-08-24 16:19:54.532076,United States,-95.46266,30.316443,
southern-star-brewing,Southern Star Brewing,micro,3525 N Frazier St,Conroe,Texas,77303-1430,http://www.southernstarbrewing.com,9364412739,2018-07-24 01:34:21.380332,2018-08-24 16:23:19.578875,United States,-95.4776897,30.3587546,
b-and-js-handcrafted-texas-ales,B and J's Handcrafted Texas Ales,micro,6335 S Padre Island Dr,Corpus Christi,Texas,78412-4013,http://pizzaandbrew@aol.com,3619926671,2018-07-24 01:34:17.653694,2018-08-24 16:18:44.749847,United States,-97.2962784,27.6749936,
coastal-bend-brewing,Coastal Bend Brewing,planning,,Corpus Christi,Texas,78418-6697,http://www.coastalbendbrewing.com,5126901050,2018-07-24 01:34:18.768482,2018-08-11 21:39:48.402514,United States,,,
lazy-beach-brewing,Lazy Beach Brewing,micro,7522 Bichon Dr Ste 100,Corpus Christi,Texas,78414-3910,http://lazybeachbrewing.com,3616935347,2018-07-24 01:34:20.091525,2018-08-24 16:21:40.121293,United States,-97.3721494,27.6545883,
railroad-seafood-station-and-brewing-co,Railroad Seafood Station & Brewing Co.,brewpub,1214 N Chaparral St,Corpus Christi,Texas,78401-1503,http://www.railroadseafood.com,3618836200,2018-07-24 01:34:20.862152,2018-08-24 16:22:41.885099,United States,-97.394339623099,27.8027684970603,
rebel-toad-brewing-co,Rebel Toad Brewing Co,micro,425 William St,Corpus Christi,Texas,78401-2538,http://www.rebeltoadbrewing.com,5122211267,2018-07-24 01:34:20.901658,2018-08-24 16:22:46.306502,United States,-97.3960541,27.7946329,
lorelei-brewing-co,Lorelei Brewing Co,micro,520 N A. S Dr,Corpus Christi,Texas,78418-3254,http://www.loreleibrewing.beer,3614458684,2018-07-24 01:34:20.195951,2018-08-11 21:39:51.93064,United States,,,
brewery-in-planning-cypress,Brewery in Planning - Cypress,planning,,Cypress,Texas,77429-8183,,,2018-07-24 01:34:18.301032,2018-08-11 21:39:47.241271,United States,,,
wicked-boxer-brewing,Wicked Boxer Brewing,brewpub,16326 Mueschke Rd # E10,Cypress,Texas,77433-4953,http://www.wickedboxer.com,2819781866,2018-07-24 01:34:22.276785,2018-08-24 16:24:28.935773,United States,-95.7172092,29.9809872,
humperdinks-dallas-greenville,Humperdinks - Dallas (Greenville),brewpub,6050 Greenville Ave,Dallas,Texas,75206-1909,http://www.humperdinks.com,2143681203,2018-07-24 01:34:19.759786,2018-08-24 16:21:15.030938,United States,-96.7679845479263,32.8586789,
pegasus-city-brewery,Pegasus City Brewery,micro,2222 Vantage St,Dallas,Texas,75207-6102,http://www.pegasuscitybrewery.com,9723667722,2018-07-24 01:34:20.701422,2018-08-24 16:22:28.539183,United States,-96.8339969571821,32.7991564828495,
texas-ale-project,Texas Ale Project,micro,1001 N Riverfront Blvd,Dallas,Texas,75207-4201,http://www.texasaleproject.com,2149650606,2018-07-24 01:34:21.565986,2018-08-24 16:23:32.87334,United States,-96.8148593,32.7818812,
steam-theory-brewing-co,Steam Theory Brewing Co,planning,,Dallas,Texas,75212-4101,http://www.steamtheorybrewing.com,,2018-07-24 01:34:21.479313,2018-08-11 21:39:54.926964,United States,,,
brewery-in-planning-dallas,Brewery in Planning - Dallas,planning,,Dallas,Texas,75287-6009,,,2018-07-24 01:34:18.313979,2018-08-11 21:39:47.281512,United States,,,
braindead-brewing,Braindead Brewing,brewpub,2625 Main St,Dallas,Texas,75226-1411,http://www.braindeadbrewing.com,4692869005,2018-07-24 01:34:18.1488,2018-08-24 16:19:24.680378,United States,-96.7854202,32.7838067,
deanitude-brewing-company-llc,"Deanitude Brewing Company, LLC",planning,,Dallas,Texas,75225-0734,http://www.deanitudebrewing.com,2143600004,2018-07-24 01:34:18.885158,2018-08-11 21:39:48.659059,United States,,,
community-beer-co,Community Beer Co,regional,1530 Inspiration Dr # 200,Dallas,Texas,75207-3703,,,2018-07-24 01:34:18.780951,2018-08-24 16:19:53.07817,United States,-96.8165879157057,32.7917789589184,
deep-ellum-brewing-co,Deep Ellum Brewing Co,regional,2821 Saint Louis St,Dallas,Texas,75226-1904,http://www.deepellumbrewing.com,2148883322,2018-07-24 01:34:18.899637,2018-08-24 16:19:58.986308,United States,-96.7815684545455,32.7806273333333,
four-corners-brewing-co,Four Corners Brewing Co,micro,423 Singleton Blvd,Dallas,Texas,75212-4104,http://www.fcbrewing.com,2147482739,2018-07-24 01:34:19.231958,2018-08-24 16:20:29.387764,United States,-96.830624167423,32.7793491,
four-corners-brewing-co,Four Corners Brewing Co,micro,1311 S Ervay St,Dallas,Texas,75215,,2147482739,2018-07-24 01:34:19.244398,2018-08-24 16:20:30.87979,United States,-96.79155915,32.77172705,
humperdinks-restaurant,Humperdinks Restaurant,brewpub,2208 W Northwest Hwy,Dallas,Texas,75220-4305,http://www.humperdinks.com,2143584159,2018-07-24 01:34:19.779758,2018-08-24 16:21:16.515745,United States,-96.89898835301,32.8637821,
noble-rey-brewing-company,Noble Rey Brewing Company,micro,2636 Farrington St,Dallas,Texas,75207-5908,http://www.noblereybrewing.com,9726777612,2018-07-24 01:34:20.4113,2018-08-24 16:22:05.634163,United States,-96.8395214545454,32.7999840454545,
oak-cliff-brewing-co,Oak Cliff Brewing Co,planning,,Dallas,Texas,75224-1305,,,2018-07-24 01:34:20.472036,2018-08-11 21:39:52.578073,United States,,,
oak-highlands-brewery,Oak Highlands Brewery,micro,10484 Brockwood Rd,Dallas,Texas,75238-1640,http://www.ohbrewery.com,4698029455,2018-07-24 01:34:20.487553,2018-08-11 21:39:52.609354,United States,,,
peticolas-brewing-co,Peticolas Brewing Co,micro,2026 Farrington St,Dallas,Texas,75207-6616,http://www.peticolasbrewing.com,2142347600,2018-07-24 01:34:20.714374,2018-08-24 16:22:30.010293,United States,-96.8303188181818,32.7967768686869,
small-brewpub,Small Brewpub,brewpub,333 W Jefferson Blvd,Dallas,Texas,75208-4602,http://www.smallbrewpub.com,9728631594,2018-07-24 01:34:21.274068,2018-08-24 16:23:10.628327,United States,-96.924553,32.747739,
the-malai-kitchen,The Malai Kitchen,brewpub,3699 McKinney Ave Ste 319,Dallas,Texas,75204-4563,http://www.malaikitchen.com,2145997857,2018-07-24 01:34:21.717047,2018-08-24 16:23:46.816604,United States,-96.796677,32.808204,
westlake-brewing-company,Westlake Brewing Company,planning,,Dallas,Texas,75226-1607,http://www.westlakebeer.com,8779942337,2018-07-24 01:34:22.200554,2018-08-11 21:39:56.617004,United States,,,
white-rock-alehouse-and-brewery,White Rock Alehouse & Brewery,brewpub,"7331 Gaston Ave, Suite 100",Dallas,Texas,75214,http://www.whiterockalehouse.com,2149897570,2018-07-24 01:34:22.213578,2018-08-11 21:39:56.642725,United States,,,
on-rotation-brewery,On Rotation Brewery,micro,7328 Gaston Ave # 110,Dallas,Texas,75214-4130,http://www.on-rotation.com,9728072588,2018-07-24 01:34:20.589986,2018-08-24 16:22:16.067119,United States,-96.731396,32.8109335,
live-oak-brewing-co,Live Oak Brewing Co,regional,1615 Crozier Ln,del Valle,Texas,78617-2129,http://www.liveoakbrewing.com,5123852299,2018-07-24 01:34:20.131496,2018-08-11 21:39:51.781799,United States,,,
nland-brewing-company,NLand Brewing Company,micro,4836 Hwy 71 E,del Valle,Texas,78617-3217,,5128061900,2018-07-24 01:34:20.384487,2018-08-11 21:39:52.386383,United States,,,
ivanhoe-aleworks,Ivanhoe Aleworks,micro,220 W Main St,Denison,Texas,75020-3025,,9034640030,2018-07-24 01:34:19.890666,2018-08-24 16:21:25.428839,United States,-96.5372904833798,33.7552821659352,
armadillo-ale-works,Armadillo Ale Works,micro,221 S Bell Ave,Denton,Texas,76201-4259,http://www.armadilloaleworks.com,9405804446,2018-07-24 01:34:17.608143,2018-08-24 16:18:40.212598,United States,-97.1283005126262,33.212866660001,
denton-county-brewing-company,Denton County Brewing Company,micro,200 E McKinney St,Denton,Texas,76201-4230,http://www.dentoncountybrewingco.com,9404350710,2018-07-24 01:34:18.91331,2018-08-24 16:20:00.606163,United States,-97.131672,33.216517,
galveston-bay-beer-company-inc,"Galveston Bay Beer Company, Inc.",micro,12900 FM 3436 Rd,Dickinson,Texas,77539-2565,http://www.galvestonbaybeer.com,2813393210,2018-07-24 01:34:19.392408,2018-08-11 21:39:49.813589,United States,,,
galactic-coast-brewing,Galactic Coast Brewing,micro,1675 Dickinson Ave C,Dickinson,Texas,77539-4213,http://www.galacticcoastbrewing.com,8327381960,2018-07-24 01:34:19.379161,2018-08-24 16:20:44.873059,United States,-95.04696,29.478,
texas-beer-refinery,Texas Beer Refinery,micro,1825 Dickinson Ave Unit B,Dickinson,Texas,77539-7799,http://www.texasbeerrefinery.com,8327791221,2018-07-24 01:34:21.603257,2018-08-11 21:39:55.285248,United States,,,
vista-brewing,Vista Brewing,brewpub,13551 Ranch To Market Rd 150,Driftwood,Texas,78619,http://www.vistabrewingtx.com,5127661842,2018-07-24 01:34:22.161303,2018-08-11 21:39:56.527169,United States,,,
acopon-brewing-co,Acopon Brewing Co,micro,211 W Mercer St,Dripping Springs,Texas,78620-5363,http://www.acoponbrewing.com,5128294723,2018-07-24 01:34:17.458271,2018-08-24 16:18:29.761508,United States,-98.0900620791126,30.1926995701728,
suds-monkey-brewing,Suds Monkey Brewing,micro,1032 Canyon Bend Dr Suite A,Dripping Springs,Texas,78620-5355,http://www.sudsmonkeybrew.com,5122223893,2018-07-24 01:34:21.528787,2018-08-11 21:39:55.094297,United States,,,
twisted-x-brewing-co,Twisted X Brewing Co,micro,23455 West RR 150,Dripping Springs,Texas,78620,http://www.twistedxbrewing.com,5128295323,2018-07-24 01:34:21.990616,2018-08-11 21:39:56.212716,United States,,,
family-business-beer-company,Family Business Beer Company,micro,19510 Hamilton Pool Rd,Dripping Springs,Texas,78620-2823,http://www.familybusinessbeerco.com,5128294202,2018-07-24 01:34:19.100131,2018-08-11 21:39:49.168601,United States,,,
deadbeach-brewery,Deadbeach Brewery,brewpub,406 S Durango St,El Paso,Texas,79901-1063,http://www.deadbeach.com,9158012337,2018-07-24 01:34:18.872134,2018-08-11 21:39:48.627494,United States,,,
el-paso-brewing-company,El Paso Brewing Company,micro,810-B Texas Ave,El Paso,Texas,79901-,http://www.elpasobrewing.com,9152620687,2018-07-24 01:34:19.034107,2018-08-24 16:20:14.234793,United States,-106.481837836735,31.7621616122449,
ode-brewing-co,Ode Brewing Co.,brewpub,3233 N Mesa St Spot 301,El Paso,Texas,79902-2337,,9153514377,2018-07-24 01:34:20.531101,2018-08-11 21:39:52.694237,United States,,,
blazing-tree-brewery,Blazing Tree Brewery,micro,11426 Rojas Dr Ste A13,El Paso,Texas,79936-6486,,9153073627,2018-07-24 01:34:18.068738,2018-08-11 21:39:46.599714,United States,,,
eola-school-restaurant,Eola School Restaurant,brewpub,12119 FM 381 Rd,Eola,Texas,76937,http://www.eolaschool.com,3254693314,2018-07-24 01:34:19.059934,2018-08-11 21:39:49.03573,United States,,,
dauntless-brewing-company,Dauntless Brewing Company,planning,,Farmers Branch,Texas,75234-2334,,9035213472,2018-07-24 01:34:18.859237,2018-08-11 21:39:48.599533,United States,,,
hop-and-sting-brewing-company,Hop And Sting Brewing Company,micro,2405 Squire Pl Ste 200,Farmers Branch,Texas,75234-4714,http://www.hopandsting.com,6828889614,2018-07-24 01:34:19.651534,2018-08-24 16:21:05.639823,United States,-96.8988312755102,32.9304433571429,
3-nations-brewing,3 Nations Brewing,micro,2405 Squire Pl Ste 200,Farmers Branch,Texas,75234-4714,http://www.threenationsbrewing.com,4696607184,2018-07-24 01:34:17.365575,2018-08-24 16:18:22.135715,United States,-96.8988312755102,32.9304433571429,
brewery-in-planning-fort-worth,Brewery In Planning - Fort Worth,planning,,Fort Worth,Texas,76116,,,2018-07-24 01:34:18.330336,2018-08-11 21:39:47.353382,United States,,,
cowtown-brewing-company,Cowtown Brewing Company,planning,,Fort Worth,Texas,76102-2408,http://www.cowtownbrewco.com,,2018-07-24 01:34:18.819826,2018-08-11 21:39:48.511157,United States,,,
chimera-brewing-company,Chimera Brewing Company,brewpub,1001 W Magnolia Ave,Fort Worth,Texas,76104-4504,http://www.chimerabrew.com,8179238000,2018-07-24 01:34:18.717354,2018-08-24 16:19:47.155675,United States,-97.3352878163492,32.7303843,
fort-brewery-and-pizza,Fort Brewery and Pizza,brewpub,1001 W Magnolia Ave,Fort Worth,Texas,76104-4504,http://www.fortbrewery.com,5125697369,2018-07-24 01:34:19.199081,2018-08-24 16:20:26.343671,United States,-97.3352878163492,32.7303843,
hopfusion-ale-works,Hopfusion Ale Works,micro,200 E Broadway Ave,Fort Worth,Texas,76104-1302,http://www.hopfusionaleworks.com,6828411721,2018-07-24 01:34:19.663809,2018-08-24 16:21:07.233174,United States,-97.324895,32.741719,
malai-fort-worth,Malai Fort Worth,brewpub,5289 Monahans Ave,Fort Worth,Texas,76109,,6827073959,2018-07-24 01:34:20.221918,2018-08-11 21:39:51.987887,United States,,,
maple-branch-craft-brewery,Maple Branch Craft Brewery,planning,,Fort Worth,Texas,76133-1226,https://www.maplebranchbrew.com/,3149108854,2018-07-24 01:34:20.251059,2018-08-11 21:39:52.053366,United States,,,
martin-house-brewing-company,Martin House Brewing Company,micro,220 S Sylvania Ave Ste 209,Fort Worth,Texas,76111-2232,http://www.martinhousebrewing.com,8172220177,2018-07-24 01:34:20.263924,2018-08-11 21:39:52.104065,United States,,,
millercoors-brewing-co-fort-worth,MillerCoors Brewing Co - Fort Worth,large,7001 South Fwy,Fort Worth,Texas,76134-4001,http://www.millerbrewing.com,8175513255,2018-07-24 01:34:20.289878,2018-08-24 16:21:55.028702,United States,-97.3194181,32.6411318,
panther-island-brewing-company,Panther Island Brewing Company,micro,501 N Main St,Fort Worth,Texas,76164-9508,http://www.pantherislandbrewing.com,8178828121,2018-07-24 01:34:20.660041,2018-08-24 16:22:24.086017,United States,-97.3379353773193,32.7636809,
rahr-and-sons-brewing-co,Rahr and Sons Brewing Co,regional,701 Galveston Ave,Fort Worth,Texas,76104-3355,http://www.rahrbrewing.com,8178109266,2018-07-24 01:34:20.834778,2018-08-24 16:22:38.997545,United States,-97.327292,32.7371,
the-collective-brewing-project,The Collective Brewing Project,micro,112 Saint Louis Ave,Fort Worth,Texas,76104-1228,,,2018-07-24 01:34:21.691621,2018-08-24 16:23:45.204991,United States,-97.3287922727273,32.7435232424242,
wild-acre-brewing-company,Wild Acre Brewing Company,micro,1734 E El Paso St Ste 190,Fort Worth,Texas,76102-6773,http://www.wildacrebrewing.com,8178829453,2018-07-24 01:34:22.290561,2018-08-11 21:39:56.806541,United States,,,
altstadt-brewery,Altstadt Brewery,micro,6120 E US Highway 290,Fredericksburg,Texas,78624-2176,http://www.altstadtbeer.com,8303042337,2018-07-24 01:34:17.528954,2018-08-24 16:18:34.340135,United States,-98.8467263,30.2468574,
fredericksburg-brewing-co,Fredericksburg Brewing Co,brewpub,245 E Main St,Fredericksburg,Texas,78624-4114,http://www.yourbrewery.com,8309971646,2018-07-24 01:34:19.270237,2018-08-24 16:20:33.95629,United States,-98.865629,30.2703349,
flix-brewhouse-frisco/little-elm,Flix Brewhouse - Frisco/Little Elm,micro,1660 FM 423,Frisco,Texas,75033,,5122442739,2018-07-24 01:34:19.157114,2018-08-11 21:39:49.303429,United States,,,
sportsbreweries,SportsBreweries,contract,Private Rd 5128,Frisco,Texas,75034,http://www.sportsbreweries.com,9726038647,2018-07-24 01:34:21.430627,2018-08-24 16:23:23.948666,United States,-96.7687762,33.1787931,
brewery-in-planning-fulshear-tx,"Brewery in Planning - Fulshear, TX",planning,,Fulshear,Texas,77441,,,2018-07-24 01:34:18.342887,2018-08-11 21:39:47.390111,United States,,,
beerfoot-beach-bar,Beerfoot Beach Bar,micro,2816 Avenue R 1/2,Galveston,Texas,77550-7742,http://www.yagaspresents.com/beerfoot/index.html,4097622337,2018-07-24 01:34:17.909833,2018-08-11 21:39:46.328045,United States,,,
brews-brothers,Brews Brothers,brewpub,2404 Strand St,Galveston,Texas,77550-1412,,4097632739,2018-07-24 01:34:18.516898,2018-08-11 21:39:47.793251,United States,,,
devil-and-the-deep,Devil and the Deep,micro,2425 Postoffice St,Galveston,Texas,77550-4629,http://www.devilandthedeep.com,7134028868,2018-07-24 01:34:18.940433,2018-08-11 21:39:48.783946,United States,,,
galveston-island-brewing,Galveston Island Brewing,micro,8423 Stewart Rd,Galveston,Texas,77554-9242,http://www.GalvestonIslandBrewing.com,4097407000,2018-07-24 01:34:19.40748,2018-08-24 16:20:46.335656,United States,-94.8491535,29.2556439,
lakewood-brewing-co,Lakewood Brewing Co,micro,2302 Executive Dr,Garland,Texas,75041-6121,http://www.lakewoodbrewing.com,9728642337,2018-07-24 01:34:20.037014,2018-08-24 16:21:34.21205,United States,-96.6813725967853,32.8884228477965,
intrinsic-brewing,Intrinsic Brewing,brewpub,509 W State Street,Garland,Texas,75040,http://www.intrinsicbrewing.com,2144345429,2018-07-24 01:34:19.878235,2018-08-24 16:21:23.902112,United States,-96.6370523581182,32.91369215,
rentsch-brewery,Rentsch Brewery,micro,2500 NE Inner Loop Unit 3105,Georgetown,Texas,78626-4444,http://www.rentschbrewery.com,5126885046,2018-07-24 01:34:20.94594,2018-08-11 21:39:53.639411,United States,,,
wild-bunch-brewing-co-llc,"Wild Bunch Brewing Co, LLC",brewpub,110 E 7TH ST STE 301,Georgetown,Texas,78626,http://www.wildbunchbrewing.beer,5123983633,2018-07-24 01:34:22.304236,2018-08-11 21:39:56.833572,United States,,,
goliad-brewing-company,Goliad Brewing Company,micro,252 Metting Rd,Goliad,Texas,77963-3966,http://www.goliadbrewing.com,2817827860,2018-07-24 01:34:19.42499,2018-08-24 16:20:47.76273,United States,-97.3980634535387,28.6907958269906,
revolver-brewing,Revolver Brewing,large,5650 Matlock Rd,Granbury,Texas,76049-5347,http://www.revolverbrewing.com,8177368034,2018-07-24 01:34:20.976014,2018-08-11 21:39:53.701068,United States,,,
granger-city-brewing-company,Granger City Brewing Company,brewpub,109 W Davilla St,Granger,Texas,76530,http://www.grangercitybrewingcompany.com,5127171859,2018-07-24 01:34:19.513502,2018-08-11 21:39:50.152775,United States,,,
uncle-bucks-brewery-and-steakhouse,Uncle Buck's Brewery And Steakhouse,brewpub,2501 Bass Pro Dr,Grapevine,Texas,76051-2009,http://restaurants.basspro.com/UncleBucksSteakhouse/,9726915100,2018-07-24 01:34:22.075195,2018-08-11 21:39:56.386927,United States,,,
landon-winery,Landon Winery,micro,2508 Lee Street,Greenville,Texas,75401,http://www.landonwinery.com,9034547878,2018-07-24 01:34:20.049989,2018-08-24 16:21:35.720281,United States,-96.1059881261706,33.1398710518474,
brewery-in-planning-somerville-ma,"Brewery In Planning - Somerville, MA",planning,,Houston,Texas,77043-4718,,,2018-07-24 01:34:18.448964,2018-08-11 21:39:47.661227,United States,,,
28th-state-brewing,28th State Brewing,planning,,Houston,Texas,77095-6933,,,2018-07-24 01:34:17.352535,2018-08-11 21:39:44.636415,United States,,,
11-below-brewing-company,11 Below Brewing Company,micro,6820 Bourgeois Rd,Houston,Texas,77066-3107,http://www.11belowbrewing.com,2814442337,2018-07-24 01:34:17.33995,2018-08-24 16:18:20.582961,United States,-95.5186591,29.9515464,
8th-wonder-brewery,8th Wonder Brewery,micro,2202 Dallas St,Houston,Texas,77003-3519,http://www.8thwonderbrew.com,7133970072,2018-07-24 01:34:17.432085,2018-08-24 16:18:26.748515,United States,-95.3559402,29.7487783,
anheuser-busch-inc-a-houston,Anheuser-Busch Inc â Houston,large,775 Gellhorn Dr,Houston,Texas,77029-1496,,7136752311,2018-07-24 01:34:17.553656,2018-08-24 16:18:35.809278,United States,-95.2713067375068,29.771858,
brewery-in-planning-houston,Brewery in Planning - Houston,planning,,Houston,Texas,77024-4116,,2817483017,2018-07-24 01:34:18.383033,2018-08-11 21:39:47.449419,United States,,,
baileson-brewing-company-llc,"Baileson Brewing Company, LLC",micro,2322 Bissonnet St,Houston,Texas,77005-1512,http://www.bailesonbrewing.com,8325169828,2018-07-24 01:34:17.71893,2018-08-24 16:18:50.767103,United States,-95.4133746530612,29.7256240408163,
brash,Brash,micro,508 W Crosstimbers St,Houston,Texas,77018-5521,http://www.brashbeers.com,,2018-07-24 01:34:18.177057,2018-08-24 16:19:26.139684,United States,-95.4097416610738,29.8272753825503,
buffalo-bayou-brewing-co,Buffalo Bayou Brewing Co,micro,5301 Nolda St,Houston,Texas,77007-2234,http://www.buffbrew.com,7137509795,2018-07-24 01:34:18.599185,2018-08-24 16:19:38.345589,United States,-95.4160849,29.775978,
city-acre-brewing-co,City Acre Brewing Co,brewpub,3418 Topping St,Houston,Texas,77093,http://www.cityacrebrewing.com,8323770237,2018-07-24 01:34:18.756429,2018-08-24 16:19:51.618042,United States,-95.3350882,29.8570358,
eureka-heights-brewing-company,Eureka Heights Brewing Company,micro,941 W 18th St,Houston,Texas,77008-3336,http://www.eurekaheights.com,8329534677,2018-07-24 01:34:19.086469,2018-08-24 16:20:17.400383,United States,-95.4164348,29.8019913,
flying-rhino-brewing-company,Flying Rhino Brewing Company,planning,,Houston,Texas,77077-6108,http://flyingrhinobrewing.com/,8326510114,2018-07-24 01:34:19.184641,2018-08-11 21:39:49.358018,United States,,,
holler-brewing-company,Holler Brewing Company,micro,2206 Edwards St Ste A,Houston,Texas,77007-4412,http://www.hollerbeer.com,8327810555,2018-07-24 01:34:19.636599,2018-08-11 21:39:50.672805,United States,,,
great-heights-brewing-company,Great Heights Brewing Company,micro,938 Wakefield Dr,Houston,Texas,77018-6204,http://www.greatheightsbrewing.com,2812206900,2018-07-24 01:34:19.526239,2018-08-24 16:20:56.762745,United States,-95.4223629,29.8216738,
industry-brewery,Industry Brewery,planning,,Houston,Texas,77024-7146,,7138514130,2018-07-24 01:34:19.823015,2018-08-11 21:39:51.107767,United States,,,
klaus-brewing-company,Klaus Brewing Company,planning,,Houston,Texas,77065,http://www.klausbrewing.com,7134985004,2018-07-24 01:34:19.956538,2018-08-11 21:39:51.439476,United States,,,
local-group-brewing-company-llc,"Local Group Brewing Company, LLC.",planning,,Houston,Texas,77008-6844,,,2018-07-24 01:34:20.144,2018-08-11 21:39:51.812172,United States,,,
mallory-brewing,Mallory Brewing,planning,,Houston,Texas,77018,,,2018-07-24 01:34:20.237906,2018-08-11 21:39:52.01701,United States,,,
karbach-brewing-co,Karbach Brewing Co,large,2032 Karbach St,Houston,Texas,77092-8406,,,2018-07-24 01:34:19.91686,2018-08-24 16:21:28.310369,United States,-95.4605283,29.8063812,
moon-tower-sudworks,Moon Tower Sudworks,brewpub,3004 Canal St,Houston,Texas,77003-1627,http://www.damngoodfoodcoldassbeer.com,8322660105,2018-07-24 01:34:20.302645,2018-08-24 16:21:56.511865,United States,-95.3409715,29.7543105,
platypus-brewing,Platypus Brewing,brewpub,1902 Washington Ave Ste E,Houston,Texas,77007-6414,http://www.platypusbrewing.com,8329858007,2018-07-24 01:34:20.780626,2018-08-11 21:39:53.253018,United States,,,
ruba-brewing,Ruba Brewing,micro,3310 Buttercup St,Houston,Texas,77063,,,2018-07-24 01:34:21.033966,2018-08-24 16:22:56.638148,United States,-95.5169485918367,29.7287966938776,
saint-arnold-brewing-co,Saint Arnold Brewing Co,regional,2000 Lyons Ave,Houston,Texas,77020-2028,http://www.saintarnold.com,7136869494,2018-07-24 01:34:21.074413,2018-08-24 16:22:59.506482,United States,-95.3484665615608,29.77112745,
southern-yankee-beer-company,Southern Yankee Beer Company,planning,,Houston,Texas,77073,http://southernyankeebeer.com,,2018-07-24 01:34:21.393395,2018-08-11 21:39:54.61198,United States,,,
sigma-brewing-company,Sigma Brewing Company,micro,3118 Harrisburg Blvd # 108,Houston,Texas,77003-2334,http://www.sigmabrewingcompany.com,3463523190,2018-07-24 01:34:21.207438,2018-08-24 16:23:07.330611,United States,-95.3435901,29.7489938,
spindletap-brewery,Spindletap Brewery,micro,10622 Hirsch Rd,Houston,Texas,77016-2622,http://www.spindletap.com,7133251477,2018-07-24 01:34:21.406281,2018-08-24 16:23:21.025521,United States,-95.3149254,29.8677396,
the-phoenix-on-westheimer,The Phoenix On Westheimer,brewpub,1915 Westheimer Rd,Houston,Texas,77098-1521,http://www.phoenixow.com,7135263100,2018-07-24 01:34:21.741659,2018-08-24 16:23:49.879091,United States,-95.4966157,29.7377481,
true-anomaly-brewing,True Anomaly Brewing,planning,,Houston,Texas,77003,http://www.trueanomalybrewing.com,3467045701,2018-07-24 01:34:21.895964,2018-08-11 21:39:56.022955,United States,,,
whitis-aleworks,Whitis AleWorks,planning,,Houston,Texas,77069-3424,,,2018-07-24 01:34:22.239424,2018-08-11 21:39:56.698725,United States,,,
whole-foods-market-brewing-company,Whole Foods Market Brewing Company,micro,1700 Post Oak Blvd Ste 1G101,Houston,Texas,77056-3963,,7133460537,2018-07-24 01:34:22.251487,2018-08-11 21:39:56.72608,United States,,,
town-in-city-brewing-co-llc,"Town In City Brewing Co, LLC",micro,1125 W Cavalcade St,Houston,Texas,77009-2907,http://townincitybrewing.com,8328347151,2018-07-24 01:34:21.85763,2018-08-24 16:23:58.856272,United States,-95.3870438,29.8036158,
under-the-radar-brewery,Under The Radar Brewery,micro,1506 Truxillo St,Houston,Texas,77004-3960,http://www.undertheradarbrewery.com,7133202766,2018-07-24 01:34:22.089408,2018-08-24 16:24:13.693529,United States,-95.3759411,29.7342113,
stained-glass-beerworks,Stained Glass Beerworks,planning,,Houston,Texas,77066-2310,http://www.stainedglassbeerworks.com,7134529337,2018-07-24 01:34:21.46749,2018-08-11 21:39:54.866695,United States,,,
ingenious-brewing-company,Ingenious Brewing Company,micro,1986 S Houston Ave,Humble,Texas,77396-1507,http://www.ingeniousbeer.com,8324122142,2018-07-24 01:34:19.851504,2018-08-24 16:21:22.448762,United States,-95.2633815,29.9748544,
intervention-brewing-company-llc,"Intervention Brewing Company, LLC",planning,,Irving,Texas,75061-8826,,2147633070,2018-07-24 01:34:19.864455,2018-08-11 21:39:51.215414,United States,,,
twin-peaks-brewery,Twin Peaks Brewery,micro,1500 Market Place Blvd,Irving,Texas,75063,http://twinpeaksrestaurants.com/brewery,4699642921,2018-07-24 01:34:21.962897,2018-08-24 16:24:06.317115,United States,-96.9676726585957,32.91862635,
pecan-street-brewing-co,Pecan Street Brewing Co,brewpub,106 East Pecan Drive,Johnson City,Texas,78636-1504,http://www.pecanstreetbrewing.com,8308682131,2018-07-24 01:34:20.688121,2018-08-24 16:22:27.094572,United States,-98.4113503982321,30.2776200408824,
rabbit-hole-brewing,Rabbit Hole Brewing,micro,106 E 6th,Justin,Texas,76247-4635,http://www.rabbitholebrewing.com,9404413528,2018-07-24 01:34:20.807846,2018-08-11 21:39:53.314871,United States,,,
battlehops-brewing,BattleHops Brewing,planning,,Katy,Texas,77494,http://www.battlehopsbrewing.com,8323245284,2018-07-24 01:34:17.86875,2018-08-11 21:39:46.23727,United States,,,
brewery-in-planning-katy,Brewery in Planning - Katy,planning,,Katy,Texas,77494-4657,,8327140319,2018-07-24 01:34:18.395517,2018-08-11 21:39:47.490412,United States,,,
kastaway-brewing-co,Kastaway Brewing Co,planning,,Katy,Texas,77493,,,2018-07-24 01:34:19.930306,2018-08-11 21:39:51.369403,United States,,,
no-label-brewing-co,No Label Brewing Co,micro,5351-A 1st St,Katy,Texas,77493-2506,http://www.nolabelbrew.com,2816937545,2018-07-24 01:34:20.397721,2018-08-11 21:39:52.42258,United States,,,
shannon-brewing-company-llc,"Shannon Brewing Company, LLC",micro,818 N Main St,Keller,Texas,76248-3801,http://www.shannonbrewing.com,8173379892,2018-07-24 01:34:21.193833,2018-08-24 16:23:05.82444,United States,-97.253964462839,32.9479768375477,
basement-brewers-of-texas,Basement Brewers of Texas,micro,521 Clay St,Kerrville,Texas,78028-4525,http://www.basementbrewersoftexas.com,8309555073,2018-07-24 01:34:17.838257,2018-08-24 16:19:01.503323,United States,-99.1392822040816,30.0504283877551,
pint,Pint,brewpub,332 Clay St,Kerrville,Texas,78028-4502,http://www.pintandplow.com,8303157468,2018-07-24 01:34:20.728073,2018-08-24 16:22:31.492012,United States,-99.141,30.0494005,
5th-element-brewing,5th Element Brewing,planning,,Leander,Texas,78641-4009,,9156378199,2018-07-24 01:34:17.404824,2018-08-11 21:39:44.803224,United States,,,
brewery-in-planning-austin,Brewery In Planning - Austin,planning,,Leander,Texas,78641-8632,,,2018-07-24 01:34:18.205536,2018-08-11 21:39:47.020246,United States,,,
hell-or-high-water-brewing,Hell or High Water Brewing,planning,,Leander,Texas,78641-8882,,5129636701,2018-07-24 01:34:19.585073,2018-08-11 21:39:50.49846,United States,,,
old-town-brewhouse,Old Town Brewhouse,micro,146 Whatley Ave,Lewisville,Texas,75057-3961,http://www.cobrabrewingco.com,9722212337,2018-07-24 01:34:20.57365,2018-08-24 16:22:14.586197,United States,-96.9935314081633,33.044038,
tko-libations,TKO Libations,micro,2520 King Arthur Blvd Ste 109,Lewisville,Texas,75056-6082,http://www.tkolibations.com,4696302337,2018-07-24 01:34:21.84414,2018-08-11 21:39:55.904701,United States,,,
san-gabriel-river-brewery-inc,San Gabriel River Brewery Inc,micro,500 Chaparral Dr,Liberty Hill,Texas,78642-4610,http://www.sangabrielriverbrewery.com,5126279384,2018-07-24 01:34:21.103704,2018-08-11 21:39:53.980933,United States,,,
bull-creek-brewing-company,Bull Creek Brewing Company,proprietor,7100 FM3405,Liberty Hill,Texas,78642,http://www.bullcreekbrewing.com,5128399510,2018-07-24 01:34:18.612604,2018-08-11 21:39:47.998456,United States,,,
caracara-brewing-company,Caracara Brewing Company,micro,100 E Market St,Lockhart,Texas,78644-2747,http://www.caracarabrewingcompany.com,,2018-07-24 01:34:18.652603,2018-08-24 16:19:41.320259,United States,-97.672065,29.883798,
oil-horse-brewing-company,Oil Horse Brewing Company,micro,101 W Tyler St,Longview,Texas,75601-6318,http://Www.oilhorsebrewing.com,9032203414,2018-07-24 01:34:20.545911,2018-08-24 16:22:13.153476,United States,-94.740354,32.495365,
stesti-brewing-company,Stesti Brewing Company,micro,1314 FM 2915,Lovelady,Texas,75851,,9362046858,2018-07-24 01:34:21.491503,2018-08-11 21:39:54.976945,United States,,,
the-brewery-lbk,The Brewery LBK,brewpub,1204 Broadway #104,Lubbock,Texas,79401,http://www.thebrewerylbk.com,8069939378,2018-07-24 01:34:21.666752,2018-08-11 21:39:55.433073,United States,,,
the-plains-brewing-company,The Plains Brewing Company,micro,515 N FM 179,Lubbock,Texas,79416-9512,,8067868583,2018-07-24 01:34:21.753834,2018-08-11 21:39:55.683922,United States,,,
two-docs-brewing-co,Two Docs Brewing Co.,planning,,Lubbock,Texas,79401,http://twodocsbrewing.com,,2018-07-24 01:34:22.004532,2018-08-11 21:39:56.239449,United States,,,
triple-j-chophouse-and-brew-co,Triple J Chophouse and Brew Co,brewpub,1807 Buddy Holly Ave,Lubbock,Texas,79401-5136,http://www.triplejchophouseandbrewco.com,8067716555,2018-07-24 01:34:21.883462,2018-08-24 16:24:01.746535,United States,-101.844037476289,33.5785911,
angelina-brewing-company-llc,"Angelina Brewing Company, LLC.",planning,,Lufkin,Texas,75904-7550,,3168419327,2018-07-24 01:34:17.541193,2018-08-11 21:39:45.316113,United States,,,
lone-pint-brewery,Lone Pint Brewery,micro,507 Commerce St,Magnolia,Texas,77355-8520,http://www.lonepint.com,2817315466,2018-07-24 01:34:20.156842,2018-08-24 16:21:46.126145,United States,-95.751352,30.2089852,
dirty-job-brewing,Dirty Job Brewing,micro,117 N Main St,Mansfield,Texas,76063,http://www.dirtyjobbrewing.com,6825181791,2018-07-24 01:34:18.953091,2018-08-24 16:20:05.05974,United States,-97.1419556734694,32.564891244898,
brick-vault-brewery-and-bbq,Brick Vault Brewery & BBQ,brewpub,102 NW 1st St Highway 90W,Marathon,Texas,79842,http://www.gagehotel.com,4323864205,2018-07-24 01:34:18.544588,2018-08-11 21:39:47.848755,United States,,,
double-horn-brewing-co,Double Horn Brewing Co,brewpub,208 Avenue H,Marble Falls,Texas,78654-5750,http://www.doublehornbrewing.com,8306935165,2018-07-24 01:34:19.006795,2018-08-24 16:20:11.16913,United States,-98.2763544519811,30.5712779534811,
save-the-world-brewing-co,Save the World Brewing Co,micro,1510 Resource Pkwy,Marble Falls,Texas,78654-3983,http://www.savetheworldbrewing.com,8306377654,2018-07-24 01:34:21.139851,2018-08-11 21:39:54.033474,United States,,,
ol-shed-brewing-company,Ol' Shed Brewing Company,planning,,Mathis,Texas,78368-1738,,,2018-07-24 01:34:20.559446,2018-08-11 21:39:52.750899,United States,,,
rabble-rouser-brewing-company,Rabble-Rouser Brewing Company,micro,,Mcallen,Texas,78501,http://www.therabble-rousers.com,9563290100,2018-07-24 01:34:20.82142,2018-08-11 21:39:53.341503,United States,,,
brewery-in-planning-mc-kinney-tx,"Brewery In Planning- Mc Kinney, TX.",planning,,McKinney,Texas,75069-9000,,,2018-07-24 01:34:18.489861,2018-08-11 21:39:47.737242,United States,,,
franconia-brewing-co,Franconia Brewing Co,micro,495 McKinney Pkwy,McKinney,Texas,75071-1825,http://www.franconiabrewing.com,9725420705,2018-07-24 01:34:19.25742,2018-08-24 16:20:32.36341,United States,-96.6091177413659,33.2130029718898,
harvest-seasonal-kitchen,Harvest Seasonal Kitchen,brewpub,112 E Louisiana St,McKinney,Texas,75069-4412,http://www.harvesttx.com,2147260251,2018-07-24 01:34:19.570736,2018-08-24 16:20:59.732265,United States,-96.615387,33.197177,
tupps-brewery,Tupps Brewery,micro,721 Anderson St,McKinney,Texas,75069-7149,http://www.tuppsbrewery.com,2147045039,2018-07-24 01:34:21.921921,2018-08-24 16:24:04.700511,United States,-96.6116954897959,33.1837042244898,
tall-city-brewing-co,Tall City Brewing Co.,planning,,Midland,Texas,79703-5137,,4327708679,2018-07-24 01:34:21.553737,2018-08-11 21:39:55.166202,United States,,,
brewery-in-planning-midlothian-tx,"Brewery in Planning - MIDLOTHIAN, TX",planning,,Midlothian,Texas,76065-7937,,5012883713,2018-07-24 01:34:18.421715,2018-08-11 21:39:47.557084,United States,,,
5x5-brewing-co,5x5 Brewing Co.,planning,,Mission,Texas,78572-6215,http://www.5x5brewing.com,9565291353,2018-07-24 01:34:17.41918,2018-08-11 21:39:44.849191,United States,,,
texas-leaguer-brewing-company,Texas Leaguer Brewing Company,micro,13503 Pike Rd,Missouri City,Texas,77489-1033,http://www.txleaguer.com,8328959000,2018-07-24 01:34:21.616046,2018-08-24 16:23:39.059909,United States,-95.5480643,29.627854,
cyclers-brewing,Cycler's Brewing,micro,17105 Osborn Rd,Montgomery,Texas,77356,http://www.cyclersbrewing.com,7135692485,2018-07-24 01:34:18.832961,2018-08-11 21:39:48.543951,United States,,,
san-jacinto-brewing-company,San Jacinto Brewing Company,planning,,Montgomery,Texas,77316-9200,,2813808200,2018-07-24 01:34:21.117388,2018-08-11 21:39:54.007169,United States,,,
nacogdoches-brewing-company-inc,"Nacogdoches Brewing Company, Inc.",planning,,Nacogdoches,Texas,75964-8327,,9365604532,2018-07-24 01:34:20.31568,2018-08-11 21:39:52.228146,United States,,,
fredonia-brewery-llc,"Fredonia Brewery, LLC",micro,138 N Mound St,Nacogdoches,Texas,75961-5262,http://www.fredoniabrewery.com,9363055125,2018-07-24 01:34:19.28373,2018-08-24 16:20:35.579653,United States,-94.6519853081344,31.6029903972589,
faust-hotel-restaurant-and-brew-pub,Faust Hotel Restaurant and Brew Pub,micro,499 S Castell Ave,New Braunfels,Texas,78130-7618,http://www.faustbrewing.com,8306257791,2018-07-24 01:34:19.114095,2018-08-24 16:20:20.414866,United States,-98.12031,29.698525,
5-stones-artisan-brewery,5 Stones Artisan Brewery,micro,11335 Farm To Market Road 1863,New Braunfels,Texas,78132,,2103808215,2018-07-24 01:34:17.391347,2018-08-24 16:18:25.18855,United States,-98.232345,29.711365,
new-braunfels-brewing,New Braunfels Brewing,micro,180 W Mill St Ste 100,New Braunfels,Texas,78130-5058,http://www.nbbrewing.com,8306262739,2018-07-24 01:34:20.342823,2018-08-11 21:39:52.296249,United States,,,
weilbacher-brewery,Weilbacher Brewery,planning,,New Braunfels,Texas,78130-5104,http://www.weilbacherbeer.com,5126637507,2018-07-24 01:34:22.187115,2018-08-11 21:39:56.588158,United States,,,
ruggedman-brewing-company,Ruggedman Brewing Company,micro,7600 Old Bastrop Rd,New Braunfels,Texas,78130,http://www.drinkthedamnbeer.com,8306322104,2018-07-24 01:34:21.048356,2018-08-11 21:39:53.859443,United States,,,
frisky-brewing-company,Frisky Brewing Company,planning,,Odessa,Texas,79765,http://www.friskybrewing.com,,2018-07-24 01:34:19.336631,2018-08-11 21:39:49.675482,United States,,,
brigadoon-brewery-and-brew-school,Brigadoon Brewery & Brew School,micro,4808 Fairmont Pkwy Ste 112,Pasadena,Texas,77505-3722,http://www.brigadoonbrewery.com,9368940425,2018-07-24 01:34:18.559977,2018-08-24 16:19:33.871078,United States,-95.1511925,29.6501134,
bakfish-brewing-company,BAKFISH Brewing Company,micro,1231 Broadway St,Pearland,Texas,77581-6303,http://www.bakfishbrewing.com,2819938658,2018-07-24 01:34:17.733379,2018-08-24 16:18:52.241189,United States,-95.4174149,29.5551351,
three-empires-brewing-company-llc,"Three Empires Brewing Company, LLC",planning,,Pearland,Texas,77584,,,2018-07-24 01:34:21.83084,2018-08-11 21:39:55.873827,United States,,,
vallensons-brewing-co,Vallensons Brewing Co.,micro,4081 Rice Drier Road,Pearland,Texas,77581,http://www.vallensons.com,2817054063,2018-07-24 01:34:22.130453,2018-08-24 16:24:18.296476,United States,-95.28716205,29.57569295,
big-river-brewery-llc,"Big River Brewery, LLC",micro,505 W Nolana Loop,Pharr,Texas,78577-8345,,9565661455,2018-07-24 01:34:17.941528,2018-08-11 21:39:46.380052,United States,,,
anvil-brewing,Anvil Brewing,brewpub,115 S. Compress St,Pittsburg,Texas,75686-1353,http://www.anvilbrewingtx.com,9039267741,2018-07-24 01:34:17.566793,2018-08-11 21:39:45.393842,United States,,,
brewery-in-planning-plano,Brewery in Planning - Plano,planning,,Plano,Texas,75023-6320,,,2018-07-24 01:34:18.435555,2018-08-11 21:39:47.598125,United States,,,
brewery-in-planning-plano-tx,"Brewery In Planning- Plano, TX.",planning,,Plano,Texas,75075-3012,,,2018-07-24 01:34:18.502368,2018-08-11 21:39:47.765309,United States,,,
gordon-biersch-brewery-restaurant-plano,Gordon Biersch Brewery Restaurant - Plano,brewpub,7401 Lone Star Dr Ste B120,Plano,Texas,75024-5646,http://www.craftworksrestaurants.com,4694670464,2018-07-24 01:34:19.455729,2018-08-11 21:39:49.938853,United States,,,
union-bear-brewing-co,Union Bear Brewing Co.,brewpub,5880 State Highway 121 Ste 101,Plano,Texas,75024,http://www.unionbear.com,2142972337,2018-07-24 01:34:22.103542,2018-08-24 16:24:15.292657,United States,-96.8494045,33.083072,
unlawful-assembly-brewing-company,Unlawful Assembly Brewing Company,brewpub,7800 Windrose Ave,Plano,Texas,75024-0114,http://www.unlawfulassembly.com,9728967668,2018-07-24 01:34:22.117242,2018-08-24 16:24:16.792302,United States,-96.8267889,33.078317,
oneil-and-sons-brewing-company,O'Neil & Sons Brewing Company,micro,502 Half League Rd Unit A,Port Lavaca,Texas,77979-,http://www.oneilandsons.com/home,3616766023,2018-07-24 01:34:20.603779,2018-08-11 21:39:52.834003,United States,,,
neches-brewing-company,Neches Brewing Company,brewpub,1108 Port Neches Ave,Port Neches,Texas,77651-2804,,4092375700,2018-07-24 01:34:20.328607,2018-08-24 16:21:57.984743,United States,-93.958435,29.991653,
back-pew-brewing,Back Pew Brewing,micro,26452 Sorters Rd,Porter,Texas,77365-4752,http://www.backpewbrewing.com,2816087526,2018-07-24 01:34:17.692577,2018-08-11 21:39:45.831806,United States,,,
happy-hippie-brewing-company,Happy Hippie Brewing Company,planning,,Richardson,Texas,75080,http://www.happyhippiebeer.com,2146167681,2018-07-24 01:34:19.557349,2018-08-11 21:39:50.417289,United States,,,
four-bullets-brewery,Four Bullets Brewery,micro,640 N Interurban St,Richardson,Texas,75081-3317,http://www.fourbulletsbrewery.com,,2018-07-24 01:34:19.217272,2018-08-24 16:20:27.939359,United States,-96.7268825513068,32.958039153542,
fulbrook-ale-works,Fulbrook Ale Works,micro,1125 Farm To Market 359,Richmond,Texas,77406,http://Fulbrookaleworks.com,8329809675,2018-07-24 01:34:19.363265,2018-08-11 21:39:49.751328,United States,,,
running-walker-brewery-and-braman-winery,Running Walker Brewery & Braman Winery,micro,3421 FM 359 Rd,Richmond,Texas,77406-7855,,,2018-07-24 01:34:21.061216,2018-08-11 21:39:53.888761,United States,,,
alcazar-brewery-llc,"Alcazar Brewery, LLC.",planning,,Rio Grande City,Texas,78582-4450,,,2018-07-24 01:34:17.502043,2018-08-11 21:39:45.211931,United States,,,
brewery-in-planning-grapevine,Brewery in Planning - Grapevine,planning,,Roanoke,Texas,76262,,6199472423,2018-07-24 01:34:18.356282,2018-08-11 21:39:47.418107,United States,,,
hemisphere-brewing-co,Hemisphere Brewing Co,micro,2015 Kristy Ln,Rockwall,Texas,75032-6242,http://www.hemispherebrewing.com,9727224535,2018-07-24 01:34:19.598085,2018-08-24 16:21:01.202871,United States,-96.4402658754477,32.9115187673926,
siren-rock-brewing-company,Siren Rock Brewing Company,planning,,Rockwall,Texas,75087,,,2018-07-24 01:34:21.220847,2018-08-11 21:39:54.242098,United States,,,
woodcreek-brewing-company,Woodcreek Brewing Company,micro,1400 E Interstate 30 Ste A,Rockwall,Texas,75087-6234,http://www.woodcreekbrewing.com,9725890048,2018-07-24 01:34:22.331928,2018-08-11 21:39:56.887693,United States,,,
pinthouse-pizza-round-rock,Pinthouse Pizza Round Rock,planning,,Round Rock,Texas,78681,,,2018-07-24 01:34:20.753926,2018-08-11 21:39:53.189523,United States,,,
flix-brewhouse,Flix Brewhouse,micro,2000 S Interstate 35 Ste B1,Round Rock,Texas,78681-6900,http://www.flixbrewhouse.com,5122442739,2018-07-24 01:34:19.144319,2018-08-11 21:39:49.270371,United States,,,
idle-vine-brewing-company,Idle Vine Brewing Company,micro,16920 Joe Barbee Dr,Round Rock,Texas,78664-2373,http://www.IdleVineBrewery.com,5125273235,2018-07-24 01:34:19.793047,2018-08-11 21:39:51.042524,United States,,,
the-humble-pint,The Humble Pint,planning,,Round Rock,Texas,78681-5504,http://www.humblepint.com,5129475913,2018-07-24 01:34:21.704498,2018-08-11 21:39:55.552332,United States,,,
bluebonnet-beer-co,Bluebonnet Beer Co,micro,1700 Bryant Dr Ste 107,Round Rock,Texas,78664-3898,http://www.bluebonnetbeerco.com,5127744258,2018-07-24 01:34:18.109183,2018-08-24 16:19:21.721384,United States,-97.645332,30.491657,
horny-toad-brewing-co-llc,"Horny Toad Brewing Co, LLC",micro,313 Edward St,Rowena,Texas,76875-3609,http://www.hornytoadbrewery.com,3252121177,2018-07-24 01:34:19.704554,2018-08-24 16:21:10.20284,United States,-100.04654669697,31.6475051818182,
bankhead-brewing-company,Bankhead Brewing Company,brewpub,3840 Main St,Rowlett,Texas,75088-5073,http://www.bankheadbrewing.com,2143847953,2018-07-24 01:34:17.758517,2018-08-24 16:18:55.287389,United States,-96.5661088275862,32.9029137011494,
thirsty-bro-brewing,Thirsty Bro Brewing,micro,141 E Main St,Royse City,Texas,75189-3712,http://www.ThirstyBroBrewingCo.com,2818417246,2018-07-24 01:34:21.790608,2018-08-24 16:23:52.913327,United States,-96.3319303877551,32.9752143877551,
barrow-brewing-company,Barrow Brewing Company,micro,108 Royal St,Salado,Texas,76571,http://www.barrowbrewing.com,2549473544,2018-07-24 01:34:17.825541,2018-08-24 16:18:59.830323,United States,-97.5370313333333,30.9429598888889,
the-soco-taphouse,The SoCo Taphouse,brewpub,113 E Concho Ave Ste 210,San Angelo,Texas,76903-5948,http://www.socotaphouse.com,3257036218,2018-07-24 01:34:21.7785,2018-08-11 21:39:55.738195,United States,,,
zero-one-ale-house,Zero One Ale House,brewpub,20 W Beauregard Ave,San Angelo,Texas,76903-5833,,3256535123,2018-07-24 01:34:22.357924,2018-08-24 16:24:36.784238,United States,-100.437236263931,31.4624541882408,
freetail-brewing-co,Freetail Brewing Co,micro,2000 S Presa St,San Antonio,Texas,78210-2835,http://www.freetailbrewing.com,2103954974,2018-07-24 01:34:19.298053,2018-08-24 16:20:37.310394,United States,-98.482853,29.401901,
alamo-beer-co,Alamo Beer Co,micro,415 Burnet St,San Antonio,Texas,78202-1909,http://www.alamobeer.com,2108725589,2018-07-24 01:34:17.489385,2018-08-24 16:18:32.840553,United States,-98.477163798982,29.4290232136232,
branchline-brewing-company,Branchline Brewing Company,contract,,San Antonio,Texas,78247-3502,http://www.branchlinebrewing.com,3612908817,2018-07-24 01:34:18.162038,2018-08-11 21:39:46.864799,United States,,,
busted-sandal-brewing-company,Busted Sandal Brewing Company,micro,7114 Oaklawn Dr,San Antonio,Texas,78229-3021,http://www.bustedsandalbrewing.com,2108721486,2018-07-24 01:34:18.626133,2018-08-11 21:39:48.050186,United States,,,
dorcol-distilling-and-brewing-co,Dorcol Distilling and Brewing CO,micro,1902 S Flores St,San Antonio,Texas,78204,http://www.dorcolspirits.com,2102290607,2018-07-24 01:34:18.993151,2018-08-24 16:20:09.693126,United States,-98.502373,29.405708,
freetail-brewing-co-brewpub,Freetail Brewing Co - Brewpub,brewpub,4035 N Loop 1604 W Ste 105,San Antonio,Texas,78257-9547,http://www.freetailbrewing.com,2106256000,2018-07-24 01:34:19.310865,2018-08-11 21:39:49.610253,United States,,,
granary-cue-and-brew,Granary 'Cue and Brew,brewpub,602 Avenue A,San Antonio,Texas,78215-1222,http://www.thegranarysa.com,2102280124,2018-07-24 01:34:19.497498,2018-08-24 16:20:53.870921,United States,-98.4791698311979,29.44143325,
longtab-brewing-company-llc,Longtab Brewing Company LLC,planning,,San Antonio,Texas,78238-1920,http://www.longtabbrewing.com,2106024561,2018-07-24 01:34:20.183073,2018-08-11 21:39:51.901393,United States,,,
mad-pecker-brewing,Mad Pecker Brewing,brewpub,6025 Tezel Rd Ste 122,San Antonio,Texas,78250-4180,http://www.madpeckerbrewing.com,2105623059,2018-07-24 01:34:20.20906,2018-08-11 21:39:51.96056,United States,,,
ka¼nstler-brewing,KÃ¼nstler Brewing,brewpub,302 E Lachapelle,San Antonio,Texas,78204-1945,http://www.kuenstlerbrewing.com,2106884519,2018-07-24 01:34:19.969439,2018-08-24 16:21:31.242443,United States,-98.5000987979798,29.4050302626263,
ranger-creek-brewery,Ranger Creek Brewery,micro,4834 Whirlwind Dr Ste 2,San Antonio,Texas,78217-3740,http://www.drinkrangercreek.com,8329693800,2018-07-24 01:34:20.875153,2018-08-11 21:39:53.466777,United States,,,
roadmap-brewing-co,Roadmap Brewing Co,planning,,San Antonio,Texas,78215-1812,http://www.roadmapbrewing.com,,2018-07-24 01:34:20.990103,2018-08-11 21:39:53.732297,United States,,,
southerleigh-brewing,Southerleigh Brewing,brewpub,"136 E Grayson St., Ste 120",San Antonio,Texas,78212-4114,http://www.southerleigh.com,2103137627,2018-07-24 01:34:21.324492,2018-08-11 21:39:54.514666,United States,,,
twin-sisters,TWIN SISTERS,planning,,San Antonio,Texas,78210,,2108186515,2018-07-24 01:34:21.976965,2018-08-11 21:39:56.184664,United States,,,
weathered-souls-brewing-co,Weathered Souls Brewing Co.,brewpub,606 Embassy Oaks Ste 500,San Antonio,Texas,78216-1501,http://www.weatheredsouls.beer,7047706605,2018-07-24 01:34:22.174162,2018-08-11 21:39:56.555207,United States,,,
blue-star-brewing-co,Blue Star Brewing Co,brewpub,1414 S Alamo St # 105,San Antonio,Texas,78210-1117,http://www.bluestarbrewing.com,2102125506,2018-07-24 01:34:18.095951,2018-08-24 16:19:20.1624,United States,-98.4961530696048,29.4098956943037,
altmeyer-and-lewis-brewing-company,Altmeyer and Lewis Brewing Company,micro,15898 N Hwy 123,San Marcos,Texas,78666-2418,http://www.altmeyerlewisbrewing.com,5126679537,2018-07-24 01:34:17.515391,2018-08-11 21:39:45.242275,United States,,,
aquabrew,Aquabrew,brewpub,150 S L B J Dr,San Marcos,Texas,78666-5506,http://www.aqua-brew.com,5123532739,2018-07-24 01:34:17.582018,2018-08-11 21:39:45.425081,United States,,,
middleton-brewing-mbtx,Middleton Brewing (MBTX),micro,101 Oakwood Loop,San Marcos,Texas,78666-1762,http://www.mbtx.com,5128473435,2018-07-24 01:34:20.276856,2018-08-11 21:39:52.13312,United States,,,
sean-patricks-pub,Sean Patrick's Pub,planning,,San Marcos,Texas,78666-5590,,,2018-07-24 01:34:21.15237,2018-08-11 21:39:54.061309,United States,,,
the-root-cellar,The Root Cellar,brewpub,215 N Lbj Dr,San Marcos,Texas,78666-5621,http://www.rootcellarcafe.com,5123925158,2018-07-24 01:34:21.766231,2018-08-11 21:39:55.710194,United States,,,
bar-d-brew-house,Bar D Brew House,brewpub,213 N High St,San Saba,Texas,76877-3533,http://www.bardbrewhouse.com,3253726100,2018-07-24 01:34:17.771536,2018-08-24 16:18:56.825966,United States,-98.7185491738724,31.1967847171323,
seguin-brewing-company,Seguin Brewing Company,micro,111 W Gonzales St,Seguin,Texas,78155-5630,http://www.seguinbrewing.com,2107713913,2018-07-24 01:34:21.165317,2018-08-24 16:23:04.284209,United States,-97.9652837755102,29.5695708163265,
bs-brewing,BS Brewing,micro,1408 Old Lehmann Rd,Seguin,Texas,78155-5048,http://www.bsbrewingtx.com,8306608124,2018-07-24 01:34:18.584696,2018-08-24 16:19:36.889252,United States,-97.9047789413549,29.6909156069364,
cedar-creek-brewery,Cedar Creek Brewery,brewpub,336 E Cedar Creek Pkwy,Seven Points,Texas,75143-8395,http://www.cedarcreekbrewery.com,2145029795,2018-07-24 01:34:18.666026,2018-08-11 21:39:48.15568,United States,,,
cellarmans-pub-and-brewery,Cellarman's Pub & Brewery,brewpub,2130 Texoma Pkwy,Sherman,Texas,75090-2622,http://www.cellarmanspub.com,9038130994,2018-07-24 01:34:18.692159,2018-08-24 16:19:45.696627,United States,-96.5995301069266,33.66188865,
903-brewers,903 Brewers,micro,1718 S Elm St,Sherman,Texas,75090-8725,http://www.903brewers.com,2142438090,2018-07-24 01:34:17.445521,2018-08-24 16:18:28.265528,United States,-96.6069805510298,33.617887318202,
spoetzl-brewery,Spoetzl Brewery,regional,603 E Brewery St,Shiner,Texas,77984-0368,http://www.shiner.com,3615943383,2018-07-24 01:34:21.418383,2018-08-11 21:39:54.672851,United States,,,
padre-island-brewing-co,Padre Island Brewing Co,brewpub,3400 Padre Blvd,South Padre Island,Texas,78597,http://www.pibrewingcompany.com,9567619585,2018-07-24 01:34:20.64655,2018-08-24 16:22:22.462739,United States,-97.165899,26.079915,
solid-rock-brewing,Solid Rock Brewing,micro,2214 Bee Creek Rd,Spicewood,Texas,78669-5136,http://www.solidrockbrewing.com,5124878786,2018-07-24 01:34:21.299266,2018-08-11 21:39:54.450134,United States,,,
rough-diamond-brewery,Rough Diamond Brewery,micro,101 Kendalia Cir,Spring Branch,Texas,78070-6621,http://rdbrewery.com,8308856616,2018-07-24 01:34:21.018492,2018-08-11 21:39:53.798464,United States,,,
shade-tree-saloon-and-grill,Shade Tree Saloon & Grill,brewpub,13530 Hwy 281 N,Spring Branch,Texas,78070,http://www.shadetreesaloon.com,8308855550,2018-07-24 01:34:21.179027,2018-08-11 21:39:54.119024,United States,,,
backstory-brewery,BackStory Brewery,planning,,Sulphur Springs,Texas,75482-2772,,,2018-07-24 01:34:17.705294,2018-08-11 21:39:45.857383,United States,,,
texas-beer-company,Texas Beer Company,micro,1331 W 2nd St,Taylor,Texas,76574-2434,http://www.texasbeerco.com,5122897460,2018-07-24 01:34:21.578433,2018-08-24 16:23:34.456504,United States,-97.4242441578947,30.5678257894737,
texas-beer-company,Texas Beer Company,micro,201 N Main St,Taylor,Texas,76574,,5124666939,2018-07-24 01:34:21.590956,2018-08-24 16:23:36.120246,United States,-97.409585,30.568804,
bjs-brewhouse,BJ's Brewhouse,regional,602 E Central Ave,Temple,Texas,76501-4319,,7145002400,2018-07-24 01:34:17.985593,2018-08-24 16:19:12.030605,United States,-97.33525536,31.09509964,
slantways-brewing-company,Slantways Brewing Company,planning,,The Woodlands,Texas,77381-4641,,,2018-07-24 01:34:21.261522,2018-08-11 21:39:54.332986,United States,,,
bearded-fox-brewing-co,Bearded Fox Brewing Co.,micro,11729 Spring Cypress Rd Ste R,Tomball,Texas,77377-6063,http://www.beardedfoxbrewing.com,8327617928,2018-07-24 01:34:17.895079,2018-08-11 21:39:46.295948,United States,,,
rosehill-brewing-co,Rosehill Brewing Co.,planning,,Tomball,Texas,77377-3534,,,2018-07-24 01:34:21.004169,2018-08-11 21:39:53.765866,United States,,,
etx-brewing-co,ETX Brewing Co.,micro,221 S Broadway Ave,Tyler,Texas,75702-7302,http://www.etxbrew.com,9036307720,2018-07-24 01:34:19.072873,2018-08-24 16:20:15.875801,United States,-95.3081695,32.2553345,
true-vine-brewing-company,True Vine Brewing Company,micro,219 S Englewood Ave,Tyler,Texas,75702-6926,http://www.truevinebrewing.com,9036000124,2018-07-24 01:34:21.908852,2018-08-24 16:24:03.241979,United States,-95.31600025,32.34866425,
brotherwell-brewing,Brotherwell Brewing,micro,400 E Bridge St,Waco,Texas,76704-2505,,2147638755,2018-07-24 01:34:18.572674,2018-08-24 16:19:35.425686,United States,-97.124214,31.56428,
yaxx-brewing-company,Yaxx Brewing Company,planning,,Waco,Texas,76712-3284,,8014730669,2018-07-24 01:34:22.34488,2018-08-11 21:39:56.914324,United States,,,
bare-arms-brewing,Bare Arms Brewing,micro,2515 La Salle Ave,Waco,Texas,76706-3929,http://www.barearmsbrewing.com,2547598480,2018-07-24 01:34:17.784097,2018-08-24 16:18:58.302521,United States,-97.1308195853569,31.5248846162896,
brewery-in-planning-washington,Brewery in Planning - Washington,planning,,Washington,Texas,77880,,,2018-07-24 01:34:18.463424,2018-08-11 21:39:47.705078,United States,,,
railport-brewing-company,Railport Brewing Company,micro,405 W Madison St,Waxahachie,Texas,75165-3666,http://www.railportbrewing.com,4693605383,2018-07-24 01:34:20.848972,2018-08-24 16:22:40.431574,United States,-96.8514105101343,32.38463715,
stoic-brewing,Stoic Brewing,contract,667 Robinett Rd,Waxahachie,Texas,75165-6343,http://stoicbrewing.com,5128884843,2018-07-24 01:34:21.503773,2018-08-11 21:39:55.010345,United States,,,
saloon-door-brewing-co,Saloon Door Brewing Co,brewpub,105 Magellan Cir Ste A,Webster,Texas,77598-2033,http://www.saloondoorbrewing.com,4099393992,2018-07-24 01:34:21.089412,2018-08-11 21:39:53.951063,United States,,,
the-blue-onion-brewpub,The Blue Onion Brewpub,brewpub,423 S International Blvd,Weslaco,Texas,78596-9114,http://www.myblueonion.com,9564470067,2018-07-24 01:34:21.641159,2018-08-11 21:39:55.377084,United States,,,
wichita-falls-brewing-co,Wichita Falls Brewing Co.,micro,701 Indiana Ave,Wichita Falls,Texas,76301,http://www.wichitafallsbrewing.com,9402644677,2018-07-24 01:34:22.264176,2018-08-24 16:24:27.355871,United States,-98.491525,33.913486,
wimberley-brewing-co-and-brewsters-pizza,Wimberley Brewing Co & Brewsters Pizza,brewpub,9595 Ranch Road 12 Ste 10,Wimberley,Texas,78676-5248,http://www.wimberlybrewingcompany.com,5128473299,2018-07-24 01:34:22.318518,2018-08-11 21:39:56.860103,United States,,,
cypress-creek-southern-ales,Cypress Creek Southern Ales,micro,200 E Carnegie St,Winnsboro,Texas,75494-3206,http://www.cypresscreeksouthernales.com,2088414159,2018-07-24 01:34:18.846697,2018-08-24 16:19:56.024721,United States,-95.288727,32.955986,
good-neighbor-brews,Good Neighbor Brews,micro,211 Regency Dr,Wylie,Texas,75098-7089,http://www.goodneighborbrews.com,4694714287,2018-07-24 01:34:19.440568,2018-08-24 16:20:49.2267,United States,-96.5858334736842,33.0044938421053,