id,name,brewery_type,street,city,state,postal_code,website_url,phone,created_at,updated_at,country,longitude,latitude,tags,Notes
steam-donkey-brewing-co,Steam Donkey Brewing Co,micro,101 E Wishkah St,Aberdeen,Washington,98520-6503,http://Steamdonkeybrewing.com,3606379431,2018-07-24 01:34:33.008507,2018-08-24 16:39:40.211046,United States,-123.81773,46.974242,,
orlison-brewing-company,Orlison Brewing Company,closed,12921 West 17th Ave,Airway Heights,Washington,99001,http://www.orlisonbrewing.com,5093896253,2018-07-24 01:34:31.817802,2020-10-11 10:54:13,United States,-117.5924443,47.6403069,,
anacortes-brewery/rockfish-grill,Anacortes Brewery/Rockfish Grill,brewpub,320 Commercial Ave,Anacortes,Washington,98221-1517,http://www.anacortesrockfish.com,3605881720,2018-07-24 01:34:27.850684,2020-10-11 10:55:01,United States,-122.612608903126,48.5193343111222,,
bastion-brewing-company,Bastion Brewing Company,brewpub,12529 Christianson Rd,Anacortes,Washington,98221-8682,http://www.bastionbrewingcompany.com,3603991614,2018-07-24 01:34:28.088483,2018-08-24 16:32:40.151936,United States,-122.570872928244,48.460805062576,,
210-brewing-co,210 Brewing Co,brewpub,3438 Stoluckquamish Ln,Arlington,Washington,98223-9056,http://www.angelofthewind.com,3604749740,2018-07-24 01:34:27.692711,2020-10-11 13:14:15,United States,-122.184210,48.215096,,
skookum-brewery,Skookum Brewery,micro,17925 59th Ave NE # A,Arlington,Washington,98223-6352,http://www.skookumbrewing.com,3604037094,2018-07-24 01:34:32.818878,2020-10-11 13:15:22,United States,-122.150305,48.159011,,
geaux-brewing-llc,Geaux Brewing LLC,brewpub,3205 C St NE,Auburn,Washington,98002-1725,http://www.geauxbrewing.com,2533973939,2018-07-24 01:34:29.998908,2020-10-11 10:58:32,United States,-122.223720918367,47.3076745714286,,
hideaway-brewing-co,Hideaway Brewing Co,micro,18731 SE 314th St,Auburn,Washington,98092-6556,,2536319393,2018-07-24 01:34:30.357682,2018-08-24 16:35:42.490638,United States,-122.1764384,47.3206933,,
rail-hopn-brewing-co,Rail Hop'n Brewing Co,micro,122 W Main St Ste 101B,Auburn,Washington,98001-4924,http://www.railhopn.com,2532176800,2018-07-24 01:34:32.187497,2020-10-11 10:58:52,United States,-122.229088452132,47.3120418986318,,
scamp-brewing-co,Scamp Brewing Co,micro,402 16th St NE Ste 107,Auburn,Washington,98002-1600,http://www.scampbrewing.com,,2018-07-24 01:34:32.658067,2018-08-11 21:40:25.413697,United States,-122.224267,47.321914,,
rock-wood-fired-pizza-and-brewery-auburn,Rock Wood Fired Pizza & Brewery - Auburn,contract,1408 Lake Tapps Pkwy SE # E,Auburn,Washington,98092-8158,http://www.therockwfp.com,2538337887,2018-07-24 01:34:32.50548,2018-08-24 16:38:47.63053,United States,-122.2095415,47.2448314,,
brewery-in-planning-battle-ground-wa,"Brewery In Planning- Battle Ground, WA.",planning,,Battle Ground,Washington,98604-1460,,,2018-07-24 01:34:28.622872,2018-08-11 21:40:13.146749,United States,,,,
conversations-brewing,Conversations Brewing,closed,,Battle Ground,Washington,98604,,,2018-07-24 01:34:28.971558,2020-10-10 13:35:57,United States,,,,
northwood-public-house-and-brewery,Northwood Public House & Brewery,brewpub,1401 SE Rasmussen Blvd,Battle Ground,Washington,98604-8620,http://www.northwoodpublichouse.com,3607230937,2018-07-24 01:34:31.639322,2018-08-24 16:37:32.070031,United States,-122.523278621773,45.77521745,,
barrel-mountain-brewing,Barrel Mountain Brewing,micro,607 E Main St,Battle Ground,Washington,98604-4887,http://www.barrelmountainbrewing.com,3603428111,2018-07-24 01:34:28.073636,2018-08-24 16:32:38.649522,United States,-122.530930676251,45.7808638963937,,
bent-bine-brew-co-llc,Bent Bine Brew Co. LLC,brewpub,23297 WA-3,Belfair,Washington,98394,http://www.bentbine.com,8142739379,2018-07-24 01:34:28.209091,2020-10-11 13:17:22,United States,-122.832230,47.445115,,
bellevue-brewing-co,Bellevue Brewing Co,brewpub,1820 130th Ave NE # 2,Bellevue,Washington,98005-2205,http://www.bellevuebrewing.com,4257850171,2018-07-24 01:34:28.142348,2018-08-24 16:32:44.73639,United States,-122.166930590479,47.6265806866727,,
resonate-brewery-pizzeria,Resonate Brewery + Pizzeria,brewpub,5606 119th Ave SE,Bellevue,Washington,98006-3754,http://www.resonatebrewery.com,4256443164,2018-07-24 01:34:32.402304,2018-08-24 16:38:37.000158,United States,-122.1774828,47.5523206,,
aslan-brewing-company,Aslan Brewing Company,micro,1330 N Forest St,Bellingham,Washington,98225-4702,http://aslanbrewing.com,3603934106,2018-07-24 01:34:27.877892,2018-08-24 16:32:19.367727,United States,-122.475450877551,48.7480153061224,,
boundary-bay-brewery-and-bistro,Boundary Bay Brewery & Bistro,brewpub,1107 Railroad Ave,Bellingham,Washington,98225-5007,http://www.bbaybrewery.com,3606475593,2018-07-24 01:34:28.471808,2018-08-24 16:33:08.435224,United States,-122.4809958,48.7475046,,
gruff-brewing-company,Gruff Brewing Company,micro,104 E Maple St # 101,Bellingham,Washington,98225-5006,http://www.gruff-brewing.com,3607340115,2018-07-24 01:34:30.194628,2018-08-24 16:35:27.429397,United States,-122.4822547,48.7472243,,
illuminati-brewing-company,Illuminati Brewing Company,closed,3950 Hammer Dr Ste 101,Bellingham,Washington,98226-7776,http://www.illuminatibrewing.com,3602207072,2018-07-24 01:34:30.516853,2018-08-24 16:35:57.452648,United States,-122.456005606061,48.7838573030303,,
kulshan-brewing-co,Kulshan Brewing Co,micro,2238 James St,Bellingham,Washington,98225-4142,http://www.kulshanbrewing.com,3603895348,2018-07-24 01:34:30.646887,2018-08-24 16:36:04.9436,United States,-122.4645645,48.7601273,,
kulshan-brewing-co-k2,Kulshan Brewing Co - K2,micro,1538 Kentucky St,Bellingham,Washington,98229-4720,,3603895348,2018-07-24 01:34:30.660948,2018-08-24 16:36:06.443645,United States,-122.453928093663,48.7576734843602,,
melvin-brewing-bellingham,Melvin Brewing Bellingham,closed,2416 Meridian St,Bellingham,Washington,98225-2405,,3603063285,2018-07-24 01:34:31.170163,2020-10-11 11:12:01,United States,-122.485982020408,48.7621708979592,,
122w-brewing-co,122 West Brewing Co,brewpub,2416 Meridian St,Bellingham,Washington,98225-2405,https://www.122westbrew.com/,3603063285,2020-10-11 11:12:57,2020-10-11 11:12:57,United States,-122.485982020408,48.7621708979592,,
menace-brewing,Menace Brewing,micro,2529 Meridian St,Bellingham,Washington,98225-2406,,3605954059,2018-07-24 01:34:31.183678,2018-08-24 16:36:51.570984,United States,-122.486221142857,48.7635508571429,,
twin-sisters-brewing-company,Twin Sisters Brewing Company,brewpub,500 Carolina St,Bellingham,Washington,98225-4106,https://www.twinsistersbrewing.com,3609226700,2018-07-24 01:34:33.474346,2020-10-11 11:08:12,United States,-122.468971,48.760265,,
stones-throw-brewery,Stones Throw Brewery,micro,1009 Larrabee Ave,Bellingham,Washington,98225-7338,http://www.stonesthrowbrewco.com,3603625058,2018-07-24 01:34:33.036079,2018-08-24 16:39:43.457247,United States,-122.497165,48.718516,,
structures-brewing,Structures Brewing,micro,1420 N State St,Bellingham,Washington,98225-4513,http://www.structuresbrewing.com,3605827475,2018-07-24 01:34:33.073978,2018-08-24 16:39:47.893016,United States,-122.474450699451,48.74988055,,
wander-brewing,Wander Brewing,micro,1807 Dean Ave,Bellingham,Washington,98225-4616,http://www.wanderbrewing.com,3606476152,2018-07-24 01:34:33.668524,2018-08-24 16:40:40.060033,United States,-122.473755877551,48.7541094693877,,
chuckanut-brewery-north-nut,Chuckanut Brewery - North Nut,micro,601 W Holly St,Bellingham,Washington,98225-3920,http://www.chuckanutbreweryandkitchen.com,3607523377,2018-07-24 01:34:28.903213,2018-08-24 16:33:31.816696,United States,-122.4851164,48.7533261,,
foothills-brewing-and-beverage-co,Foothills Brewing and Beverage Co,micro,25312 Kanaskat Dr,Black Diamond,Washington,98010,,3608862215,2018-07-24 01:34:29.832861,2018-08-24 16:34:55.984387,United States,-122.006345,47.328838,,
lumber-house-brewing-company,Lumber House Brewing Company,micro,30741 3rd AVE Suite 133,Black Diamond,Washington,98010,https://lumberhousebrew.com,4254320121,2018-07-24 01:34:30.936869,2010-10-11 11:28:15,United States,-122.010144,47.327123,,
atwood-ales,Atwood Ales,micro,4012 Sweet Rd,Blaine,Washington,98230-9108,http://www.atwoodales.com,3603996239,2018-07-24 01:34:27.919989,2018-08-24 16:32:23.763378,United States,-122.699045857143,48.9790061428571,,
beardslee-public-house,Beardslee Public House,brewpub,19116 Beardslee Blvd Ste 201,Bothell,Washington,98011-0202,,,2018-07-24 01:34:28.108505,2018-08-24 16:32:41.6315,United States,-122.1914046,47.7663209,,
decibel-brewing-co,Decibel Brewing Co,micro,18204 Bothell Everett Hwy Ste C,Bothell,Washington,98012-6869,http://www.decibelbrewing.com,4254081946,2018-07-24 01:34:29.05596,2020-10-11 13:18:29,United States,-122.210174,47.833364,,
foggy-noggin-brewing,Foggy Noggin Brewing,micro,22329 53rd Ave SE,Bothell,Washington,98021-8017,http://www.foggynogginbrewing.com,2065539223,2018-07-24 01:34:29.818114,2020-10-11 13:19:58,United States,-122.161117,47.794727,,
watts-brewing-company,Watts Brewing Company,micro,19813 51st Ave SE,Bothell,Washington,98012-7440,http://www.wattsbrewingcompany.com,2066583646,2018-07-24 01:34:33.707862,2018-08-11 21:40:27.902321,United States,,,,
mcmenamins-anderson-school-brewery,McMenamins Anderson School Brewery,brewpub,18607 Bothell Way NE,Bothell,Washington,98011-1928,http://www.mcmenamins.com/AndersonSchool,4253980122,2018-07-24 01:34:31.051778,2018-08-24 16:36:39.507605,United States,-122.208069768707,47.7638777210884,,
terramar-brewstillery,Terramar Brewstillery,micro,5712 Gilkey Ave,Bow,Washington,98232-9353,http://terramarcraft.com,3603996222,2018-07-24 01:34:33.169521,2020-10-11 11:31:19,United States,-122.443599,48.564097,,
bad-bulldogs-brewery,Bad Bulldogs Brewery,closed,941 N Callow Ave,Bremerton,Washington,98312,,3606278079,2018-07-24 01:34:27.961744,2018-08-24 16:32:28.183091,United States,-122.653373636364,47.5696392121212,,
chaos-bay-brewing-co,Chaos Bay Brewing Co,micro,1100 Perry Ave Unit C,Bremerton,Washington,98310-4945,https://www.chaosbaybrewing.com,3603772344,2020-10-11 13:22:38,2020-10-11 13:22:38,United States,-122.613427,47.570838,,
der-blokken-brewery,Der Blokken Brewery,closed,1100 Perry Ave Unit C,Bremerton,Washington,98310-4945,http://www.derblokken.com,3603772344,2018-07-24 01:34:29.073001,2018-08-11 21:40:14.209789,United States,,,,
dog-days-brewing,Dog Days Brewing,brewpub,260 4th St,Bremerton,Washington,98337-1813,https://www.dogdaysbrewing.com,3606279925,2018-07-24 01:34:29.201845,2020-10-11 11:33:29,United States,-122.6259002,47.5658843,,
lovecraft-brewing-co,LoveCraft Brewing Co,micro,275 5th St Ste 101,Bremerton,Washington,98337-1907,https://www.lovecraftbrewery.com,,2018-07-24 01:34:30.895153,2020-10-11 11:35:08,United States,-122.6257694,47.5664595,,
smittys-brewing,Smitty's Brewing,micro,,Bremerton,Washington,98312-9132,http://smittysbrewing.com,3607108921,2018-07-24 01:34:32.875053,2020-10-11 11:37:28,United States,,,,
silver-city-brewery,Silver City Brewery,regional,206 Katy Penman Ave,Bremerton,Washington,98312-4301,http://www.silvercitybrewery.com,3608131487,2018-07-24 01:34:32.762649,2018-08-24 16:39:16.103972,United States,-122.678010092627,47.56156065,,
elk-head-brewing-co,Elk Head Brewing Co,micro,28120 State Route 410 E,Buckley,Washington,98321-8721,,3608292739,2018-07-24 01:34:29.385354,2018-08-11 21:40:15.241443,United States,,,,
farm-shed-wines-and-brews,Farm Shed Wines & Brews,micro,22808 Sumner Buckley Hwy E,Buckley,Washington,98321-8424,http://www.farmshedwines.com,8444379786,2018-07-24 01:34:29.601416,2020-10-11 11:41:08,United States,-122.124967,47.180813,,
elliott-bay-brewhouse-and-pub-burien,Elliott Bay Brewhouse & Pub - Burien,brewpub,255 SW 152nd St,Burien,Washington,98166-2307,http://www.elliottbaybrewing.com,2062464211,2018-07-24 01:34:29.425336,2018-08-24 16:34:17.612908,United States,-122.337338090909,47.466775,,
chuckanut-south-nut,Chuckanut - South Nut,micro,11937 Higgins Airport Way,Burlington,Washington,98233-5312,http://chuckanutbreweryandkitchen.com/south-nut,3607523377,2018-07-24 01:34:28.887877,2020-10-11 11:42:29,United States,-122.411968,48.473804,,
garden-path-fermentation,Garden Path Fermentation,micro,11653 Higgins Airport Way,Burlington,Washington,98233-5308,http://www.gardenpathwa.com,3605038956,2018-07-24 01:34:29.98397,2018-08-11 21:40:16.945395,United States,,,,
skagit-valley-malting,Skagit Valley Malting,micro,11966 Westar Ln,Burlington,Washington,98233-3620,https://www.skagitvalleymalting.com/,3609821262,2018-07-24 01:34:32.805048,2020-10-11 11:43:11,United States,-122.408008,48.473509,,
cardinal-craft-brewing-academy/-skagit-valley-college,Cardinal Craft Brewing Academy/ Skagit Valley College,micro,15579 Peterson Rd,Burlington,Washington,98233-3625,http://www.skagit.edu,3604162537,2018-07-24 01:34:28.807458,2018-08-24 16:33:22.039684,United States,-122.3533958,48.4719343,,
grains-of-wrath-brewing,Grains of Wrath Brewing,brewpub,230 NE 5th Ave,Camas,Washington,98607,http://www.gowbeer.com,3602105717,2018-07-24 01:34:30.164099,2018-08-24 16:35:24.351582,United States,-122.4056003,45.5857341,,
mill-city-brew-werks,Mill City Brew Werks,closed,339 NE Cedar St,Camas,Washington,98607-2142,http://www.mcbwbeer.com,3602104761,2018-07-24 01:34:31.241403,2018-08-24 16:36:57.447645,United States,-122.404172,45.585626,,
backwoods-brewing-company-production-only,Backwoods Brewing Company - Production Only,micro,1162 B Wind River Hwy,Carson,Washington,98610,http://www.backwoodsbrewingcompany.com,5094273412,2018-07-24 01:34:27.948609,2018-08-24 16:32:26.68574,United States,-121.820375417521,45.7287225339951,,
backwoods-in-the-gorge,Backwoods in the Gorge,micro,1162 Wind River Hwy,Carson,Washington,98610,http://www.backwoodsbrewingcompany.com,5094273412,2018-07-24 01:34:27.93408,2020-10-11 11:48:11,United States,-121.820375417521,45.7287225339951,,
mile-post-111-brewing,Mile Post 111 Brewing,brewpub,407 Aplets Way,Cashmere,Washington,98815,http://www.milepost111brewingcompany.com,5098880222,2018-07-24 01:34:31.225453,2018-08-24 16:36:55.972023,United States,-120.4700494,47.5236059,,
parkers-steakhouse-and-brewery,Parker's Steakhouse and Brewery,brewpub,1300 Mt Saint Helens Way NE,Castle Rock,Washington,98611-9014,http://www.parkerssteakhouse.com,3609672333,2018-07-24 01:34:31.953677,2018-08-24 16:37:56.306651,United States,-122.898886,46.287285,,
river-mile-38-brewing-co,River Mile 38 Brewing Co,micro,285 3rd St,Cathlamet,Washington,98612-9561,http://www.rivermile38.com,3603554662,2018-07-24 01:34:32.465181,2018-08-24 16:38:43.048398,United States,-123.3853742,46.2054338,,
dicks-brewing-co,Dicks Brewing Co,micro,3516 Galvin Rd,Centralia,Washington,98531-9002,http://www.dicksbeer.com,3607367760,2018-07-24 01:34:29.131894,2018-08-24 16:33:49.880421,United States,-122.999969333333,46.7354924848485,,
mcmenamins-olympic-club-brewery,McMenamins Olympic Club Brewery,brewpub,112 N Tower Ave,Centralia,Washington,98531-4220,http://www.mcmenamins.com,3607365164,2018-07-24 01:34:31.102178,2018-08-24 16:36:44.004023,United States,-122.9539398,46.7167828,,
jones-creek-brewing,Jones Creek Brewing,micro,173 Beam Rd,Chehalis,Washington,98532-9303,http://www.jonescreekbrewing.com,3602453429,2018-07-24 01:34:30.594532,2020-10-11 11:55:51,United States,-123.277400,46.588152,,
stormy-mountain-brewing-company,Stormy Mountain Brewing Company,brewpub,133 E Woodin Ave,Chelan,Washington,98816-,http://www.stormymountainbrewing.com,5098885665,2018-07-24 01:34:33.048909,2018-08-24 16:39:44.923709,United States,-120.0177327,47.8401295,,
quartzite-brewing-company,Quartzite Brewing Company,micro,105 W Main Ave,Chewelah,Washington,99109-9257,https://quartzitebrewco.business.site,5099363686,2018-07-24 01:34:32.162177,2020-10-11 11:55:04,United States,-117.71646,48.27618,,
riverport-brewing-co,Riverport Brewing Co,micro,150 9th St Ste B,Clarkston,Washington,99403-1856,http://www.riverportbrewing.com,5097588889,2018-07-24 01:34:32.491785,2018-08-11 21:40:24.908084,United States,,,,
taneum-creek-brewing,Taneum Creek Brewing,micro,811 Hwy 970 Ste 7,Cle Elum,Washington,98922,http://www.facebook.com/TaneumCreekBrewing,9709039414,2018-07-24 01:34:33.127388,2020-10-11 11:58:41,United States,,,,
mule-and-elk-brewing-co,Mule & Elk Brewing Co,micro,418 East 1st St Ste 7,Cle Elum,Washington,98922,http://www.muleandelk.com,2063211911,2018-07-24 01:34:31.376519,2020-10-11 11:58:22,United States,-120.932084,47.194410,,
ogres-brewing,Ogres Brewing,micro,7693 Cultus Bay Rd Ste 1,Clinton,Washington,98236-9432,http://www.ogresbrewing.com,4254189005,2018-07-24 01:34:31.728349,2018-08-11 21:40:22.684351,United States,,,,
fired-up-brewing,Fired Up Brewing,brewpub,1235 S Main St,Colville,Washington,99114-9504,http://www.facebook.com/firedupbrewing,5096843328,2018-07-24 01:34:29.667497,2018-08-24 16:34:39.853904,United States,-117.9057561,48.540198,,
birdsview-brewing-co,BirdsView Brewing Co,micro,38302 State Route 20,Concrete,Washington,98237-9460,http://www.birdsviewbrewingcompany.com,3608263406,2018-07-24 01:34:28.30571,2018-08-24 16:32:57.635604,United States,-121.7378167,48.5357818,,
cowiche-creek-brewing-company,Cowiche Creek Brewing Company,micro,514 Thompson Rd BLDG #2,Cowiche,Washington,98923-9734,http://www.cowichecreekbrewing.com,5096780324,2018-07-24 01:34:29.009772,2018-08-11 21:40:14.036779,United States,,,,
river-time-brewing,River Time Brewing,brewpub,650 Emens Ave S,Darrington,Washington,98241,http://www.rivertimebrewing.com,2674837411,2018-07-24 01:34:32.478692,2018-08-24 16:38:44.539908,United States,-121.602040168904,48.2490529141241,,
chief-springs-fire-and-irons-brew-pub,Chief Spring's Fire and Irons Brew Pub,brewpub,148 E Main St,Dayton,Washington,99328-1351,http://www.fireandironsbrewpub.com,5093824677,2018-07-24 01:34:28.873994,2018-08-24 16:33:28.636505,United States,-117.9811345,46.3192285,,
north-fork-brewing-co,North Fork Brewing Co,brewpub,6186 Mt Baker Hwy,Deming,Washington,98244-9501,http://www.northforkbrewery.com,3605992337,2018-07-24 01:34:31.502287,2018-08-24 16:37:21.891041,United States,-122.243112,48.833032,,
forward-operating-base-brewing-company-/-fob-brewing,Forward Operating Base Brewing Company / FOB Brewing,micro,2750 Williamson Pl Ste 100,Dupont,Washington,98327-7501,http://www.fobbrewingcompany.com,2535074667,2018-07-24 01:34:29.861238,2018-08-24 16:34:59.023258,United States,-122.625039,47.107496,,
valley-house-brewing,Valley House Brewing,brewpub,16111 Main St NE,Duvall,Washington,98019-8490,http://www.valleyhousebrewing.com,4253186363,2018-07-24 01:34:33.574726,2018-08-24 16:40:30.809786,United States,-121.985884591837,47.7431528571429,,
island-hoppin-brewery,Island Hoppin' Brewery,micro,33 Hope Ln,Eastsound,Washington,98245-8915,http://www.islandhoppinbrewery.com,3603769253,2018-07-24 01:34:30.555722,2018-08-24 16:36:02.018662,United States,-122.915252600923,48.7026805323222,,
american-brewing-company,American Brewing Company,brewpub,180 W Dayton St Ste 102,Edmonds,Washington,98020-4127,http://www.americanbrewing.com,4257741717,2018-07-24 01:34:27.836832,2018-08-11 21:40:11.51382,United States,,,,
brewery-in-planning-spokane,Brewery In Planning - Spokane,planning,,Edmonds,Washington,98026,,,2018-07-24 01:34:28.591461,2018-08-11 21:40:13.065115,United States,,,,
gallaghers-where-u-brew,Gallaghers' Where U Brew,micro,180 W Dayton St Ste 105,Edmonds,Washington,98020-4160,http://www.whereubrew.com,4257764209,2018-07-24 01:34:29.970234,2018-08-11 21:40:16.904809,United States,,,,
salish-sea-brewing-company,Salish Sea Brewing Company,brewpub,518 Dayton St Ste 104,Edmonds,Washington,98020-,http://www.salishbrewing.com,2062953116,2018-07-24 01:34:32.631568,2018-08-11 21:40:25.333027,United States,,,,
iron-horse-brewery,Iron Horse Brewery,regional,1621 Vantage Hwy,Ellensburg,Washington,98926-9001,http://www.ironhorsebrewery.com,5099333134,2018-07-24 01:34:30.542902,2018-08-11 21:40:18.23438,United States,,,,
whipsaw-brewing-llc,Whipsaw Brewing LLC,micro,704 N Wenas St,Ellensburg,Washington,98926-2862,http://www.whipsawbrewing.com,5099685111,2018-07-24 01:34:33.793426,2018-08-24 16:40:52.136085,United States,-120.5552612,46.9989453,,
headworks-brewing,Headworks Brewing,micro,1110 Marshall Ave,Enumclaw,Washington,98022-3525,http://www.headworksbrewing.com,,2018-07-24 01:34:30.289884,2020-10-11 12:03:09,United States,-121.987758,47.205096,,
cole-street-brewery,Cole Street Brewery,micro,1627 Cole St,Enumclaw,Washington,98022-3640,http://www.colestreetbrew.com,2539516656,2018-07-24 01:34:28.943476,2020-10-11 12:05:27,United States,-121.988911,47.204514,,
enumclaw-brewing-company-rockridge-orchards-and-cidery,Enumclaw Brewing Company @ Rockridge Orchards & Cidery,closed,40709 264th Ave SE,Enumclaw,Washington,98022-8366,http://www.rockridgeorchards.com,3608026800,2018-07-24 01:34:29.556667,2020-10-11 12:11:39,United States,,,,
at-large-brewing,At Large Brewing,micro,2730 W Marine View Dr,Everett,Washington,98201-3421,http://www.atlargebrewing.com,4253240039,2018-07-24 01:34:27.890835,2018-08-24 16:32:20.841244,United States,-122.2146867,47.9808918,,
crucible-brewing-everett-foundry,Crucible Brewing - Everett Foundry,micro,909 SE Everett Mall Way Ste D440,Everett,Washington,98208-3755,http://Www.cruciblebrewing.com,4253747293,2018-07-24 01:34:29.03761,2020-10-11 12:12:49,United States,-122.220239,47.911765,,
lazy-boy-brewing,Lazy Boy Brewing,micro,715 100th St SE Ste A1,Everett,Washington,98208-3762,http://www.lazyboybrewing.com,4254237700,2018-07-24 01:34:30.80206,2018-08-11 21:40:19.099328,United States,,,,
middleton-brewing-co,Middleton Brewing Co,brewpub,607 SE Everett Mall Way Ste 27A,Everett,Washington,98208-3264,https://www.facebook.com/MiddletonBrews,4252809178,2018-07-24 01:34:31.212004,2020-10-11 12:19:15,United States,-122.224702,47.911397,,
pacific-northwest-brewing-center-llc,"Pacific Northwest Brewing Center, LLC",planning,,Everett,Washington,98208-3320,,,2018-07-24 01:34:31.90668,2018-08-11 21:40:23.05777,United States,,,,
scuttlebutt-brewing-co,Scuttlebutt Brewing Co,micro,3314 Cedar St,Everett,Washington,98201-4518,http://www.scuttlebuttbrewing.com,4252579316,2018-07-24 01:34:32.7094,2018-08-24 16:39:10.093599,United States,-122.1943218,47.9736304,,
fox-island-brewing,Fox Island Brewing,closed,2416 14th Ave NW,Gig Harbor,Washington,98335,http://www.foxislandbrewing.com,,2018-07-24 01:34:29.915113,2020-10-11 12:20:14,United States,,,,
friday-harbor-brewing,Friday Harbor Brewing,closed,665B Mullis St,Friday Harbor,Washington,98250-7902,http://www.fridayharborbrewhouse.com,3603786205,2018-07-24 01:34:29.943247,2020-10-11 12:23:19,United States,-123.022332659091,48.5302680302843,,
san-juan-island-brewing-company,San Juan Island Brewing Company,brewpub,410 A St,Friday Harbor,Washington,98250,http://www.sanjuanbrew.com,3603782017,2018-07-24 01:34:32.644943,2018-08-24 16:39:02.719852,United States,-123.015023275862,48.5327654137931,,
e2w-brewing,E2W Brewing,micro,12913 Shady Glen Ave SE,Olalla,Washington,98359,https://www.facebook.com/E2WBrewing,2532147463,2018-07-24 01:34:29.354727,2020-10-11 12:24:13,United States,-122.594069,47.432463,,
gsp-craft-brewing,GSP Craft Brewing,closed,,Gig Harbor,Washington,98332-7918,http://www.facebook.com/gspcraftbrewing/,2533281121,2018-07-24 01:34:30.209978,2020-10-11 12:25:58,United States,,,,
wet-coast-brewing-co,Wet Coast Brewing Co.,micro,6820 Kimball Dr Ste C,Gig Harbor,Washington,98335-5124,http://www.wetcoastbrewing.com,2534324966,2018-07-24 01:34:33.780136,2018-08-11 21:40:28.106166,United States,,,,
dwinell-country-ales,Dwinell Country Ales,micro,206 W Broadway St,Goldendale,Washington,98620-9130,http://www.countryales.com,5097733138,2018-07-24 01:34:29.328569,2018-08-24 16:34:09.583583,United States,-120.824777313583,45.822927,,
mt-head-brewing-co,MT Head Brewing Co,closed,27307 159th Ave E,Graham,Washington,98338-5608,http://www.mtheadbrewingco.com,2532088999,2018-07-24 01:34:31.34807,2020-10-11 12:31:41,United States,,,,
hoquiam-brewing-company,Hoquiam Brewing Company,micro,526 8th St,Hoquiam,Washington,98550-3521,http://www.hoquiambrews.com,3606378252,2018-07-24 01:34:30.461708,2018-08-24 16:35:51.610155,United States,-123.886561244898,46.975367122449,,
mt-index-brewery,Mt Index Brewery,closed,49315 State Road 2 Ste B,index,Washington,98256,https://www.facebook.com/mt.index.brewery.and.distillery,3607936584,2018-07-24 01:34:31.362592,2020-10-11 12:32:19,United States,,,,
jc-brewhouse,JC Brewhouse,planning,,Issaquah,Washington,98029-8902,,4252816502,2018-07-24 01:34:30.569214,2018-08-11 21:40:18.333976,United States,,,,
manfish-brewing,Manfish Brewing,micro,19611 276th Ave SE,Issaquah,Washington,98027-8292,http://www.manfishbrewing.com,4255847264,2018-07-24 01:34:31.003884,2018-08-11 21:40:19.848369,United States,,,,
rogue-ales-issaquah-brewhouse,Rogue Ales Issaquah Brewhouse,closed,35 W Sunset Way Ste C,Issaquah,Washington,98027-3843,http://www.rogue.com,4255571911,2018-07-24 01:34:32.575824,2020-10-10 13:41:44,United States,,,,
192-brewing,192 Brewing,micro,7324 NE 175th St,Kenmore,Washington,98028-2500,http://www.192brewing.com,4254242337,2018-07-24 01:34:27.663575,2018-08-24 16:31:58.108557,United States,-122.241565244724,47.75670075,,
cairn-brewing,Cairn Brewing,micro,7204 NE 175th St,Kenmore,Washington,98028-3561,http://www.cairnbrewing.com,4259495295,2018-07-24 01:34:28.766638,2018-08-24 16:33:20.424034,United States,-122.24408655486,47.7571424,,
nine-yards-brewing,Nine Yards Brewing,micro,7324 NE 175th St Ste A,Kenmore,Washington,98028-2500,http://www.nineyardsbrewing.com,2066932333,2018-07-24 01:34:31.430698,2018-08-11 21:40:21.626921,United States,,,,
ice-harbor-brewing-company,Ice Harbor Brewing Company,brewpub,206 N Benton St Ste C,Kennewick,Washington,99336-3608,http://www.iceharbor.com,5095825340,2018-07-24 01:34:30.488173,2020-10-11 12:40:11,United States,-119.119238,46.211100,,
ice-harbor-brewing-company-at-the-marina,Ice Harbor Brewing Company at the Marina,brewpub,350 Clover Island Dr,Kennewick,Washington,99336-3678,http://iceharbor.com,5095863181,2020-10-11 12:41:14,2020-10-11 12:41:14,United States,-119.111368,46.217631,,
airways-brewing-co,Airways Brewing Co,micro,8611 S 212th St,Kent,Washington,98031-1910,http://www.airwaysbrewing.com,2532001707,2018-07-24 01:34:27.794259,2018-08-24 16:32:10.109657,United States,-122.2391026,47.4119802,,
airways-brewing-co-bistro-and-beer-garden,Airways Brewing Co. Bistro & Beer Garden,brewpub,320 W Harrison St,Kent,Washington,98032,http://airwaysbrewing.com/bistro-beer-garden/,2532368632,2020-10-11 12:46:58,2020-10-11 12:46:58,United States,-122.235649,47.382498,,
four-horsemen-brewery,Four Horsemen Brewery,micro,30221 148th Ave SE,Kent,Washington,98042-9368,http://www.fourhorsemen.beer,2539814258,2018-07-24 01:34:29.901327,2018-08-24 16:35:03.792089,United States,-122.1426915,47.3844953,,
northern-ales,Northern Ales,brewpub,325 W 3rd Ave,Kettle Falls,Washington,99141-0993,http://northernales.com,,2018-07-24 01:34:31.557865,2018-08-24 16:37:26.953831,United States,-118.065184317399,48.6097979307548,,
downpour-brewing-llc,Downpour Brewing LLC,micro,10991 NE State Highway 104,Kingston,Washington,98346-,http://www.downpourbrewing.com,3608810452,2018-07-24 01:34:29.261697,2018-08-24 16:34:01.71961,United States,-122.500158654833,47.8010831,,
hood-canal-brewery,Hood Canal Brewery,brewpub,26499 Bond Rd NE,Kingston,Washington,98346-8477,http://www.hoodcanalbrewery.com,3602978316,2018-07-24 01:34:30.409924,2018-08-11 21:40:17.789926,United States,,,,
chainline-brewing-company,Chainline Brewing Company,closed,503 6th St S,Kirkland,Washington,98033-6717,http://www.chainlinebrewing.com,4252420923,2018-07-24 01:34:28.846836,2020-10-10 13:40:02,United States,-122.1967583,47.6717847,,
chainline-brewing-company-taproom-at-urban,Chainline Brewing Company Taproom at Urban,micro,500 Uptown Ct Ste 210,Kirkland,Washington,98033-5375,http://www.chainlinebrewing.com,4252420923,2018-07-24 01:34:28.846836,2020-10-09 17:49:04,United States,-122.198550,47.679240,,
flycaster-brewing-co,Flycaster Brewing Co.,micro,12815 NE 124th St Ste I,Kirkland,Washington,98034-8313,https://flycasterbrewing.com,2069636626,2018-07-24 01:34:29.764144,2020-10-11 12:50:37,United States,-122.169021,47.711115,,
maelstrom-brewing-company,Maelstrom Brewing Company,micro,11014 120th Ave NE,Kirkland,Washington,98033-5022,http://www.maelstrombrewing.com,,2018-07-24 01:34:30.979027,2018-08-24 16:36:35.049512,United States,-122.180943,47.6991435,,
la-conner-brewing-co,La Conner Brewing Co,brewpub,117 S 1st St,La Conner,Washington,98257,https://www.laconnerbrewery.com,3604661415,2018-07-24 01:34:30.675041,2020-10-11 12:49:19,United States,-122.495792,48.392231,,
top-rung-brewing-company,Top Rung Brewing Company,micro,8343 Hogum Bay Ln NE Ste E,Lacey,Washington,98516-3135,http://www.toprungbrewing.com,3609158766,2018-07-24 01:34:33.341586,2018-08-11 21:40:27.056518,United States,,,,
brewbakers-brewery,BrewBakers Brewery,micro,11927 84th St NE,Lake Stevens,Washington,98258-8906,http://www.brewbakersbrewery.com,,2018-07-24 01:34:28.49137,2018-08-11 21:40:12.880103,United States,,,,
lake-stevens-brewing-company,Lake Stevens Brewing Company,micro,2010 Grade Rd,Lake Stevens,Washington,98258-9182,https://www.lakestevensbrewingco.com,3605243678,2018-07-24 01:34:30.758218,2020-10-11 12:52:17,United States,-122.063255244378,48.0161107156973,,
ram-restaurant-and-brewery-lakewood,RAM Restaurant and Brewery - Lakewood,brewpub,10019 59th Ave SW,Lakewood,Washington,98499-2757,http://www.theram.com,2535843191,2018-07-24 01:34:32.225484,2018-08-24 16:38:21.875598,United States,-122.515613205311,47.166010428089,,
double-bluff-brewing,Double Bluff Brewing,micro,112 Anthes Ave,Langley,Washington,98260-,http://www.dblfbrewing.com,3603339113,2018-07-24 01:34:29.246814,2018-08-24 16:34:00.223663,United States,-122.4090435,48.0403212,,
blewett-brewing-company,Blewett Brewing Company,brewpub,911 Commercial St,Leavenworth,Washington,98826-1494,http://www.blewettbrew.com,5098888809,2018-07-24 01:34:28.390283,2018-08-24 16:33:03.78361,United States,-120.659947946691,47.5951880648137,,
doghaus-brewery,Doghaus Brewery,micro,321 9th St,Leavenworth,Washington,98826-1464,http://www.doghausbrewery.com,5098601446,2018-07-24 01:34:29.216804,2018-08-24 16:33:57.324287,United States,-120.659822512213,47.5946088272111,,
icicle-brewing-co,Icicle Brewing Co,brewpub,935 Front St,Leavenworth,Washington,98826-1427,http://www.iciclebrewing.com,5095482739,2018-07-24 01:34:30.502281,2018-08-24 16:35:55.982424,United States,-120.6597193,47.5962501,,
triune-brewing-company,Triune Brewing Company,planning,,Leavenworth,Washington,98826-1413,,5095483300,2018-07-24 01:34:33.414816,2018-08-11 21:40:27.242748,United States,,,,
ashtown-brewing-co,Ashtown Brewing Co,micro,1175 Hudson St,Longview,Washington,98632-3158,http://www.ashtownbrewing.com,3603535286,2018-07-24 01:34:27.864785,2018-08-24 16:32:17.845644,United States,-122.932740850085,46.1366198701715,,
five-dons-brewing-co,Five Dons Brewing Co,micro,1158 11th Ave,Longview,Washington,98632-3110,http://www.fivedonsbeer.com,3604306440,2018-07-24 01:34:29.724482,2018-08-24 16:34:43.407278,United States,-122.932628682767,46.1341850577576,,
brewvado-taproom,Brewvado Taproom,micro,135 Lopez Rd B,Lopez Island,Washington,98261-8290,,3602288214,2020-10-11 1:02:14,2020-10-11 13:02:14,United States,-122.913356,48.523402,,
lopez-island-brewing-co,Lopez Island Brewing Co,micro,4817 Center Rd,Lopez Island,Washington,98261-8653,http://www.lopezislandbrewingco.rocks,3604682646,2018-07-24 01:34:30.842632,2018-08-11 21:40:19.244708,United States,,,,
rock-wood-fired-pizza-and-brewery-lynnwood,Rock Wood Fired Pizza and Brewery - Lynnwood,contract,4010 196th St SW,Lynnwood,Washington,98036-6715,http://www.therockwfp.com,4256976007,2018-07-24 01:34:32.53644,2018-08-24 16:38:50.62955,United States,-122.287641610199,47.82048455,,
ellersick-brewing/-big-e-ales,Ellersick Brewing / Big E Ales,brewpub,5030 208th St SW Ste A,Lynnwood,Washington,98036-7642,http://www.bigeales.com,4256727051,2018-07-24 01:34:29.398801,2020-10-11 13:04:15,United States,-122.301844,47.810408,,
lake-chelan-brewing-co,Lake Chelan Brewing Co,micro,50 Wapato Way,Manson,Washington,98831,https://lakechelanbrewery.com,5096874444,2018-07-24 01:34:30.745383,2020-10-11 13:06:43,United States,-120.159430,47.885978,,
one-brewing-/-harmony-meadows-center,One Brewing / Harmony Meadows Center,closed,4848 Green Ave Ste B,Manson,Washington,98831-9404,http://www.harmonymeadowscenter.com,5098882344,2018-07-24 01:34:31.788668,2020-10-11 13:09:22,United States,,,,
5-rights-brewing-co,5 Rights Brewing Co,micro,7028 46th St NE,Marysville,Washington,98270-6989,http://www.5rightsbrewing.com,4253341026,2018-07-24 01:34:27.731123,2018-08-24 16:32:04.084222,United States,-122.136104,48.037429,,
swinnerton-brewery,Swinnerton Brewery,micro,1809 8th St,Marysville,Washington,98270-4610,http://www.swinnertonbrewery.com,4253877045,2018-07-24 01:34:33.10095,2018-08-24 16:39:50.875771,United States,-122.171023514565,48.0554713187144,,
whitewall-brewing-company,Whitewall Brewing Company,micro,14524 Smokey Point Blvd Ste 1,Marysville,Washington,98271-8921,http://www.whitewallbrewing.com,3604540464,2018-07-24 01:34:33.832795,2018-08-11 21:40:28.268574,United States,,,,
238-brewing-company,238 Brewing Company,micro,10321 E Day Mt Spokane Rd,Mead,Washington,99021,http://www.238brewing.com,5092382739,2018-07-24 01:34:27.711123,2018-08-11 21:40:11.273402,United States,,,,
big-barn-brewing-co-/-bodacious-berries-fruits-and-brews,Big Barn Brewing Co / Bodacious Berries Fruits and Brews,micro,16004 N Applewood Ln,Mead,Washington,99021-7818,http://www.bigbarnbrewing.com,5097102961,2018-07-24 01:34:28.24734,2018-08-11 21:40:12.366346,United States,,,,
brewery-in-planning-mead,Brewery in Planning - Mead,planning,,Mead,Washington,99021-9203,,,2018-07-24 01:34:28.510261,2018-08-11 21:40:12.912026,United States,,,,
mcmenamins-mill-creek-brewery,McMenamins Mill Creek Brewery,brewpub,13300 Bothell Everett Hwy Ste 304,Mill Creek,Washington,98012-5312,http://www.mcmenamins.com,4253169817,2018-07-24 01:34:31.084068,2018-08-11 21:40:20.324556,United States,,,,
adams-northwest-bistro-/-twin-rivers-brewing,Adam's Northwest Bistro / Twin Rivers Brewing,brewpub,104 N Lewis St,Monroe,Washington,98272-1502,http://www.adamsnwbistro.com,3607944056,2018-07-24 01:34:27.780022,2018-08-24 16:32:08.563196,United States,-121.970886952765,47.8558847142728,,
dreadnought-brewing-llc,Dreadnought Brewing LLC,brewpub,16726 146th St SE Ste 153,Monroe,Washington,98272-2937,http://www.dreadnoughtbrewing.com,3608632479,2018-07-24 01:34:29.274658,2018-08-11 21:40:14.969955,United States,,,,
circle-7-brew-works,Circle 7 Brew Works,micro,20290 Corbridge Rd SE,Monroe,Washington,98272-8602,,2067470269,2018-07-24 01:34:28.917772,2018-08-24 16:33:33.275129,United States,-121.958464504586,47.8679484527978,,
ten-pin-brewing-production-facility,Ten Pin Brewing - Production Facility,micro,1149 N Stratford Rd,Moses Lake,Washington,98837-1514,http://www.tenpinbrewing.com,5097662739,2018-07-24 01:34:33.14064,2018-08-24 16:39:55.353982,United States,-119.278173739206,47.1448735537829,,
ten-pin-brewing-co,Ten Pin Brewing Co,brewpub,1165 N Stratford Rd,Moses Lake,Washington,98837-1514,http://www.tenpinbrewing.com,5097651265,2018-07-24 01:34:33.156104,2018-08-24 16:39:56.865844,United States,-119.278169917565,47.145064411016,,
st-brigids-brewery,St Brigid's Brewery,brewpub,606 W Broadway Ave,Moses Lake,Washington,98837-1900,http://www.stbrigidsbrewery.com,5097508357,2018-07-24 01:34:32.983017,2018-08-24 16:39:37.231644,United States,-119.285096155572,47.1280836846376,,
district-brewing,District Brewing,brewpub,520 S Main St,Mount Vernon,Washington,98273-3840,https://districtbrewco.com/,3608736714,2020-10-09 17:29:18,2020-10-09 17:29:18,United States,-122.338828,48.419204,,
farmstrong-brewing-co,Farmstrong Brewing Co,micro,110 Stewart Rd,Mount Vernon,Washington,98273-9628,http://www.farmstrongbrewing.com,3608738852,2018-07-24 01:34:29.614444,2018-08-24 16:34:34.353744,United States,-122.3369645,48.4431376,,
north-sound-brewing-co,North Sound Brewing Co.,micro,17406 State Route 536 Unit A,Mount Vernon,Washington,98273-8755,http://northsoundbrewing.com,3609822057,2018-07-24 01:34:31.531142,2018-08-11 21:40:22.090887,United States,,,,
skagit-river-brewery,Skagit River Brewery,brewpub,404 S 3rd St,Mount Vernon,Washington,98273-3824,http://www.skagitbrew.com,3603362884,2018-07-24 01:34:32.79217,2018-08-24 16:39:19.143832,United States,-122.3354271,48.4193151,,
temperate-habits-brewing-company,Temperate Habits Brewing Company,brewpub,500 S 1st St,Mount Vernon,Washington,98273-3809,https://temperatehabitsbrewing.com/,3603997740,2020-10-09 17:30:44,2020-10-09 17:30:44,United States,-122.337629,48.419856,,
diamond-knot-craft-brewery-brewpub-mlt,Diamond Knot Craft Brewery - Brewpub @ MLT,brewpub,5602 232rd St Southwest,Mountlake Terrace,Washington,98043,http://www.diamondknot.com,4253554488,2018-07-24 01:34:29.102586,2018-08-11 21:40:14.300723,United States,,,,
diamond-knot-brewery-b2-brewery-and-taproom,Diamond Knot Brewery B2 Brewery & Taproom,brewpub,4602 Chennault Beach Rd Ste B2,Mukilteo,Washington,98275-5016,http://www.diamondknot.com,4253554488,2018-07-24 01:34:29.086332,2018-08-24 16:33:45.505031,United States,-122.295519299405,47.8961102580814,,
diamond-knot-craft-brewing-brewery-and-alehouse,Diamond Knot Craft Brewing - Brewery & Alehouse,brewpub,621 Front St,Mukilteo,Washington,98275-1557,http://www.diamondknot.com,4253554488,2018-07-24 01:34:29.116516,2018-08-24 16:33:48.39889,United States,-122.304707468657,47.9484603,,
bron-yr-aur-brewing,Bron Yr Aur Brewing,micro,12160 US Highway 12,Naches,Washington,98937-9222,,5096531109,2018-07-24 01:34:28.64783,2018-08-11 21:40:13.183117,United States,,,,
top-frog-brewery,Top Frog Brewery,micro,221 Vista Dr,Newport,Washington,99156-7014,,5096712884,2018-07-24 01:34:33.328156,2018-08-11 21:40:27.016569,United States,,,,
flyers-restaurant-and-brewery,Flyers Restaurant and Brewery,brewpub,32295 State Route 20,Oak Harbor,Washington,98277-5923,http://www.eatatflyers.com,3606755858,2018-07-24 01:34:29.777908,2018-08-24 16:34:49.811862,United States,-122.652847439221,48.2991197,,
wicked-teuton-brewing,Wicked Teuton Brewing,micro,1341 SW Barlow St,Oak Harbor,Washington,98277-3159,,3608625011,2018-07-24 01:34:33.846043,2018-08-24 16:40:58.273799,United States,-122.659915832215,48.2872803489933,,
rocky-coulee-brewing,Rocky Coulee Brewing,micro,205 E 1st Ave,Odessa,Washington,99159-9865,http://www.rockycouleebrewingco.com,5093452216,2018-07-24 01:34:32.562821,2018-08-24 16:38:53.606569,United States,-118.686746526088,47.3331973855202,,
brewery-in-planning-olympia,Brewery in Planning - Olympia,planning,,Olympia,Washington,98506-3026,,2539730844,2018-07-24 01:34:28.525769,2018-08-11 21:40:12.943794,United States,,,,
cascadia-brewing-co,Cascadia Brewing Co.,micro,211 4th Ave E,Olympia,Washington,98501-1104,http://www.cascadiahomebrew.com,3609432337,2018-07-24 01:34:28.820251,2018-08-24 16:33:23.549447,United States,-122.900173959184,47.0449127346939,,
fish-brewing-co,Fish Brewing Co,micro,515 Jefferson St SE,Olympia,Washington,98501-1467,http://www.fishbrewing.com,3609436480,2018-07-24 01:34:29.683631,2018-08-24 16:34:41.91951,United States,-122.895417857143,47.0343712857143,,
mcmenamins-spar-cafe-brewery,McMenamins Spar Cafe Brewery,brewpub,114 4th Ave E,Olympia,Washington,98501-1103,,3603576444,2018-07-24 01:34:31.153262,2018-08-24 16:36:48.60802,United States,-122.901376762898,47.0449997425281,,
well-80-brewing-company,Well 80 Brewing Company,brewpub,514 4th Ave E,Olympia,Washington,98501-1111,http://www.well80.com,3609156653,2018-07-24 01:34:33.721746,2018-08-24 16:40:45.919771,United States,-122.896428714286,47.0453448571429,,
three-magnets-brewing,Three Magnets Brewing,brewpub,600 Franklin St SE Unit 105,Olympia,Washington,98501-1360,http://www.threemagnetsbrewing.com,3609722481,2018-07-24 01:34:33.28804,2018-08-11 21:40:26.861693,United States,,,,
alpine-brewing-co,Alpine Brewing Co,micro,821 14th Ave,Oroville,Washington,98844,http://www.alpine-brewing.com,5094769662,2018-07-24 01:34:27.820544,2018-08-24 16:32:13.168962,United States,-119.4305306,48.9365877,,
pastime-brewery-bar-and-grill,Pastime Brewery Bar and Grill,brewpub,1307 Main St,Oroville,Washington,98844-9384,http://www.pastimebarandgrill.com,5094763007,2018-07-24 01:34:31.968012,2018-08-24 16:37:57.783446,United States,-119.436309089229,48.9379707835242,,
northwest-brewing-company,Northwest Brewing Company,contract,1091 Valentine Ave SE,Pacific,Washington,98047-2127,http://www.nwbrewingcompany.com,2539875680,2018-07-24 01:34:31.599178,2018-08-24 16:37:28.444114,United States,-122.2488484,47.2501336,,
dungeness-brewing-company,Dungeness Brewing Company,micro,4017 S Mount Angeles Rd,Port Angeles,Washington,98362-8966,http://www.dungenessbrewing.com,3607751877,2018-07-24 01:34:29.315136,2018-08-24 16:34:08.119287,United States,-123.418449,48.087279,,
barhop-brewing,Barhop Brewing,brewpub,124 W Railroad Ave,Port Angeles,Washington,98362-2621,http://www.barhopbrewing.com,3604605155,2018-07-24 01:34:28.058844,2018-08-24 16:32:37.151131,United States,-123.433278663378,48.12098065,,
slaughter-county-brewing,Slaughter County Brewing,brewpub,1307 Bay St,Port Orchard,Washington,98366-5105,http://www.slaughtercountybrewing.com,3603292340,2018-07-24 01:34:32.832607,2018-08-24 16:39:23.615165,United States,-122.62600103808,47.5426193131665,,
discovery-bay-brewing,Discovery Bay Brewing,micro,948 N Park Avenue,Port Townsend,Washington,98368-1512,,3603442999,2018-07-24 01:34:29.174842,2018-08-24 16:33:52.848325,United States,-122.8030594,48.1065812,,
port-townsend-brewing-co,Port Townsend Brewing Co,micro,330 10th St Ste C,Port Townsend,Washington,98368-1815,http://www.porttownsendbrewing.com,3603859967,2018-07-24 01:34:32.087105,2018-08-11 21:40:23.566813,United States,,,,
propolis-brewing-llc,Propolis Brewing LLC,micro,2457 Jefferson St,Port Townsend,Washington,98368-4634,http://www.propolisbrewing.com,7652155850,2018-07-24 01:34:32.124625,2018-08-24 16:38:11.410883,United States,-122.773444081983,48.1091519285644,,
rainy-daze-brewing,Rainy Daze Brewing,micro,650 NW BOVELA LN SUITE 3,Poulsbo,Washington,98370,http://www.rainydazebrewing.com,3606921858,2018-07-24 01:34:32.21305,2018-08-11 21:40:24.239568,United States,,,,
slippery-pig-brewery,Slippery Pig Brewery,brewpub,18801 Front St NE,Poulsbo,Washington,98370,http://www.slipperypigbrewing.com,3603941686,2018-07-24 01:34:32.846987,2018-08-24 16:39:25.079712,United States,-122.645983376879,47.73347675,,
valholl-brewing-company,Valholl Brewing Company,micro,18970 3rd Ave,Poulsbo,Washington,98370,http://www.valhollbrewing.com,3609300172,2018-07-24 01:34:33.543657,2018-08-11 21:40:27.493433,United States,,,,
sound-brewery,Sound Brewery,micro,19479 Viking Ave NW,Poulsbo,Washington,98370-8370,http://www.soundbrewery.com,3609308696,2018-07-24 01:34:32.928018,2018-08-24 16:39:32.583314,United States,-122.6596831,47.7398382,,
western-red-brewing,Western Red Brewing,brewpub,19168 Jensen Way NE Ste 100,Poulsbo,Washington,98370,http://westernredbrewing.com,3606261280,2018-07-24 01:34:33.765223,2018-08-11 21:40:28.066842,United States,,,,
green-oak-brewing,Green Oak Brewing,brewpub,1427 Wine Country Rd,Prosser,Washington,99350-1148,http://www.whitstranbrewing.com,5097864922,2018-07-24 01:34:30.178731,2018-08-24 16:35:25.869802,United States,-119.770737408163,46.210051,,
horse-heaven-hills-brewery,Horse Heaven Hills Brewery,micro,1118 Meade Ave,Prosser,Washington,99350,http://www.horseheavenhillsbrewery.com,5097816400,2018-07-24 01:34:30.474937,2018-08-24 16:35:53.081778,United States,-119.770633147027,46.2044744653738,,
paradise-creek-brewery,Paradise Creek Brewery,micro,505 SE Riverview St Ste C,Pullman,Washington,99163-5262,http://www.paradisecreekbrewery.com,5095920114,2018-07-24 01:34:31.94006,2018-08-11 21:40:23.162792,United States,,,,
ram-restaurant-and-brewery-puyallup-south-hill,RAM Restaurant and Brewery - Puyallup South Hill,brewpub,103 35th Ave SE,Puyallup,Washington,98374-1231,http://www.theram.com,2538413317,2018-07-24 01:34:32.254515,2018-08-24 16:38:24.900299,United States,-122.292784973154,47.1585707114094,,
powerhouse-restaurant-and-brewery,Powerhouse Restaurant and Brewery,brewpub,454 E Main,Puyallup,Washington,98372-3258,http://www.powerhousebrewpub.com,2538451370,2018-07-24 01:34:32.112407,2018-08-11 21:40:23.768536,United States,,,,
puyallup-river-brewing-co,Puyallup River Brewing Co,micro,,Puyallup,Washington,98375-6923,http://www.puyallupriverbrewing.com,2535908219,2018-07-24 01:34:32.136946,2018-08-11 21:40:23.850676,United States,,,,
off-camber-brewing,Off Camber Brewing,micro,6506 114th Avenue Ct E,Puyallup,Washington,98372-2811,http://www.facebook.com/OffCamberBrew/,2533128796,2018-07-24 01:34:31.71327,2018-08-24 16:37:38.120125,United States,-122.2772454,47.1989594,,
the-station-u-brew,The Station U Brew,micro,211 W Stewart,Puyallup,Washington,98371-4393,,2534663721,2018-07-24 01:34:33.261745,2018-08-24 16:40:02.991888,United States,-122.291349749659,47.1925251108079,,
101-brewery,101 Brewery,brewpub,294793 US Highway 101,Quilcene,Washington,98376-9000,http://www.101brewery.com,3607656485,2018-07-24 01:34:27.649117,2018-08-11 21:40:11.160632,United States,,,,
willapa-brewing-co,Willapa Brewing Co,micro,556 Mill Creek Rd,Raymond,Washington,98577-9367,,3609422211,2018-07-24 01:34:33.861535,2018-08-11 21:40:28.370592,United States,,,,
black-raven-brewing-co,Black Raven Brewing Co,micro,14687 NE 95th St,Redmond,Washington,98052-2556,http://www.blackravenbrewing.com,4258813020,2018-07-24 01:34:28.354325,2018-08-24 16:33:00.730857,United States,-122.14550957047,47.6854905973154,,
mac-and-jacks-brewery-inc,Mac and Jacks Brewery Inc,regional,17825 NE 65th St Ste B110,Redmond,Washington,98052-4995,http://Macandjacks.com,4255589697,2018-07-24 01:34:30.952546,2018-08-11 21:40:19.656125,United States,,,,
postdoc-brewing-company,Postdoc Brewing Company,micro,17625 NE 65th St Ste 100,Redmond,Washington,98052-7908,http://www.postdocbrewing.com,4256584963,2018-07-24 01:34:32.099693,2018-08-24 16:38:08.355877,United States,-122.105077242071,47.6639200774772,,
brewery-in-planning-renton-wa,"Brewery in Planning - Renton, WA",planning,,Renton,Washington,98057-5111,,2063102055,2018-07-24 01:34:28.544507,2018-08-11 21:40:12.974305,United States,,,,
herbert-b-friendly-brewing,Herbert B. Friendly Brewing,micro,527 Wells Ave S,Renton,Washington,98057-2703,http://www.drinkhbf.com,4252434372,2018-07-24 01:34:30.344579,2018-08-24 16:35:41.011582,United States,-122.205605,47.4760991775467,,
dog-and-pony-alehouse-and-grill,Dog & Pony Alehouse and Grill,contract,351 Park Ave N,Renton,Washington,98057-5716,http://www.thedogandpony.com,4252548080,2018-07-24 01:34:29.188284,2018-08-24 16:33:54.407971,United States,-122.202312877551,47.4875826122449,,
four-generals-brewing,Four Generals Brewing,micro,229 Wells Ave S,Renton,Washington,98057-2131,http://www.fourgenerals.com,4252824360,2018-07-24 01:34:29.888861,2018-08-24 16:35:02.196754,United States,-122.205586,47.4801424,,
republic-brewing-co,Republic Brewing Co,brewpub,PO Box 96,Republic,Washington,99166-0096,,,2018-07-24 01:34:32.38638,2018-08-11 21:40:24.630706,United States,,,,
rattlesnake-mountain-brewery-/-kimos-restaurant,Rattlesnake Mountain Brewery / Kimo's Restaurant,brewpub,1250 Columbia Center Blvd,Richland,Washington,99352-4839,http://www.rattlesnakemountainbrewery.com,5097835747,2018-07-24 01:34:32.322254,2018-08-24 16:38:30.9501,United States,-119.223482230166,46.2250454328982,,
atomic-ale-brewpub-and-eatery,Atomic Ale Brewpub and Eatery,brewpub,1015 Lee Blvd,Richland,Washington,99352-4226,http://www.atomicalebrewpub.com,5099465465,2018-07-24 01:34:27.905271,2018-08-24 16:32:22.323691,United States,-119.278200311032,46.2747551534741,,
bombing-range-brewing-company,Bombing Range Brewing Company,brewpub,2000 Logston Blvd Ste 126,Richland,Washington,99354-5330,http://www.bombingrangebrewing.com,5093923377,2018-07-24 01:34:28.431644,2018-08-24 16:33:06.876003,United States,-119.2999357,46.3204119,,
paper-street-brewing-company,Paper Street Brewing Company,brewpub,701 The Parkway,Richland,Washington,99352-4251,http://www.paperstbrewing.com,5097137088,2018-07-24 01:34:31.923786,2018-08-24 16:37:53.20811,United States,-119.274455,46.274953,,
shrub-steppe-smokehouse-brewery,Shrub Steppe Smokehouse Brewery,brewpub,2000 Logston Blvd Ste 122,Richland,Washington,99354-5329,http://www.shrubsteppebrewing.com,5093759092,2018-07-24 01:34:32.748686,2018-08-24 16:39:14.595507,United States,-119.2999357,46.3204119,,
white-bluffs-brewing,White Bluffs Brewing,micro,2034 Logston Blvd,Richland,Washington,99354-5300,http://www.whitebluffsbrewing.com,5095547059,2018-07-24 01:34:33.819474,2018-08-24 16:40:55.186427,United States,-119.2999357,46.3204119,,
captains-brewing-company,Captains Brewing Company,micro,,Ridgefield,Washington,98642,,3609218275,2018-07-24 01:34:28.794067,2018-08-11 21:40:13.529569,United States,,,,
hillbilly-brewing-company,Hillbilly Brewing Company,micro,,Ridgefield,Washington,98642,http://www.hillbillybrewingcompany.com,,2018-07-24 01:34:30.37124,2018-08-11 21:40:17.697693,United States,,,,
roslyn-brewing-co,Roslyn Brewing Co,micro,208 W Pennsylvania Ave,Roslyn,Washington,98941-0024,http://www.roslynbrewng.com,5096492232,2018-07-24 01:34:32.603296,2018-08-24 16:38:58.054245,United States,-120.99472475205,47.2222870970745,,
fish-brewing-pub-and-eatery,Fish Brewing Pub & Eatery,brewpub,5108 Grand Loop,Ruston,Washington,98407-3180,,,2018-07-24 01:34:29.710613,2018-08-11 21:40:15.957385,United States,,,,
big-block-brewing,Big Block Brewing,micro,3310 E Lake Sammamish Pkwy SE,Sammamish,Washington,98075,http://www.bigblockbrewery.com,4254570515,2018-07-24 01:34:28.268597,2018-08-24 16:32:54.504332,United States,-122.074740001893,47.5792621222038,,
hellbent-brewing-company,Hellbent Brewing Company,micro,13035 Lake City Way NE,Seattle,Washington,98125-4428,http://www.hellbentbrewingcompany.com,2063613707,2018-07-24 01:34:30.315784,2018-08-24 16:35:37.928953,United States,-122.2931111,47.7238772,,
lagunitas-seattle-taproom-and-beer-sanctuary,Lagunitas Seattle Taproom and Beer Sanctuary,brewpub,1550 NW 49th St,Seattle,Washington,98107-4731,,2067842230,2018-07-24 01:34:30.718866,2018-08-24 16:36:09.395946,United States,-122.3784629,47.6645881,,
northwest-peaks-brewery,Northwest Peaks Brewery,micro,5718 Rainier Ave S,Seattle,Washington,98118-2704,http://www.nwpeaksbrewery.com,2067252337,2018-07-24 01:34:31.625971,2018-08-24 16:37:30.036295,United States,-122.277436437754,47.5509916925813,,
schooner-exact-brewing-co,Schooner Exact Brewing Co,micro,3901 1st Ave S,Seattle,Washington,98134-2236,,2064329734,2018-07-24 01:34:32.683607,2018-08-24 16:39:07.161258,United States,-122.3354879,47.5678008,,
elysian-brewing-co-tangletown,Elysian Brewing Co -Tangletown,closed,2106 N 55th St,Seattle,Washington,98103-6202,,2065475929,2018-07-24 01:34:29.493688,2020-10-10 13:35:10,United States,-122.333474,47.6687837,,
tangletown,TangleTown Public House,micro,2106 N 55th St,Seattle,Washington,98103-6202,https://www.tangletownpublichouse.com/,2064666340,2018-07-24 01:34:29.493688,2020-10-09 17:09:02,United States,-122.333474,47.6687837,,
magnuson-cafe-and-brewery,Magnuson Cafe and Brewery,planning,,Seattle,Washington,98115,,,2018-07-24 01:34:30.991677,2018-08-11 21:40:19.790037,United States,,,,
aslan-brewing-seattle,Aslan Brewing Seattle,micro,401 N 36th St Ste 102,Seattle,Washington,98103-8630,https://aslanbrewing.com/seattle,3603934106,2020-10-11 11:03:31,2020-10-11 11:03:31,United States,-122.354134,47.652201,,
bad-jimmys-brewing-co,Bad Jimmy's Brewing Co,micro,4358B Leary Way NW,Seattle,Washington,98107-4554,http://www.badjimmysbrewingco.com,2067891548,2018-07-24 01:34:27.979721,2018-08-11 21:40:11.848748,United States,,,,
bainbridge-island-brewing,Bainbridge Island Brewing,micro,9415 Coppertop Loop NE Ste 104,Seattle,Washington,98110-3339,http://www.bainbridgebeer.com,2064514646,2018-07-24 01:34:28.029023,2018-08-11 21:40:11.946188,United States,,,,
brewery-in-planning-seattle,Brewery in Planning - Seattle,planning,,Seattle,Washington,98199-2747,,,2018-07-24 01:34:28.559416,2018-08-11 21:40:13.000954,United States,,,,
brewery-in-planning-seattle,Brewery In Planning - Seattle,planning,,Seattle,Washington,98115-3330,,2062871710,2018-07-24 01:34:28.578042,2018-08-11 21:40:13.03446,United States,,,,
belltown-brewery,Belltown Brewery,brewpub,200 Bell St,Seattle,Washington,98121-1716,http://www.belltownbrewingseattle.com,2064857233,2018-07-24 01:34:28.158356,2018-08-24 16:32:46.257584,United States,-122.3456669,47.6142953,,
big-time-brewery,Big Time Brewery,brewpub,4133 University Way NE,Seattle,Washington,98105-6213,http://www.bigtimebrewery.com,2065454509,2018-07-24 01:34:28.290025,2018-08-24 16:32:56.057169,United States,-122.313575948865,47.65785225,,
bluebird-microcreamery-and-brewery,Bluebird Microcreamery and Brewery,micro,7400 Greenwood Ave N,Seattle,Washington,98103-5044,http://www.bluebirdbrewing.com,2066598154,2018-07-24 01:34:28.409276,2018-08-24 16:33:05.363614,United States,-122.355108,47.6826657,,
burke-gilman-brewing,Burke-Gilman Brewing,planning,,Seattle,Washington,98105-5652,http://www.burkegilmanbrewing.com/,2066121439,2018-07-24 01:34:28.73967,2018-08-11 21:40:13.385893,United States,,,,
cold-crash-brewing,Cold Crash Brewing,micro,4507 48th Ave SW,Seattle,Washington,98116-4039,https://www.coldcrashbrewing.com,2064864644,2020-10-11 12:27:01,2020-10-11 12:27:01,United States,-122.393950,47.563290,,
counterbalance-brewing-company,Counterbalance Brewing Company,micro,503 S Michigan St Ste B,Seattle,Washington,98108-3305,http://www.counterbalancebeer.com,2064533615,2018-07-24 01:34:28.984561,2018-08-11 21:40:14.004358,United States,,,,
crooked-label-brewing-company,Crooked Label Brewing Company,planning,,Seattle,Washington,98125-6454,,2062931956,2018-07-24 01:34:29.023526,2018-08-11 21:40:14.079665,United States,,,,
dirty-couch-brewing,Dirty Couch Brewing,micro,,Seattle,Washington,98107,http://www.dirtycouchbrewing.com,2063696614,2018-07-24 01:34:29.161501,2018-08-11 21:40:14.524994,United States,,,,
burdick-brewery,Burdick Brewery,proprietor,8520 14th Ave S,Seattle,Washington,98108-4803,http://www.burdickbrewery.com,2069099632,2018-07-24 01:34:28.719895,2018-08-24 16:33:17.49075,United States,-122.3145617,47.5267286,,
cloudburst-brewing,Cloudburst Brewing,micro,2116 Western Ave,Seattle,Washington,98121-2110,http://www.cloudburstbrew.com,2066026061,2018-07-24 01:34:28.9308,2018-08-24 16:33:34.739529,United States,-122.3452717,47.6116138,,
elysian-brewing-co-elysian-fields,Elysian Brewing Co - Elysian Fields,large,542 1st Ave S Ste B,Seattle,Washington,98104-2882,http://www.elysianbrewing.com,2063824498,2018-07-24 01:34:29.48002,2018-08-11 21:40:15.459025,United States,,,,
fair-isle-brewing,Fair Isle Brewing,planning,,Seattle,Washington,98199-1121,http://www.fairislebrewing.com,2066041317,2018-07-24 01:34:29.586196,2018-08-11 21:40:15.666874,United States,,,,
figurehead-brewing-company,Figurehead Brewing Company,micro,4001 21st Ave W Unit B,Seattle,Washington,98199-1201,http://www.figureheadbrewingcompany.com,2064927981,2018-07-24 01:34:29.653756,2018-08-11 21:40:15.840274,United States,,,,
floodland-brewing,Floodland Brewing,micro,3806 Woodland Park Ave North Suite 100,Seattle,Washington,98103,http://www.floodlandbrewing.com,2064862854,2018-07-24 01:34:29.75106,2018-08-11 21:40:16.083087,United States,,,,
future-primitive-brewing-company,Future Primitive Brewing Company,planning,,Seattle,Washington,98106-2816,http://www.unifiedbrewing.com,2068192241,2018-07-24 01:34:29.956552,2018-08-11 21:40:16.873702,United States,,,,
elliott-bay-brewery-and-pub-west-seattle,Elliott Bay Brewery and Pub - West Seattle,brewpub,4720 California Ave SW,Seattle,Washington,98116-4413,http://www.elliottbaybrewing.com,2069328695,2018-07-24 01:34:29.412359,2018-08-24 16:34:16.052384,United States,-122.3865765,47.5604072,,
elliott-bay-public-house-and-brewery-lake-city,Elliott Bay Public House & Brewery - Lake City,brewpub,12537 Lake City Way NE,Seattle,Washington,98125-4424,http://www.elliottbaybrewing.com,2063652337,2018-07-24 01:34:29.437969,2018-08-24 16:34:19.177617,United States,-122.2948936,47.7203026,,
elysian-brewing-co,Elysian Brewing Co,large,5510 Airport Way S,Seattle,Washington,98108-2255,http://www.elysianbrewing.com,2068601920,2018-07-24 01:34:29.45215,2018-08-24 16:34:20.691599,United States,-122.3205871,47.5533243,,
elysian-brewing-co,Elysian Brewing Co,large,1221 E Pike St,Seattle,Washington,98122-3910,http://www.elysianbrewing.com,2068601920,2018-07-24 01:34:29.4656,2018-08-24 16:34:22.193437,United States,-122.3157647,47.6139598,,
floating-bridge-brewing,Floating Bridge Brewing,micro,722 NE 45th St,Seattle,Washington,98105-4719,http://www.floatingbridgebrewing.com,2064664784,2018-07-24 01:34:29.737723,2018-08-24 16:34:44.945173,United States,-122.319801733641,47.6615295,,
flying-bike-cooperative-brewery,Flying Bike Cooperative Brewery,micro,8570 Greenwood Ave N,Seattle,Washington,98103-3614,http://www.flyingbike.coop,2064287709,2018-07-24 01:34:29.791267,2018-08-24 16:34:51.311875,United States,-122.3550721,47.6920561,,
flying-lion-brewing,Flying Lion Brewing,micro,5041 Rainier Ave S Ste 106,Seattle,Washington,98118-1946,http://www.flyinglionbrewing.com,2066599912,2018-07-24 01:34:29.804227,2018-08-24 16:34:52.988604,United States,-122.2840136,47.5560348,,
fremont-brewing-co,Fremont Brewing Co,regional,3409 Woodland Park Ave N,Seattle,Washington,98103-8925,http://www.fremontbrewing.com,2064202407,2018-07-24 01:34:29.928127,2018-08-24 16:35:05.351671,United States,-122.3444367,47.64919175,,
georgetown-brewing-co,Georgetown Brewing Co,regional,5200 Denver Ave S,Seattle,Washington,98108-2246,http://www.georgetownbeer.com,2067668055,2018-07-24 01:34:30.065255,2018-08-24 16:35:14.951804,United States,-122.3256809,47.5552618,,
ghostfish-brewing-company,Ghostfish Brewing Company,micro,2942 1st Ave S,Seattle,Washington,98134-1820,http://www.ghostfishbrewing.com,2532494650,2018-07-24 01:34:30.096992,2018-08-24 16:35:18.036049,United States,-122.3338908,47.5763508,,
gordon-biersch-brewery-restaurant-seattle,Gordon Biersch Brewery Restaurant - Seattle,closed,600 Pine St Ste 401,Seattle,Washington,98101-3709,http://www.craftworksrestaurants.com,2064054205,2018-07-24 01:34:30.146775,2020-10-10 13:37:11,United States,,,,
jellyfish-brewing-company,Jellyfish Brewing Company,micro,,Seattle,Washington,98108-2747,http://www.jellyfishbrewing.com,2063974999,2018-07-24 01:34:30.581784,2018-08-11 21:40:18.387137,United States,,,,
ladd-and-lass-brewing,Ladd & Lass Brewing,planning,,Seattle,Washington,98122,http://www.laddandlassbrewing.com,,2018-07-24 01:34:30.698416,2018-08-11 21:40:18.662533,United States,,,,
hales-ales-brewery-and-pub,Hale's Ales Brewery and Pub,micro,4301 Leary Way NW,Seattle,Washington,98107-4538,http://www.halesbrewery.com,2069632118,2018-07-24 01:34:30.236617,2018-08-24 16:35:30.409596,United States,-122.36559094051,47.6592451,,
holy-mountain-brewing-co,Holy Mountain Brewing Co,micro,1421 Elliott Ave W,Seattle,Washington,98119-3104,http://holymountainbrewing.com,2064988435,2018-07-24 01:34:30.397238,2018-08-24 16:35:45.468086,United States,-122.3745615,47.6308277,,
lantern-brewing,Lantern Brewing,micro,938 N 95th St,Seattle,Washington,98103-3206,http://www.lanternbrewing.com,2067295350,2018-07-24 01:34:30.771171,2018-08-24 16:36:15.323155,United States,-122.3455994,47.6980806,,
maritime-pacific-brewing-co,Maritime Pacific Brewing Co,micro,1111 NW Ballard Way,Seattle,Washington,98107-4639,http://www.maritimebrewery.com,2067826181,2018-07-24 01:34:31.019321,2018-08-11 21:40:19.917074,United States,,,,
lucky-envelope-brewing,Lucky Envelope Brewing,micro,907 NW 50th St,Seattle,Washington,98107-3635,http://www.luckyenvelopebrewing.com,2062890425,2018-07-24 01:34:30.921681,2018-08-24 16:36:28.967898,United States,-122.3691135,47.6648583,,
machine-house-brewery,Machine House Brewery,micro,5840 Airport Way S Ste 121,Seattle,Washington,98108-2751,http://MachineHousebrewery.com,2064026025,2018-07-24 01:34:30.966117,2018-08-24 16:36:33.511986,United States,-122.3171301,47.5502618,,
mcmenamins-queen-anne-brewery,McMenamins Queen Anne Brewery,micro,200 Roy St Ste 105,Seattle,Washington,98109-4110,http://www.mcmenamins.com,2062854722,2018-07-24 01:34:31.135014,2018-08-24 16:36:47.024741,United States,-122.3520571,47.6255427,,
mollusk-brewing,Mollusk Brewing,brewpub,803 Dexter Ave N,Seattle,Washington,98109-4320,http://www.molluskseattle.com,2064031228,2018-07-24 01:34:31.31769,2018-08-24 16:37:03.529606,United States,-122.3425442,47.6269357,,
naked-city-brewing-co,Naked City Brewing Co,brewpub,8564 Greenwood Ave N,Seattle,Washington,98103-3614,http://www.nakedcitybrewing.com,2068386299,2018-07-24 01:34:31.391212,2018-08-24 16:37:11.160219,United States,-122.3550832,47.6918221,,
old-stove-brewing-company,Old Stove Brewing Company,brewpub,1916 Pike Pl Ste 12 # 420,Seattle,Washington,98101-1056,http://www.oldstove.com,2066602682,2018-07-24 01:34:31.774213,2018-08-11 21:40:22.804151,United States,,,,
optimism-brewing-company,Optimism Brewing Company,micro,1158 Broadway,Seattle,Washington,98122-3822,http://www.optimismbrewing.com,2062289227,2018-07-24 01:34:31.801941,2018-08-11 21:40:22.865475,United States,,,,
obec-brewing,Obec Brewing,micro,1144 NW 52nd St,Seattle,Washington,98107-5129,http://www.obecbrewing.com,2066590082,2018-07-24 01:34:31.667826,2018-08-24 16:37:33.54754,United States,-122.3725178,47.6666586,,
outer-planet-craft-brewing,Outer Planet Craft Brewing,micro,1812 12th Ave,Seattle,Washington,98122-8420,http://www.outerplanetbrewing.com,2067637000,2018-07-24 01:34:31.846575,2018-08-24 16:37:48.78085,United States,-122.3167381,47.6180009,,
outlander-brewery-and-pub,Outlander Brewery & Pub,brewpub,225 N 36th St,Seattle,Washington,98103-8610,http://www.outlanderbrewing.com,2064864088,2018-07-24 01:34:31.862557,2018-08-24 16:37:50.298469,United States,-122.3555596,47.6523014,,
peddler-brewing,Peddler Brewing,micro,1514 NW Leary Way,Seattle,Washington,98107-4739,http://www.peddlerbrewing.com,3603620002,2018-07-24 01:34:31.982437,2018-08-24 16:37:59.230653,United States,-122.37703,47.6638679,,
perihelion-brewery,Perihelion Brewery,brewpub,2800 16th Ave S,Seattle,Washington,98144-5732,,2062003935,2018-07-24 01:34:31.996982,2018-08-24 16:38:00.735724,United States,-122.3118193,47.5784432,,
pike-brewing-co,Pike Brewing Co,micro,1415 1st Ave,Seattle,Washington,98101-2017,http://www.pikebrewing.com,2066223373,2018-07-24 01:34:32.061812,2018-08-24 16:38:03.807521,United States,-122.3397179,47.6082151,,
populuxe-brewing,Populuxe Brewing,micro,826 NW 49th St,Seattle,Washington,98107-3614,http://www.populuxebrewing.com,2067063400,2018-07-24 01:34:32.074805,2018-08-24 16:38:05.29729,United States,-122.3680288,47.6645382,,
ram-restaurant-and-brewery-northgate,RAM Restaurant and Brewery- Northgate,brewpub,401 NE Northgate Way Spc 1102,Seattle,Washington,98125-8538,http://www.theram.com,2063648000,2018-07-24 01:34:32.306359,2018-08-11 21:40:24.467583,United States,,,,
ram-restaurant-and-brewery-seattle,RAM Restaurant and Brewery - Seattle,brewpub,2650 NE University Village St,Seattle,Washington,98105-5023,http://www.theram.com,2065253565,2018-07-24 01:34:32.271978,2018-08-24 16:38:26.38359,United States,-122.2980609,47.6641459,,
ravenna-brewing-company,Ravenna Brewing Company,micro,5408 26th Ave NE,Seattle,Washington,98105-3137,http://www.ravennabrewing.com,2067438450,2018-07-24 01:34:32.33906,2018-08-24 16:38:32.485991,United States,-122.299162006348,47.6682272,,
redhook-brewery,Redhook Brewery,regional,714 E Pike St,Seattle,Washington,98122-4697,http://www.redhook.com,4254833232,2018-07-24 01:34:32.354326,2018-08-24 16:38:34.000359,United States,-122.3227119,47.6144468,,
reubens-brews,Reuben's Brews,micro,1133 NW 51st St,Seattle,Washington,98107-5126,http://www.reubensbrews.com,2067842859,2018-07-24 01:34:32.41606,2018-08-24 16:38:38.492838,United States,-122.3721641,47.6655088,,
reubens-brews-taproom,Reuben's Brews Taproom,micro,5010 14th Ave NW,Seattle,Washington,98107-5113,http://www.reubensbrews.com,2067842859,2018-07-24 01:34:32.429157,2018-08-24 16:38:39.980628,United States,-122.3732468,47.6654087,,
rooftop-brewing-co,Rooftop Brewing Co,micro,1220 W Nickerson St,Seattle,Washington,98119-1325,http://www.rooftopbrewco.com,2064578598,2018-07-24 01:34:32.590366,2018-08-24 16:38:56.569012,United States,-122.3732188,47.6557532,,
seapine-brewing-company,Seapine Brewing Company,micro,2959 Utah Ave S,Seattle,Washington,98134-1815,http://www.seapinebrewing.com,5309028110,2018-07-24 01:34:32.72204,2018-08-24 16:39:11.590153,United States,-122.335500297762,47.5760786,,
standard-brewing,Standard Brewing,brewpub,2504 S Jackson St Ste C,Seattle,Washington,98144-2382,http://www.standardbrew.com,2065351584,2018-07-24 01:34:32.995394,2018-08-11 21:40:26.224797,United States,,,,
the-good-society,The Good Society,planning,,Seattle,Washington,98136-2652,,,2018-07-24 01:34:33.207429,2018-08-11 21:40:26.683148,United States,,,,
tin-dog-brewing,Tin Dog Brewing,micro,309 S Cloverdale St Ste A2,Seattle,Washington,98108-4500,http://www.tindogbrewing.com,2064384257,2018-07-24 01:34:33.314864,2018-08-11 21:40:26.985008,United States,,,,
stoup-brewing,Stoup Brewing,micro,1108 NW 52nd St,Seattle,Washington,98107-5129,http://www.stoupbrewing.com,2064575524,2018-07-24 01:34:33.061449,2018-08-24 16:39:46.431337,United States,-122.3711883,47.6666399,,
triple-r-brewing,Triple R Brewing,micro,916 NE 64th Street,Seattle,Washington,98115,http://triplerbrewery.com,2065793370,2018-07-24 01:34:33.385394,2018-08-24 16:40:16.587696,United States,-122.3178868,47.6752147,,
urban-family-brewing,Urban Family Brewing,micro,4441 26th Ave W,Seattle,Washington,98199-1218,http://www.urbanfamilybrewing.com,2069468533,2018-07-24 01:34:33.515735,2018-08-24 16:40:24.635466,United States,-122.3902975,47.6605861,,
west-seattle-brewing-co,West Seattle Brewing Co,micro,4415 Fauntleroy Way SW,Seattle,Washington,98126-2631,http://www.westseattlebrewing.com,2064050972,2018-07-24 01:34:33.749196,2018-08-24 16:40:47.419014,United States,-122.3776296,47.5643605,,
west-seattle-brewing-co-tapshack,West Seattle Brewing Co (TapShack),micro,2536 Alki Ave SW,Seattle,Washington,98116-2262,http://www.westseattlebrewing.com,2064204523,2020-10-09 17:17:30,2020-10-09 17:17:30,United States,-122.406811,47.580335,,
lowercase-brewing-production-facility,Lowercase Brewing - Production Facility,brewpub,8103 8th Ave S,Seattle,Washington,98108-4377,http://www.lowercasebrewing.com,2062584987,2018-07-24 01:34:30.908685,2018-08-24 16:36:27.489304,United States,-122.323155761054,47.53034,,
the-best-of-hands-barrelhouse,The Best Of Hands Barrelhouse,planning,,Seattle,Washington,98126-3228,http://www.bestofhandsbarrelhouse.com,2063352739,2018-07-24 01:34:33.181877,2018-08-11 21:40:26.657432,United States,,,,
pyramid-breweries-/-north-american-breweries,Pyramid Breweries / North American Breweries,brewpub,1201 1st Ave S,Seattle,Washington,98134-1238,http://www.pyramidbrew.com,2066823377,2018-07-24 01:34:32.149406,2018-08-24 16:38:12.872754,United States,-122.33477,47.5920086,,
north-jetty-brewing,North Jetty Brewing,micro,4200 Pacific Way,Seaview,Washington,98644-4212,http://www.northjettybrewing.com,3606424234,2018-07-24 01:34:31.517618,2018-08-24 16:37:23.394869,United States,-124.0545827,46.333147,,
fathom-and-league-hop-yard-brewery,Fathom & League Hop Yard Brewery,micro,360 Grandview Dr,Sequim,Washington,98382-7875,http://www.fathomandleaguebrewery.com,3602860278,2018-07-24 01:34:29.627373,2018-08-11 21:40:15.805134,United States,,,,
keyhole-valley-brewing,Keyhole Valley Brewing,micro,,Shelton,Washington,98584,http://www.keyholevalleybrewing.com,,2018-07-24 01:34:30.634283,2018-08-11 21:40:18.473094,United States,,,,
hemlock-state-brewing-company,Hemlock State Brewing Company,micro,18305 Sunnyside Ave N,Shoreline,Washington,98133-4627,http://www.hemlockstate.com,2062261028,2018-07-24 01:34:30.330006,2018-08-24 16:35:39.441888,United States,-122.331134015984,47.7616169220104,,
cash-brewing-company,Cash Brewing Company,brewpub,3388 NW Byron St Ste 100,Silverdale,Washington,98383-8548,http://www.cashbrewing.com,3606337852,2018-07-24 01:34:28.833911,2018-08-11 21:40:13.625036,United States,,,,
lost-canoe-brewing-co,Lost Canoe Brewing Co,micro,1208 10th St,Snohomish,Washington,98290-2099,http://www.facebook.com/lostcanoebrew/,3605683984,2018-07-24 01:34:30.86923,2018-08-24 16:36:24.408582,United States,-122.096621963598,47.9241141959796,,
scrappy-punk-brewing,Scrappy Punk Brewing,micro,9029A 112th Dr SE,Snohomish,Washington,98290-,http://www.facebook.com/scrappypunkbrew,5038101655,2018-07-24 01:34:32.696051,2018-08-24 16:39:08.635845,United States,-122.080104887189,47.9136556714666,,
snotown-brewery,SnoTown Brewery,micro,511 2nd St,Snohomish,Washington,98290-3009,http://www.facebook.com/SnoTownBrewery/,4252318113,2018-07-24 01:34:32.914345,2018-08-24 16:39:31.054857,United States,-122.088761,47.912652,,
sound-to-summit,Sound To Summit,brewpub,1830 Bickford Ave Ste 111,Snohomish,Washington,98290-1751,http://www.sound2summit.com,3602948127,2018-07-24 01:34:32.942316,2018-08-24 16:39:34.104046,United States,-122.102392660754,47.9330785850761,,
haywire-brewing-company,Haywire Brewing Company,micro,12125 Treosti Rd,Snohomish,Washington,98290-6918,http://www.haywirebrewery.com,3605682739,2018-07-24 01:34:30.277433,2018-08-24 16:35:34.948808,United States,-122.0812498,47.8860915,,
spada-farmhouse-brewery,Spada Farmhouse Brewery,micro,,Snohomish,Washington,98290-6125,http://www.spadafarmhousebrewery.com,4253306938,2018-07-24 01:34:32.956044,2018-08-11 21:40:26.134561,United States,,,,
three-bull-brewing-co,Three Bull Brewing Co,micro,809 19th St,Snohomish,Washington,98290-1444,http://www.threebullbrewing.com,2065505244,2018-07-24 01:34:33.275146,2018-08-24 16:40:04.539734,United States,-122.091708591728,47.934747456747,,
dru-bru-snoqualmie-pass,Dru Bru - Snoqualmie Pass,micro,10 Pass Life Way # 3,Snoqualmie Pass,Washington,98068,http://www.drubru.com,4254340700,2018-07-24 01:34:29.287066,2020-10-09 17:41:33,United States,-121.412584,47.421312,,
dru-bru-cle-elum,Dru Bru - Cle Elum,micro,1015 E 2nd St.,Cle Elum,Washington,98922-1324,http://www.drubru.com,4254340700,2020-10-09 17:42:56,2020-10-09 17:42:56,United States,-120.917988,47.194315,,
no-boat-brewing-company,No Boat Brewing Company,micro,35214 SE Center St # 2,Snoqualmie,Washington,98065-9279,http://www.noboatbrewing.com,2063995626,2018-07-24 01:34:31.459249,2018-08-24 16:37:17.399944,United States,-121.872184684211,47.5291711157895,,
snoqualmie-falls-brewing-co,Snoqualmie Falls Brewing Co,brewpub,8032 Falls Ave SE,Snoqualmie,Washington,98065-0924,,,2018-07-24 01:34:32.90024,2018-08-24 16:39:29.511734,United States,-121.82409766359,47.5286214,,
badass-backyard-brewing,Badass Backyard Brewing,micro,1415 N Argonne Rd,Spokane Valley,Washington,99212-2685,http://badassbackyardbrewing.com,5092423225,2018-07-24 01:34:27.993332,2018-08-24 16:32:31.158279,United States,-117.282919,47.6699039393939,,
genus-brewing-/-nu-home-brew-and-bottles,Genus Brewing / Nu Home Brew and Bottles,micro,14109 E Sprague Ave Ste 8,Spokane Valley,Washington,99216-2171,http://www.nuhomebrewery.com,5098082395,2018-07-24 01:34:30.051544,2018-08-11 21:40:17.014527,United States,,,,
perry-street-brewing-co,Perry Street Brewing Co.,micro,1025 S Perry St # 2,Spokane,Washington,99202-3464,http://www.perrystreetbrewing.com,5092792820,2018-07-24 01:34:32.047406,2018-08-24 16:38:02.362869,United States,-117.389802164913,47.6460507290258,,
english-setter-brewing-company,English Setter Brewing Company,brewpub,15310 E Marietta Ave Ste 4,Spokane,Washington,99216-1876,http://www.englishsetterbrewing.com,5094133663,2018-07-24 01:34:29.526818,2018-08-11 21:40:15.554046,United States,,,,
brewery-in-planning-spokane,Brewery In Planning - Spokane,planning,,Spokane,Washington,99208,,,2018-07-24 01:34:28.605069,2018-08-11 21:40:13.101654,United States,,,,
bellwether-brewing-co,Bellwether Brewing Co,micro,2019 N Monroe St,Spokane,Washington,99205-4542,http://www.bellwetherbrewing.net,5092808345,2018-07-24 01:34:28.175049,2018-08-24 16:32:47.934657,United States,-117.426549729628,47.6764557446378,,
benniditos-brewpub,Bennidito's Brewpub,brewpub,1909 E Sprague Ave,Spokane,Washington,99202-3120,http://www.benniditosbrewpub.com,5092905018,2018-07-24 01:34:28.192769,2018-08-24 16:32:49.571554,United States,-117.2178526,47.6571208,,
four-eyed-guys-brewing,Four Eyed Guys Brewing,micro,Audobon,Spokane,Washington,99205,http://foureyedguysbrewing.com,5097959648,2018-07-24 01:34:29.875184,2018-08-11 21:40:16.602456,United States,,,,
the-hidden-mother-brewery,The Hidden Mother Brewery,micro,412 W Sharp Ave,Spokane,Washington,99201-2421,https://thehiddenmotherbrewery.com,5099193595,2018-07-24 01:34:33.247366,2020-10-11 12:56:44,United States,-117.417792,47.669775,,
hopped-up-brewing-company,Hopped Up Brewing Company,micro,10421 E Sprague Ave,Spokane,Washington,99206-3629,http://www.hoppedupbrew.com,5094132488,2018-07-24 01:34:30.43582,2018-08-24 16:35:48.567944,United States,-117.2178526,47.6571208,,
iron-goat-brewing,Iron Goat Brewing,brewpub,1302 W 2nd Ave,Spokane,Washington,99201-4616,http://www.irongoatbrewing.com,5094740722,2018-07-24 01:34:30.530245,2018-08-24 16:35:59.057474,United States,-117.43128255014,47.6545287766289,,
little-spokane-brewing-company,Little Spokane Brewing Company,micro,154 S Madison St Ste 101,Spokane,Washington,99201-4542,http://www.littlespokanebrewingco.com,,2018-07-24 01:34:30.815509,2018-08-11 21:40:19.145308,United States,,,,
mountain-lakes-brewing-company,Mountain Lakes Brewing Company,micro,164 S Washington St Ste 700,Spokane,Washington,99201-4349,http://www.MountainLakesBrewCo.com,5033481733,2018-07-24 01:34:31.330604,2018-08-11 21:40:21.246747,United States,,,,
no-li-brewhouse,No-Li Brewhouse,micro,1003 E Trent Ave Ste 170,Spokane,Washington,99202-2185,http://www.nolibrewhouse.com,5093154061,2018-07-24 01:34:31.472722,2018-08-11 21:40:21.853209,United States,,,,
millwood-brewing-company,Millwood Brewing Company,micro,9013 E Frederick Ave,Spokane,Washington,99212-2108,http://www.millwoodbrewery.com,5093689538,2018-07-24 01:34:31.291382,2018-08-24 16:37:00.535919,United States,-117.283754999094,47.6854110818881,,
river-city-brewing,River City Brewing,micro,121 S Cedar St,Spokane,Washington,99201-6500,http://www.rivercitybrew.com,9043982299,2018-07-24 01:34:32.444786,2018-08-24 16:38:41.588643,United States,-117.432350833333,47.6560530833333,,
steam-plant-grill,Steam Plant Grill,brewpub,159 S Lincoln St Ste 1,Spokane,Washington,99201-4409,http://www.steamplantspokane.com,5097773900,2018-07-24 01:34:33.021807,2018-08-11 21:40:26.292353,United States,,,,
twelve-string-brewing-co,Twelve String Brewing Co,micro,11616 E Montgomery Dr Ste 26,Spokane,Washington,99206-6608,http://www.twelvestringbrewingco.com,5092413697,2018-07-24 01:34:33.458821,2018-08-11 21:40:27.336535,United States,,,,
square-wheel-brewing-co,Square Wheel Brewing Co,micro,4705 N Fruit Hill Rd,Spokane,Washington,99217-9619,http://www.squarewheelbrewing.com,5099942600,2018-07-24 01:34:32.968337,2018-08-24 16:39:35.607721,United States,-117.253810663422,47.6980049576216,,
the-grain-shed,The Grain Shed,brewpub,1026 E Newark Ave,Spokane,Washington,99202,http://www.thegrainshed.coop,5092413853,2018-07-24 01:34:33.221221,2018-08-24 16:39:58.35324,United States,-117.394823591837,47.6492778163265,,
tts-old-iron-brewery,TTs Old Iron Brewery,micro,154 S Madison St,Spokane,Washington,99201-4542,http://www.ttsoldironbrewery.com,,2018-07-24 01:34:33.443645,2018-08-24 16:40:21.09758,United States,-117.428165144901,47.655247998136,,
waddells-brewing-co,Waddell's Brewing Co.,brewpub,6501 N Cedar Rd Ste 1,Spokane,Washington,99208-4571,http://www.waddellsbrewery.com,5093217818,2018-07-24 01:34:33.642551,2018-08-11 21:40:27.714196,United States,,,,
whistle-punk-brewing-company,Whistle Punk Brewing Company,micro,122 S Monroe St,Spokane,Washington,99201-4007,http://www.whistlepunkbrewing.com,5093154465,2018-07-24 01:34:33.806316,2018-08-24 16:40:53.649834,United States,-117.4267386,47.6564232,,
young-buck-brewing,Young Buck Brewing,micro,154 S Madison St,Spokane,Washington,99201-4542,http://www.youngbuckbrewing.com,5092703306,2018-07-24 01:34:33.926422,2018-08-24 16:41:05.889403,United States,-117.428165144901,47.655247998136,,
black-label-brewing-company,Black Label Brewing Company,micro,19 W Main Ave,Spokane,Washington,99201-5124,http://www.blacklabelbrewing.com,5098227436,2018-07-24 01:34:28.335532,2018-08-24 16:32:59.123483,United States,-117.411458727273,47.6590031818182,,
v-twin-brewing-company,V Twin Brewing Company,micro,2302 N Argonne Rd Ste H,Spokane,Washington,99212-2366,http://www.facebook.com/vtwinbrewingco,5098680182,2018-07-24 01:34:33.530844,2018-08-11 21:40:27.462408,United States,,,,
ale-spike,Ale Spike,micro,"9300 271st St NW, Ste B-5",Stanwood,Washington,98292,http://www.alespike.com,,2018-07-24 01:34:27.807657,2018-08-11 21:40:11.454389,United States,,,,
walking-man-brewing-co,Walking Man Brewing Co,micro,240 SW 1st St,Stevenson,Washington,98648-6649,http://www.walkingmanbeer.com,5094275520,2018-07-24 01:34:33.655411,2018-08-11 21:40:27.746247,United States,,,,
timber-monster-brewing-company,Timber Monster Brewing Company,micro,410 Main Street,Sultan,Washington,98294,,4257500814,2018-07-24 01:34:33.301342,2018-08-24 16:40:07.552568,United States,-121.816215806767,47.8624107598155,,
half-lion-brewing-company,Half Lion Brewing Company,micro,1723 West Valley Hwy E Ste 101,Sumner,Washington,98390-9700,http://www.halflion.com,2537504479,2018-07-24 01:34:30.251531,2018-08-11 21:40:17.419321,United States,,,,
rock-wood-fired-pizza-/-keep-rockin-llc,Rock Wood Fired Pizza / Keep Rockin' LLC,contract,14209 29th St E Ste 102,Sumner,Washington,98390-9689,,2539875479,2018-07-24 01:34:32.518911,2018-08-11 21:40:25.01857,United States,,,,
snipes-mountain-brewing-co,Snipes Mountain Brewing Co,micro,905 Yakima Valley Hwy,Sunnyside,Washington,98944-1334,http://www.snipesmountain.com,5098372739,2018-07-24 01:34:32.887626,2018-08-24 16:39:28.023476,United States,-120.011490159278,46.3292117355135,,
varietal-beer-company,Varietal Beer Company,micro,416 E Edison Ave,Sunnyside,Washington,98944-1459,http://www.varietalbeer.com,5093074622,2018-07-24 01:34:33.590023,2018-08-24 16:40:32.359612,United States,-120.0157684375,46.3237031875,,
dystopian-state-brewing,Dystopian State Brewing,micro,611 S Baker St,Tacoma,Washington,98402-2318,http://www.dystopianstate.com,2533023466,2018-07-24 01:34:29.341429,2018-08-24 16:34:11.036513,United States,-122.443306593961,47.2583606145584,,
7-seas-brewing-co,7 Seas Brewing Co,micro,2101 Jefferson Ave,Tacoma,Washington,98402-1519,http://www.7seasbrewing.com,2535727771,2018-07-24 01:34:27.766843,2018-08-24 16:32:07.102297,United States,-122.4390379,47.242614,,
bj's-restaurant-&-brewhouse-tacoma,BJs Restauraunt & Brewhouse,brewpub,4502 S. Steele St. Suite 1500,Tacoma,Washington,98409,https://www.bjsrestaurants.com/locations/wa/tacoma,2534721220,2020-10-11 15:37,2020-10-11 15:37,United States,-122.467515,47.214875,,
black-fleet-brewing,Black Fleet Brewing,micro,2302 Fawcett Ave,Tacoma,Washington,98402,http://www.blackfleetbrewing.com,2533271641,2018-07-24 01:34:28.320028,2020-10-11 15:44,United States,-122.44036,47.24082,,
dunagan-brewing-co,Dunagan Brewing Co,micro,1126 Commerce St,Tacoma,Washington,98402-4307,http://www.dunaganbrewing.com,,2018-07-24 01:34:29.300916,2018-08-24 16:34:06.336307,United States,-122.439424636364,47.2529245353535,,
gig-harbor-brewing,Gig Harbor Brewing,micro,3120 South Tacoma Way,Tacoma,Washington,98409-4717,http://www.gigharborbrewing.com,,2018-07-24 01:34:30.111894,2018-08-24 16:35:19.847782,United States,-122.477272122449,47.2280589591837,,
north-47-brewing-co,North 47 Brewing Co,micro,1000 Town Ctr NE Ste 160,Tacoma,Washington,98422-1197,http://www.north47brewery.com,2535179865,2018-07-24 01:34:31.485691,2018-08-11 21:40:21.913333,United States,,,,
mirage-beer-co,Mirage Beer Co.,proprietor,4109 N 37th St,Tacoma,Washington,98407-5610,http://miragebeer.com,2532256654,2018-07-24 01:34:31.304713,2018-08-24 16:37:02.059858,United States,-122.491468333333,47.2815166666667,,
narrows-brewing-company,Narrows Brewing Company,micro,9007 S 19th St,Tacoma,Washington,98466-1819,http://www.narrowsbrewing.com,2533271400,2018-07-24 01:34:31.417105,2018-08-24 16:37:12.82387,United States,-122.5022378,47.2428871,,
northish-beer-company,Northish Beer Company,micro,,Tacoma,Washington,98444,http://www.northishbeer.com,2537786106,2018-07-24 01:34:31.57247,2018-08-11 21:40:22.187663,United States,,,,
odd-otter-brewing-company,Odd Otter Brewing Company,micro,716 Pacific Ave,Tacoma,Washington,98402-5208,http://www.oddotterbrewing.com,2532794871,2018-07-24 01:34:31.682907,2018-08-24 16:37:35.127607,United States,-122.437927,47.250289,,
ram-restaurant-and-brewery-production,RAM Restaurant and Brewery - Production,micro,5001 S Washington St,Tacoma,Washington,98409-2828,http://www.theram.com,2534747465,2018-07-24 01:34:32.23822,2018-08-24 16:38:23.41794,United States,-122.48489,47.211482,,
ram-restaurant-and-brewery-tacoma,RAM Restaurant and Brewery - Tacoma,brewpub,3001 Ruston Way,Tacoma,Washington,98402-5306,http://www.theram.com,2537567886,2018-07-24 01:34:32.290583,2018-08-24 16:38:27.868191,United States,-122.474793030554,47.2797382,,
rock-wood-fired-pizza-and-brewery-tacoma,Rock Wood Fired Pizza and Brewery - Tacoma,contract,1920 Jefferson Ave,Tacoma,Washington,98402-1608,http://www.therockwfp.com,2532721221,2018-07-24 01:34:32.549407,2018-08-24 16:38:52.091671,United States,-122.439285342045,47.24409495,,
sig-brewing-company-tacoma,Sig Brewing Co.,micro,2534 Tacoma ave S.,Tacoma,Washington,98402-,https://www.sigbrewingco.com/,2535036446,2020-10-11 15:05,2020-10-12 15:05,United States,-122.441312,47.237072,,
sluggo-brewing,Sluggo Brewing,micro,2712 6th Ave,Tacoma,Washington,98406-7213,http://www.halfpintpizzapub.com,2533271894,2018-07-24 01:34:32.86189,2018-08-24 16:39:26.571993,United States,-122.472174,47.2553127,,
tacoma-brewing-co,Tacoma Brewing Co.,micro,1116 Court E,Tacoma,Washington,98402,http://www.tacomabrewing.com,2532423370,2018-07-24 01:34:33.114742,2018-08-24 16:39:52.36972,United States,-122.443739818182,47.2525614141414,,
wingman-brewers,Wingman Brewers,micro,509 1/2 Puyallup Ave,Tacoma,Washington,98421-1318,http://www.wingmanbrewers.com,2532565240,2018-07-24 01:34:33.874733,2018-08-24 16:41:01.359558,United States,-122.42911328,47.24075878,,
e9-brewing-company-tacoma,E9 Brewing Company,micro,2506 Fawcett Avenue,Tacoma,Washington,98402,https://e9brewingco.com/,2533837707,2018-07-24 01:34:29.506463,2020-10-11 15:15,United States,-122.44,47.238169,,Previously Engine House 9 Brewing - Engine House 9 is still there but brewery moved and is named E9
harmon-brewing-company,Harmon Brewing Company,micro,204 St Helens Ave,Tacoma,Washington,98402-2522,http://www.harmonbrewingco.com,253212725,2018-07-24 01:34:30.26469,2018-08-24 16:35:33.465229,United States,-122.445780424242,47.2620935555556,,
pacific-brewing-and-malting,Pacific Brewing and Malting,micro,610 Pacific Ave,Tacoma,Washington,98402-4606,http://www.pacificbrewingandmalting.com,2533832337,2018-07-24 01:34:31.882091,2018-08-24 16:37:51.769155,United States,-122.437927,47.250289,,
scatter-creek-brewing,Scatter Creek Brewing,micro,237 Sussex Ave W,Tenino,Washington,98589-9360,http://www.facebook.com/ScatterCreekBrewing/,3602649463,2018-07-24 01:34:32.671052,2018-08-11 21:40:25.444913,United States,,,,
buffalo-brewing-co,Buffalo Brewing Co,planning,,Toppenish,Washington,98948-9674,,,2018-07-24 01:34:28.706152,2018-08-11 21:40:13.314364,United States,,,,
odin-brewing-co,Odin Brewing Co,brewpub,402 Baker Blvd,Tukwila,Washington,98188-2905,http://www.odinbrewing.com,2062432363,2018-07-24 01:34:31.698575,2018-08-24 16:37:36.650366,United States,-122.2520643,47.4586237,,
hoh-river-brewery,Hoh River Brewery,micro,2442 Mottman Rd SW,Tumwater,Washington,98512-6219,http://www.hohriverbrewery.com,3607054000,2018-07-24 01:34:30.384781,2018-08-24 16:35:44.007589,United States,-122.935621808163,47.025431955102,,
matchless-brewing,Matchless Brewing,micro,8036 River Dr SE Ste 208,Tumwater,Washington,98501-6814,http://www.matchlessbrewing.com,5033173284,2018-07-24 01:34:31.036363,2018-08-11 21:40:19.954182,United States,,,,
triceratops-brewing,Triceratops Brewing,proprietor,8036 River Dr SE Ste 203,Tumwater,Washington,98501,http://www.triceratopsbrewing.com,3604805626,2018-07-24 01:34:33.369179,2018-08-11 21:40:27.125162,United States,,,,
brothers-cascadia-brewing,Brothers Cascadia Brewing,micro,9811 NE 15th Ave,Vancouver,Washington,98665-9102,http://www.brotherscascadiabrewing.com,3607188927,2018-07-24 01:34:28.676961,2018-08-24 16:33:14.450068,United States,-122.6553318,45.6499058,,
loowit-brewing,Loowit Brewing,micro,507 Columbia St,Vancouver,Washington,98660-3194,http://www.loowitbrewing.com,3605662323,2018-07-24 01:34:30.829672,2018-08-24 16:36:21.311885,United States,-122.6734331,45.6251071,,
the-heavy-metal-brewing-co,The Heavy Metal Brewing Co.,brewpub,809 Macarthur Blvd,Vancouver,Washington,98661-7013,http://www.theheavymetalbrewingco.com,3602581691,2018-07-24 01:34:33.233675,2018-08-24 16:39:59.918859,United States,-122.6171177,45.6275368,,
beerded-brothers-brewing,Beerded Brothers Brewing,micro,106 W 6th St,Vancouver,Washington,98660,http://www.beerdedbrothers.net,3606065806,2018-07-24 01:34:28.127072,2018-08-24 16:32:43.162284,United States,-122.671891061604,45.6257680186597,,
fortside-brewing-company,Fortside Brewing Company,micro,2200 NE Andresen Rd Ste B,Vancouver,Washington,98661-7350,http://www.fortsidebrewing.com,3605244692,2018-07-24 01:34:29.847647,2018-08-11 21:40:16.508466,United States,,,,
ghost-runners-brewery,Ghost Runners Brewery,micro,4216 NE Minnehaha St # 108,Vancouver,Washington,98661-1244,,,2018-07-24 01:34:30.082126,2018-08-24 16:35:16.513565,United States,-122.639599,45.6678127,,
hopworks-urban-brewery-vancouver,Hopworks Urban Brewery - Vancouver,micro,17707 SE Mill Plain Blvd,Vancouver,Washington,98683-7578,,5032324677,2018-07-24 01:34:30.448957,2018-08-24 16:35:50.147868,United States,-122.5483264,45.6202601,,
mcmenamins-east-vancouver-brewery,McMenamins East Vancouver Brewery,micro,1900B NE 162nd Ave Ste B107,Vancouver,Washington,98684-3013,http://www.mcmenamins.com,3606959033,2018-07-24 01:34:31.06822,2018-08-11 21:40:20.258127,United States,,,,
mcmenamins-on-the-columbia-brewery,McMenamins On the Columbia Brewery,brewpub,1801 SE Columbia River Dr,Vancouver,Washington,98661-8030,http://www.mcmenamins.com,3606691521,2018-07-24 01:34:31.117386,2018-08-24 16:36:45.509425,United States,-122.65296645,45.61508455,,
northwest-passage-craft-brewery,Northwest Passage Craft Brewery,micro,,Vancouver,Washington,98661,,3605212417,2018-07-24 01:34:31.612271,2018-08-11 21:40:22.322947,United States,,,,
old-ivy-brewery-and-taproom,Old Ivy Brewery and Taproom,brewpub,108 W Evergreen Blvd Ste A,Vancouver,Washington,98660-3124,http://www.oldivybrewery.com,3609931827,2018-07-24 01:34:31.746223,2018-08-11 21:40:22.717423,United States,,,,
railside-brewing,Railside Brewing,micro,309 NE 76th St,Vancouver,Washington,98665-8210,http://www.railsidebrewing.com,3609078582,2018-07-24 01:34:32.200672,2018-08-11 21:40:24.194496,United States,,,,
trap-door-brewing,Trap Door Brewing,micro,2315 Main St,Vancouver,Washington,98660-2641,http://www.trapdoorbrewing.com,5037582569,2018-07-24 01:34:33.355414,2018-08-24 16:40:13.595821,United States,-122.671309865441,45.6390464432333,,
trusty-brewing-co,Trusty Brewing Co.,brewpub,114 E Evergreen Blvd,Vancouver,Washington,98660-3219,http://www.trustybrewing.com,3602580413,2018-07-24 01:34:33.429566,2018-08-24 16:40:19.536572,United States,-122.6707614,45.6289331,,
victor-23-craft-brewery,Victor 23 Craft Brewery,brewpub,2905 St Johns Blvd,Vancouver,Washington,98661-3718,http://www.Victor23.com,3609845413,2018-07-24 01:34:33.629187,2018-08-24 16:40:35.436343,United States,-122.6464236,45.6426306,,
brother-ass-brewing,Brother Ass Brewing,micro,11700 NE 54th Ct,Vancouver,Washington,98686-4589,http://www.brotherassbrewing.com,3606073275,2018-07-24 01:34:28.662515,2018-08-11 21:40:13.21919,United States,,,,
heathen-brewing-co,Heathen Brewing Co.,brewpub,5612 NE 119th St,Vancouver,Washington,98686-3475,http://www.heathenbrewing.com,3606017454,2018-07-24 01:34:30.302328,2018-08-11 21:40:17.538843,United States,,,,
enso-brewing-company,Enso Brewing Company,micro,,Vashon,Washington,98070,,,2018-07-24 01:34:29.542346,2018-08-11 21:40:15.585523,United States,,,,
camp-colvos-brewing,Camp Colvos Brewing,planning,,Vashon,Washington,98070-6052,http://www.campcolvos.com,2069473527,2018-07-24 01:34:28.780468,2018-08-11 21:40:13.501789,United States,,,,
vashon-brewing-co,Vashon Brewing Co,micro,,Vashon,Washington,98070-5900,http://www.vashonbrewingco.com,,2018-07-24 01:34:33.60418,2018-08-11 21:40:27.611924,United States,,,,
laht-neppur-brewing,Laht Neppur Brewing,brewpub,444 Preston Ave,Waitsburg,Washington,99361-0738,http://lahtneppur.com,5093376261,2018-07-24 01:34:30.732357,2018-08-24 16:36:10.883103,United States,-118.148767,46.270046,,
mill-creek-brewpub,Mill Creek Brewpub,brewpub,11 S Palouse St,Walla Walla,Washington,99362-1925,http://www.millcreek-brewpub.com,5095222440,2018-07-24 01:34:31.275825,2018-08-24 16:36:58.980568,United States,-118.334927236137,46.0692793903828,,
water-buffalo-brewery,Water Buffalo Brewery,micro,136 Russet Rd,Walla Walla,Washington,99362-8253,http://www.waterbuffalobrewery.com,5092407139,2018-07-24 01:34:33.694562,2018-08-24 16:40:43.000998,United States,-118.406074773204,46.0522032720417,,
burwood-brewing-company,Burwood Brewing Company,micro,1120 E St,Walla Walla,Washington,99362-9505,http://www.burwoodbrewing.com,5098766220,2018-07-24 01:34:28.753484,2018-08-24 16:33:18.944516,United States,-118.2653286,46.0940928,,
nosdunk-brewing-company,Nosdunk Brewing Company,micro,,Walla Walla,Washington,99362-9311,http://www.nosdunkbrewing.com,5095408784,2018-07-24 01:34:31.653352,2018-08-11 21:40:22.471307,United States,,,,
quirk-brewing,Quirk Brewing,micro,425 B St,Walla Walla,Washington,99362-2265,,,2018-07-24 01:34:32.174914,2018-08-24 16:38:15.851821,United States,-118.2755318,46.0913886,,
doomsday-brewing-co,Doomsday Brewing Co.,micro,421 C St Ste 3,Washougal,Washington,98671-2169,http://www.doomsdaybrewing.com,3603359909,2018-07-24 01:34:29.230981,2018-08-11 21:40:14.835826,United States,,,,
shoug-brewing-company,Shoug Brewing Company,micro,1311 SE Cliffside Dr,Washougal,Washington,98671-8750,http://www.shougbrewing.com,3604870172,2018-07-24 01:34:32.73504,2018-08-11 21:40:25.593021,United States,,,,
54-40-brewing-company,54-40 Brewing Company,brewpub,3801 S Truman Rd Ste 1,Washougal,Washington,98671-2589,http://www.54-40brewing.com,3609077062,2018-07-24 01:34:27.750497,2018-08-11 21:40:11.334888,United States,,,,
badger-mountain-brewing,Badger Mountain Brewing,micro,1 Orondo Ave,Wenatchee,Washington,98801-2206,http://www.badgermountainbrewing.com,5098882234,2018-07-24 01:34:28.012569,2018-08-24 16:32:32.644547,United States,-120.309353,47.423747,,
columbia-valley-brewing,Columbia Valley Brewing,micro,538 Riverside Dr,Wenatchee,Washington,98801-6133,http://www.columbiavalleybrewing.com,5098889993,2018-07-24 01:34:28.958243,2018-08-24 16:33:37.719567,United States,-120.314027239559,47.4335301529336,,
saddle-rock-pub-and-brewery,Saddle Rock Pub & Brewery,brewpub,25 N Wenatchee Ave Ste 107,Wenatchee,Washington,98801-2201,http://www.saddlerockbrewery.com,5098884790,2018-07-24 01:34:32.617659,2018-08-11 21:40:25.285284,United States,,,,
wenatchee-valley-brewing-co,Wenatchee Valley Brewing Co.,micro,108 Island Vw,Wenatchee,Washington,98801-2039,http://wenatcheevalleybrewing.com/,5098888088,2018-07-24 01:34:33.735813,2018-08-11 21:40:27.982403,United States,,,,
blackbeards-brewing-company,Blackbeard's Brewing Company,brewpub,700 W Ocean Ave,Westport,Washington,98595-9603,http://www.blackbeardsbrewing.com,3602687662,2018-07-24 01:34:28.374503,2018-08-24 16:33:02.265096,United States,-124.1175413,46.8867861,,
everybodys-brewing-co,Everybody's Brewing Co,micro,151 E Jewett Blvd,White Salmon,Washington,98672-8976,http://www.everybodysbrewing.com,5096372774,2018-07-24 01:34:29.572855,2018-08-24 16:34:31.390263,United States,-121.486110272598,45.727702985782,,
old-schoolhouse-brewery,Old Schoolhouse Brewery,brewpub,155 Riverside Ave,Winthrop,Washington,98862-0577,http://www.oldschoolhousebrewery.com,5099963183,2018-07-24 01:34:31.760315,2018-08-24 16:37:42.767544,United States,-120.186635379502,48.47814625,,
crucible-brewing-woodinville-forge,Crucible Brewing - Woodinville Forge,micro,12826 NE 178th St Ste C,Woodinville,Washington,98072-8737,http://Www.cruciblebrewing.com,4254839855,2020-10-11 12:16:22,2020-10-11 12:16:22,United States,-122.167861,47.757935,,
good-brewing-company,Good Brewing Company,micro,16104 125th Pl NE,Woodinville,Washington,98072-7983,http://www.globalbeercompany.com,4252473245,2018-07-24 01:34:30.128681,2018-08-24 16:35:21.412631,United States,-122.171787667615,47.7446995850893,,
20-corners-brewing-llc,20 Corners Brewing LLC,brewpub,14148 NE 190th St Ste A,Woodinville,Washington,98072-8437,http://www.20cornersbrewing.com,4253755223,2018-07-24 01:34:27.676676,2018-08-11 21:40:11.220062,United States,,,,
brouwerij-les-deplorables,Brouwerij Les Deplorables,micro,19812 163rd Ave NE,Woodinville,Washington,98072-7027,,2067902496,2018-07-24 01:34:28.69178,2018-08-24 16:33:15.985173,United States,-122.122548457,47.7711936010918,,
dirty-bucket-brewery,Dirty Bucket Brewery,micro,19151 144th Ave NE,Woodinville,Washington,98072-4374,http://www.dirtybucketbrewery.com,2068191570,2018-07-24 01:34:29.145891,2018-08-24 16:33:51.343685,United States,-122.1484843,47.7661918,,
laurelwood-public-house-and-brewery-ne,Laurelwood Public House and Brewery - NE,proprietor,14300 NE 145th St,Woodinville,Washington,98072-6950,,4254833232,2018-07-24 01:34:30.78464,2018-08-24 16:36:16.855738,United States,-122.1460064,47.7328255,,
lost-bear-brews,Lost Bear Brews,planning,,Woodinville,Washington,98072,http://www.lostbearbrews.com,2069724505,2018-07-24 01:34:30.856677,2018-08-11 21:40:19.309556,United States,,,,
metier-brewing-company,Metier Brewing Company,micro,14125 NE 189th St,Woodinville,Washington,98072-6831,http://www.metierbrewing.com,4254158466,2018-07-24 01:34:31.198408,2018-08-24 16:36:53.038153,United States,-122.151561066024,47.764220981136,,
northwest-brewery-works,Northwest Brewery Works,planning,,Woodinville,Washington,98072-8402,http://www.northwestbreweryworks.com,4257576722,2018-07-24 01:34:31.585378,2018-08-11 21:40:22.249832,United States,,,,
sumerian-brewing-company,Sumerian Brewing Company,micro,15510 Woodinville Redmond Rd NE Ste E110,Woodinville,Washington,98072-6979,http://www.sumerianbrewingco.com,4254865330,2018-07-24 01:34:33.088394,2018-08-11 21:40:26.442848,United States,,,,
triplehorn-brewing-co,Triplehorn Brewing Co,micro,19510 144th Ave NE Ste E6,Woodinville,Washington,98072-8429,http://www.triplehornbrewing.com,4252427979,2018-07-24 01:34:33.399456,2018-08-11 21:40:27.21577,United States,,,,
underground-brewing,Underground Brewing,micro,,Woodinville,Washington,98072,http://www.underground-brewing.com,,2018-07-24 01:34:33.502336,2018-08-11 21:40:27.397389,United States,,,,
vessel-ales-and-taphouse,Vessel Ales & Taphouse,micro,19405 144th Ave NE Bldg D,Woodinville,Washington,98072-6485,http://www.vesselwines.com,2066295024,2018-07-24 01:34:33.616939,2018-08-11 21:40:27.641625,United States,,,,
bale-breaker-brewing-company,Bale Breaker Brewing Company,regional,1801 Birchfield Rd,Yakima,Washington,98901-9577,http://www.balebreaker.com,5094244000,2018-07-24 01:34:28.043304,2018-08-24 16:32:35.704962,United States,-120.435573023058,46.5768554077014,,
valley-brewing-co,Valley Brewing Co,micro,3215 River Rd,Yakima,Washington,98902-1142,http://www.valleybrewingco.com,5099495944,2018-07-24 01:34:33.559248,2018-08-24 16:40:29.188776,United States,-120.553068,46.618456,,
yakima-valley-hops,Yakima Valley Hops,micro,702 N 1st Ave Ste D,Yakima,Washington,98902-2121,,2086494677,2018-07-24 01:34:33.91411,2018-08-11 21:40:28.514346,United States,,,,
berchmans-brewing-company,Berchman's Brewing Company,micro,25 N Front St Ste 2,Yakima,Washington,98901-2648,http://berchmansbrewingcompany.com/,5099521058,2018-07-24 01:34:28.22649,2018-08-11 21:40:12.334189,United States,,,,
haas-innovations-brewing-llc,Haas Innovations Brewing LLC,micro,1600 River Rd,Yakima,Washington,98902-1249,,,2018-07-24 01:34:30.223138,2018-08-24 16:35:28.921867,United States,-120.530565,46.617844,,
hop-nation-brewing-company,Hop Nation Brewing Company,micro,31 N 1st Ave,Yakima,Washington,98902-2663,http://www.hopnation.us,5099856449,2018-07-24 01:34:30.422785,2018-08-24 16:35:46.962828,United States,-120.509732105128,46.6018934016323,,
redifer-brewing-co,Redifer Brewing Co,micro,123 E Yakima Ave,Yakima,Washington,98901-2696,http://www.rediferbrewing.com,5094243400,2018-07-24 01:34:32.370501,2018-08-24 16:38:35.520356,United States,-120.50572286356,46.6024019807137,,
wandering-hop-brewery,Wandering Hop Brewery,micro,508 N 20th Ave,Yakima,Washington,98902-1839,http://www.wanderinghop.com,5099018011,2018-07-24 01:34:33.681406,2018-08-24 16:40:41.544933,United States,-120.535661741211,46.6062721435261,,
yakima-craft-brewing-co,Yakima Craft Brewing Co,micro,2920 River Rd Ste 6,Yakima,Washington,98902-7332,http://www.yakimacraftbrewing.com,5096547357,2018-07-24 01:34:33.901048,2018-08-11 21:40:28.481439,United States,,,,
single-hill-brewing-company,Single Hill Brewing Company,micro,102 N Naches Ave,Yakima,Washington,98901-2757,http://www.singlehillbrewing.com,5033511197,2018-07-24 01:34:32.778295,2018-08-24 16:39:17.633046,United States,-120.500668831642,46.6050642975829,,
woods-cabin-brewery,Woods Cabin Brewery,planning,,Yarrow Point,Washington,98004,,4258945483,2018-07-24 01:34:33.88797,2018-08-11 21:40:28.44272,United States,,,,
nisqually-valley-brewing,Nisqually Valley Brewing,micro,704 W Yelm Ave,Yelm,Washington,98597-7676,http://www.nisquallyvalleybrewing.beer,4252328191,2018-07-24 01:34:31.445961,2018-08-24 16:37:15.877759,United States,-122.614652080808,46.9464943737374,,