id,name,brewery_type,street,city,state,postal_code,website_url,phone,created_at,updated_at,country,longitude,latitude,tags
two-monks-brewing-company,Two Monks Brewing Company,micro,352 Massillon Rd,Akron,Ohio,44312-2021,http://www.2monksbru.com,2347382337,2018-07-24 01:34:03.493272,2018-08-24 15:45:15.418183,United States,-81.4629236768124,41.0520502548408,
akronym-brewing-llc,Akronym Brewing LLC,micro,58 E Market St,Akron,Ohio,4430,http://www.akronymbrewing.com,3306208274,2018-07-24 01:33:59.408302,2018-08-24 15:43:22.076854,United States,-81.516458822277,41.0851219267793,
aqueduct-brewing,Aqueduct Brewing,micro,529 Grant St Ste 106,Akron,Ohio,44311-1184,http://www.aqueductbrewing.shutterfly.com,3306066583,2018-07-24 01:33:59.459423,2018-08-24 15:43:23.190484,United States,-81.5178848685887,41.0698532030387,
hoppin-frog-brewing-co,Hoppin' Frog Brewing Co,micro,1680 E Waterloo Rd Ste F,Akron,Ohio,44306-4523,http://www.hoppinfrog.com,,2018-07-24 01:34:01.191732,2018-08-11 21:38:59.539591,United States,,,
lock-15-brewing-co,Lock 15 Brewing Co,planning,,Akron,Ohio,44304-1035,http://www.lock15brewing.com,,2018-07-24 01:34:01.515621,2018-08-11 21:39:00.388781,United States,,,
missing-falls-brewery,Missing Falls Brewery,planning,,Akron,Ohio,44311-1079,,3308086097,2018-07-24 01:34:01.828302,2018-08-11 21:39:01.389564,United States,,,
mucky-duck-brewery,Mucky Duck Brewery,brewpub,4019 S Main St,Akron,Ohio,44319-3668,,3306445444,2018-07-24 01:34:01.951782,2018-08-24 15:44:32.667287,United States,-81.5268804,41.0629094,
rshea-brewing,R.Shea Brewing,micro,1662 Merriman Rd,Akron,Ohio,44313-9000,http://www.rsheabrewing.com,3307945654,2018-07-24 01:34:02.574397,2018-08-24 15:44:48.221836,United States,-81.5534150333579,41.134899952298,
roobrew,Roobrew,contract,,Akron,Ohio,44311-1051,http://www.roobrew.com,3307033947,2018-07-24 01:34:02.79362,2018-08-11 21:39:03.87714,United States,,,
the-brick-oven-brewpub,The Brick Oven Brewpub,brewpub,604 Canton Rd,Akron,Ohio,44312-2513,http://www.thebrickovenbrewpub.com,3304757005,2018-07-24 01:34:03.256634,2018-08-24 15:45:07.804521,United States,-81.4373419398895,41.0471953371375,
thirsty-dog-brewing-company,Thirsty Dog Brewing Company,micro,529 Grant St Ste 103,Akron,Ohio,44311-1184,http://www.thirstydog.com,3302522739,2018-07-24 01:34:03.387817,2018-08-24 15:45:11.684411,United States,-81.5178848685887,41.0698532030387,
veteran-brewhouse,Veteran Brewhouse,micro,829 CR 801,Ashland,Ohio,44805,http://www.veteranbrewhouse.com,4196064014,2018-07-24 01:34:03.561861,2018-08-11 21:39:06.605313,United States,,,
uniontown-brewing-co,Uniontown Brewing Co.,brewpub,105 W Main St,Ashland,Ohio,44805-2221,http://www.uniontownbrewing.com,4199088542,2018-07-24 01:34:03.506063,2018-08-24 15:45:15.959589,United States,-82.3163893181818,40.8686237954545,
jackie-os-brewery,Jackie O's Brewery,micro,25 Campbell St,Athens,Ohio,45701-2616,,6147473434,2018-07-24 01:34:01.283792,2018-08-24 15:44:11.587098,United States,-82.0905355476436,39.3315139,
jackie-os-pub-and-brewery,Jackie O's Pub & Brewery,brewpub,22-24 W Union St,Athens,Ohio,45701-2818,http://www.jackieos.com,7405929686,2018-07-24 01:34:01.296584,2018-08-24 15:44:12.145201,United States,-82.1021617142857,39.3276418571429,
little-fish-brewing-company,Little Fish Brewing Company,micro,8675 Armitage Rd,Athens,Ohio,45701-8900,http://www.littlefishbrewing.com,7402046187,2018-07-24 01:34:01.489162,2018-08-24 15:44:18.85203,United States,-82.1295773821057,39.3333322660354,
devils-kettle-brewing,Devil's Kettle Brewing,micro,97 Columbus Rd,Athens,Ohio,45701-1313,http://www.devilskettlebrewing.com,7405897187,2018-07-24 01:34:00.477948,2018-08-24 15:43:44.632218,United States,-82.0954317616037,39.3487142533636,
biker-brew-house,Biker Brew House,micro,5700 Interstate Blvd,Austintown,Ohio,44515-1170,http://www.bikerbrewhouse.com,,2018-07-24 01:33:59.573434,2018-08-11 21:38:55.960221,United States,,,
paladin-brewing,Paladin Brewing,micro,6520 Mahoning Ave,Austintown,Ohio,44515-2012,http://www.paladinbrewing.com,3305506338,2018-07-24 01:34:02.293731,2018-08-24 15:44:40.223121,United States,-80.7874274795918,41.099487,
railroad-brewing-company,Railroad Brewing Company,micro,1010 Center Rd,Avon,Ohio,44011-1206,http://www.railroadbrewingcompany.com,4407238234,2018-07-24 01:34:02.589321,2018-08-24 15:44:48.690248,United States,-82.0195372450403,41.4754617027622,
magic-city-brewing-company,Magic City Brewing Company,micro,161 2nd St NW,Barberton,Ohio,44203,http://Www.magiccitybrewingcompany.com,3307039806,2018-07-24 01:34:01.649078,2018-08-24 15:44:23.36223,United States,-81.6073882927244,41.0144467231506,
ignite-brewing-company-ltd,"Ignite Brewing Company, Ltd.",micro,600 W Tuscarawas Ave,Barberton,Ohio,44203-2460,http://www.facebook.com/Ignitebrewingcompany,3306966881,2018-07-24 01:34:01.218185,2018-08-24 15:44:10.051007,United States,-81.61268,41.012866,
wandering-griffin,Wandering Griffin,planning,,Beavercreek,Ohio,45324-9095,http://www.wanderinggriffin.com,9379565216,2018-07-24 01:34:03.602838,2018-08-11 21:39:06.730131,United States,,,
paradune-brewing-company,Paradune Brewing Company,micro,20707 Township Rd 119,Belle Center,Ohio,43310,http://www.paradunebrewing.com,9375891730,2018-07-24 01:34:02.348861,2018-08-11 21:39:02.810533,United States,,,
roundhouse-depot-brewing,Roundhouse Depot Brewing,micro,217 W Chillicothe Ave,Bellefontaine,Ohio,43311,,5403231295,2018-07-24 01:34:02.808539,2018-08-24 15:44:54.811389,United States,-83.76289625,40.3598153181818,
cornerstone-brewing-co,Cornerstone Brewing Co,brewpub,58 Front St,Berea,Ohio,44017-1911,,4402399820,2018-07-24 01:34:00.348444,2018-08-24 15:43:40.964196,United States,-81.8530486666667,41.3668538484849,
brewery-in-planning-bethel,Brewery In Planning - Bethel,planning,,Bethel,Ohio,45106-8228,,5134911227,2018-07-24 01:33:59.793545,2018-08-11 21:38:56.602999,United States,,,
old-mill-craft-beer,Old Mill Craft Beer,micro,2376 State Route 850,Bidwell,Ohio,45614-9590,,7402459463,2018-07-24 01:34:02.252785,2018-08-11 21:39:02.51421,United States,,,
dungeon-hollow-brewing,Dungeon Hollow Brewing,micro,572 County Rd 22A,Bloomingdale,Ohio,43910,http://www.dungeonhollow.com,7403371510,2018-07-24 01:34:00.537243,2018-08-11 21:38:58.105918,United States,,,
fretboard-brewing-company,Fretboard Brewing Company,micro,5800 Creek Rd,Blue Ash,Ohio,45242-4010,http://www.fretboardbrewing.com,5139144677,2018-07-24 01:34:00.844657,2018-08-24 15:43:56.366177,United States,-84.390108,39.260924,
lockport-brewery,Lockport Brewery,brewpub,10891 OH-212,Bolivar,Ohio,44612-8664,http://www.lockportbeer.com,3308746037,2018-07-24 01:34:01.554556,2018-08-11 21:39:00.495202,United States,,,
bowling-green-beer-works,Bowling Green Beer Works,micro,322 N Grove St Ste C,Bowling Green,Ohio,43402-2322,,5122992101,2018-07-24 01:33:59.688597,2018-08-11 21:38:56.33649,United States,,,
the-vine-n-hop-shop,The Vine N Hop Shop,micro,1327 N. Carpenter Rd.,Brunswick,Ohio,44212,http://www.vinehop.com,3306236940,2018-07-24 01:34:03.346375,2018-08-11 21:39:05.926426,United States,,,
father-johns-microbrewery,Father John's Microbrewery,brewpub,301 W Butler St,Bryan,Ohio,43506-1608,http://www.fatherjohnsbrewery.com,4196331313,2018-07-24 01:34:00.690368,2018-08-24 15:43:50.829451,United States,-84.553828,41.473192,
buckeye-lake-brewery,Buckeye Lake Brewery,micro,5176 Walnut Rd,Buckeye Lake,Ohio,43008,,7405356225,2018-07-24 01:34:00.124535,2018-08-24 15:43:34.369355,United States,-82.488973,39.928559,
monzula-farm-brewery-/-vineyard-22,Monzula Farm Brewery / Vineyard 22,micro,83800 Monzula Rd,Cadiz,Ohio,43907,http://www.vineyard22winery.com,7404917000,2018-07-24 01:34:01.896697,2018-08-11 21:39:01.614355,United States,,,
southside-brewing-co,Southside Brewing Co,brewpub,62920 Georgetown Rd,Cambridge,Ohio,43725-9749,http://www.southsidebrewing.net,7404353222,2018-07-24 01:34:03.017577,2018-08-11 21:39:04.667304,United States,,,
brewdog-brewing-company-llc,"BrewDog Brewing Company, LLC",micro,96 Gender Rd,Canal Winchester,Ohio,43110-7539,http://www.brewdog.com/usa,6149083059,2018-07-24 01:33:59.762658,2018-08-24 15:43:31.46258,United States,-82.8311352,39.8225954,
loose-rail-brewing,Loose Rail Brewing,micro,37 W Waterloo St,Canal Winchester,Ohio,43110-1140,http://www.looserailbrewing.com,6143216634,2018-07-24 01:34:01.567397,2018-08-24 15:44:20.779036,United States,-82.8069082,39.84329,
muskellunge-brewing-company,Muskellunge Brewing Company,micro,425 5th St NW,Canton,Ohio,44702,http://www.muskybrewco.com,,2018-07-24 01:34:01.997534,2018-08-24 15:44:34.180415,United States,-81.3767243265306,40.8019184081633,
canton-brewing-company,Canton Brewing Company,brewpub,120 3rd St NW,Canton,Ohio,44702,http://www.drinkcantonbeer.com,,2018-07-24 01:34:00.152894,2018-08-24 15:43:35.424409,United States,-81.3745386734694,40.7998288979592,
fat-heads-brewpub-canton,Fat Head's Brewpub - Canton,brewpub,3885 Everhard Rd NW,Canton,Ohio,44709-4003,,,2018-07-24 01:34:00.678075,2018-08-24 15:43:50.396494,United States,-81.4186757120517,40.8597243589905,
royal-docks-brewing-company,Royal Docks Brewing Company,contract,7162 Fulton Dr NW,Canton,Ohio,44718-1523,http://www.docks.beer,3303539103,2018-07-24 01:34:02.833634,2018-08-11 21:39:04.007534,United States,,,
outerbelt-brewing-company,Outerbelt Brewing Company,planning,,Carroll,Ohio,43112,http://www.outerbeltbrewing.com,6143096796,2018-07-24 01:34:02.278964,2018-08-11 21:39:02.633546,United States,,,
twin-oast-brewing,Twin Oast Brewing,brewpub,3630 NE Catawba Rd,Catawba Island,Ohio,43452,http://www.twinoast.com,4195736126,2018-07-24 01:34:03.466794,2018-08-24 15:45:14.45169,United States,-82.832581,41.578044,
lake-rat-brewing,Lake Rat Brewing,brewpub,108 S Main St,Celina,Ohio,45822,http://www.lakeratbrewing.com,4197331830,2018-07-24 01:34:01.388694,2018-08-24 15:44:15.711034,United States,-84.5706936734694,40.5482005714286,
heavier-than-air-brewing-co,Heavier Than Air Brewing Co,micro,497 Miamisburg Centerville Rd,Centerville,Ohio,45459-4753,http://www.heavierthanairbrewing.com,9374331500,2018-07-24 01:34:01.071727,2018-08-24 15:44:04.494419,United States,-84.1733313994478,39.6279681199441,
lock-27-brewing,Lock 27 Brewing,brewpub,1035 S Main St,Centerville,Ohio,45458-3840,http://www.lock27brewing.com,9374332739,2018-07-24 01:34:01.542168,2018-08-24 15:44:20.296086,United States,-84.1626371,39.6089321,
chagrin-beer-company,Chagrin Beer Company,contract,178 E Washington St,Chagrin Falls,Ohio,44022-2978,,2166451739,2018-07-24 01:34:00.204564,2018-08-24 15:43:36.831823,United States,-81.3851806666667,41.4299972222222,
lucky-owl-brewing,Lucky Owl Brewing,micro,8660 Tamarack Trl,Chagrin Falls,Ohio,44023-1876,http://www.luckyowlbrewing.com,4408363440,2018-07-24 01:34:01.580395,2018-08-11 21:39:00.570144,United States,,,
snow-belt-brew,Snow Belt Brew,micro,9511 Kile Rd,Chardon,Ohio,44024,,,2018-07-24 01:34:02.96263,2018-08-11 21:39:04.438426,United States,,,
christian-moerlein-brewing-co,Christian Moerlein Brewing Co,regional,1621 Moore St,Cincinnati,Ohio,45202-6438,http://www.christianmoerlein.com,5138276025,2018-07-24 01:34:00.218329,2018-08-24 15:43:37.274335,United States,-84.5153343213929,39.113225087534,
fibonacci-brewing-company,Fibonacci Brewing Company,micro,1445 Compton Rd,Cincinnati,Ohio,45231-3559,http://fibbrew.com,5138321422,2018-07-24 01:34:00.702902,2018-08-24 15:43:51.294404,United States,-84.4805528,39.218908,
moerlein-lager-house,Moerlein Lager House,brewpub,115 Joe Nuxhall Way,Cincinnati,Ohio,45202-4143,http://www.moerleinlagerhouse.com,5134212337,2018-07-24 01:34:01.882783,2018-08-24 15:44:30.805489,United States,-84.5087167704914,39.09630095,
tap-and-screw-brewery,Tap and Screw Brewery,brewpub,4721 Red Bank Rd,Cincinnati,Ohio,45277,http://www.tapandscrew.com,5134511763,2018-07-24 01:34:03.152866,2018-08-24 15:45:04.576924,United States,-84.4043431560687,39.158691,
the-woodburn-brewery,The Woodburn Brewery,micro,2800 Woodburn Ave,Cincinnati,Ohio,45206-1793,http://www.woodburnbrewery.com,5132212337,2018-07-24 01:34:03.359807,2018-08-24 15:45:11.146478,United States,-84.4768398,39.1289592,
revel-urban-winery-/-revel-otr,Revel Urban Winery / Revel OTR,brewpub,111 E 12th St,Cincinnati,Ohio,45202,http://www.revelotr.com,5135799463,2018-07-24 01:34:02.656456,2018-08-24 15:44:51.072412,United States,-84.5126641,39.1085275,
brewery-in-planning-cincinnati,Brewery in Planning - Cincinnati,planning,,Cincinnati,Ohio,45245-2833,,5855767169,2018-07-24 01:33:59.808511,2018-08-11 21:38:56.640106,United States,,,
big-ash-brewing-company,Big Ash Brewing Company,planning,,Cincinnati,Ohio,45244-3244,http://www.BigAshBrewing.com,5133079688,2018-07-24 01:33:59.561083,2018-08-11 21:38:55.931453,United States,,,
13-below-brewery,13 Below Brewery,micro,7391 Forbes Rd,Cincinnati,Ohio,45233-1013,http://www.13belowbrewery.com,5139750613,2018-07-24 01:33:59.314406,2018-08-24 15:43:19.853877,United States,-84.7063481503403,39.1263976398717,
bad-tom-smith-brewing,Bad Tom Smith Brewing,micro,4720 Eastern Ave,Cincinnati,Ohio,45226-1893,http://www.badtomsmithbrewing.com,5138714677,2018-07-24 01:33:59.487367,2018-08-24 15:43:24.1367,United States,-84.4180308597704,39.1199575504541,
dead-low-brewing,Dead Low Brewing,planning,,Cincinnati,Ohio,45230,http://www.deadlowbrewing.com,5132909434,2018-07-24 01:34:00.450917,2018-08-11 21:38:57.930295,United States,,,
brink-brewing-company,Brink Brewing Company,micro,5905 Hamilton Ave,Cincinnati,Ohio,45224-3045,http://www.brinkbrewing.com,5138823334,2018-07-24 01:34:00.081341,2018-08-24 15:43:33.335495,United States,-84.545876,39.192788,
fifty-west-brewing-co,Fifty West Brewing Co,brewpub,7668 Wooster Pike,Cincinnati,Ohio,45227-3926,http://www.fiftywestbrew.com,5138348789,2018-07-24 01:34:00.728749,2018-08-24 15:43:52.294529,United States,-84.4134859,39.11952,
fifty-west-brewing-co,Fifty West Brewing Co,micro,7605 Wooster Pike,Cincinnati,Ohio,45227-3925,,5138348789,2018-07-24 01:34:00.740964,2018-08-24 15:43:52.770031,United States,-84.4134859,39.11952,
march-first-brewing,March First Brewing,brewpub,7885 E Kemper Rd,Cincinnati,Ohio,45249-1622,http://www.marchfirstbrewing.com,5135620759,2018-07-24 01:34:01.706411,2018-08-11 21:39:00.942491,United States,,,
mt-carmel-brewing-co,Mt. Carmel Brewing Co,micro,4362 Mount Carmel Tobasco Rd,Cincinnati,Ohio,45244-2338,,5132402739,2018-07-24 01:34:01.936951,2018-08-11 21:39:01.745553,United States,,,
listermann-brewing-company,Listermann Brewing Company,micro,1621 Dana Ave,Cincinnati,Ohio,45207-1007,http://Listermannbrewing.com,5137311130,2018-07-24 01:34:01.474354,2018-08-24 15:44:18.372448,United States,-84.4721318,39.1463506,
madtree-brewing,MadTree Brewing,regional,3301 Madison Rd,Cincinnati,Ohio,45209-1132,http://www.madtreebrewing.com,5138368733,2018-07-24 01:34:01.620397,2018-08-24 15:44:22.2817,United States,-84.4239715,39.1563725,
madtree-brewing-20,MadTree Brewing 2.0,regional,5164 Kennedy Ave,Cincinnati,Ohio,45213,http://www.madtreebrewing.com,5138368733,2018-07-24 01:34:01.634613,2018-08-24 15:44:22.908298,United States,-84.4137736,39.1885752,
queen-city-brewery-of-cincinnati,Queen City Brewery of Cincinnati,micro,11253 Williamson Rd,Cincinnati,Ohio,45241-2230,,,2018-07-24 01:34:02.560741,2018-08-11 21:39:03.343997,United States,,,
rock-bottom-brewery-cincinnati,Rock Bottom Brewery - Cincinnati,brewpub,10 Fountain Square Plz,Cincinnati,Ohio,45202-3102,http://www.rockbottom.com,5136211588,2018-07-24 01:34:02.736765,2018-08-11 21:39:03.734272,United States,,,
nine-giant-brewing,Nine Giant Brewing,brewpub,6095 Montgomery Rd,Cincinnati,Ohio,45213-1617,http://www.ninegiant.com,5133664550,2018-07-24 01:34:02.104946,2018-08-24 15:44:35.554533,United States,-84.4276285,39.1822755,
northern-row-brewery-and-distillery,Northern Row Brewery & Distillery,micro,111 W McMicken Ave,Cincinnati,Ohio,45202-4915,http://www.northernrow.com,5136736689,2018-07-24 01:34:02.164153,2018-08-24 15:44:37.463355,United States,-84.5192446613843,39.1183685524544,
off-track-brewing-company,Off Track Brewing Company,micro,227 Stark Street,Cincinnati,Ohio,45214,http://www.OffTrackBrewingCompany.com,5136044527,2018-07-24 01:34:02.21279,2018-08-24 15:44:38.327505,United States,-84.522243,39.118674,
platform-cincinnati,Platform Cincinnati,micro,916 Dalton Ave,Cincinnati,Ohio,45203,,2162021386,2018-07-24 01:34:02.477607,2018-08-24 15:44:44.886097,United States,-84.5362431006277,39.1059299127606,
rhinegeist-brewery,Rhinegeist Brewery,regional,1910 Elm St,Cincinnati,Ohio,45202-7751,http://www.rhinegeist.com,5133811356,2018-07-24 01:34:02.669437,2018-08-24 15:44:51.54647,United States,-84.5199207586262,39.1172,
streetside-brewery,Streetside Brewery,micro,4003 Eastern Ave,Cincinnati,Ohio,45226-1747,,5136155877,2018-07-24 01:34:03.087474,2018-08-24 15:45:02.322648,United States,-84.4329507755102,39.1091954081633,
tafts-ale-house,Taft's Ale House,micro,1429 Race St,Cincinnati,Ohio,45202-7009,,,2018-07-24 01:34:03.113871,2018-08-24 15:45:03.186364,United States,-84.51750995,39.111325,
tafts-brewing-co,Taft's Brewing Co,brewpub,4831 Spring Grove Ave,Cincinnati,Ohio,45232-1938,,5138535016,2018-07-24 01:34:03.127515,2018-08-24 15:45:03.661057,United States,-84.5127071,39.1681213,
third-eye-brewery,Third Eye Brewery,planning,,Cincinnati,Ohio,45246,http://www.thirdeyebrewingcompany.com,,2018-07-24 01:34:03.373491,2018-08-11 21:39:06.026428,United States,,,
three-points-urban-brewery,Three Points Urban Brewery,micro,331 E 13th St,Cincinnati,Ohio,45202-7307,http://www.3pointsbeer.com,5135555555,2018-07-24 01:34:03.401319,2018-08-24 15:45:12.146503,United States,-84.509442,39.1100908181818,
urban-artifact,Urban Artifact,micro,1660 Blue Rock St,Cincinnati,Ohio,45223-2554,http://www.artifactbeer.com,,2018-07-24 01:34:03.534364,2018-08-24 15:45:17.010506,United States,-84.5419628181115,39.1607827,
west-side-brewing,West Side Brewing,micro,3044 Harrison Ave,Cincinnati,Ohio,45211-5752,http://www.westsidebrewing.com,5136612337,2018-07-24 01:34:03.660472,2018-08-24 15:45:20.433821,United States,-84.598433,39.1489024615385,
wiedemann-brewing-co-llc,"Wiedemann Brewing Co, LLC",micro,4811 Vine St,Cincinnati,Ohio,45217-1217,http://www.wiedemannbeer.com,5138009560,2018-07-24 01:34:03.687475,2018-08-24 15:45:21.541081,United States,-84.4746169,39.2072785,
boston-beer-co-dba-samuel-adams-brewing-co,Boston Beer Co - DBA Samuel Adams Brewing Co,regional,1625 Central Pkwy,Cincinnati,Ohio,45214-2423,http://www.samueladams.com,6173685000,2018-07-24 01:33:59.662095,2018-08-24 15:43:28.521282,United States,-84.5207651,39.11257,
breaking-point-brewery,Breaking Point Brewery,micro,,Cleveland Heights,Ohio,44121-1706,,2162357411,2018-07-24 01:33:59.73521,2018-08-11 21:38:56.433988,United States,,,
the-bottlehouse-brewery-and-meadery,The BottleHouse Brewery And Meadery,micro,2050 Lee Rd,Cleveland Heights,Ohio,44118-2557,http://www.thebottlehousebrewingcompany.com,2162142120,2018-07-24 01:34:03.20506,2018-08-24 15:45:05.986339,United States,-81.5658351,41.503726,
brick-and-barrel,Brick and Barrel,micro,1844 Columbus Rd,Cleveland,Ohio,44113-2412,http://www.brickandbarrelbrewing.com,5039270629,2018-07-24 01:33:59.993098,2018-08-24 15:43:32.373551,United States,-81.7008861,41.4895629,
hofbrauhaus-cleveland-/-cincinatti-restaurant-group,Hofbrauhaus Cleveland / Cincinatti Restaurant Group,brewpub,1550 Chester Ave,Cleveland,Ohio,44114-3615,http://www.hofbrauhauscleveland.com,2166212337,2018-07-24 01:34:01.111774,2018-08-24 15:44:06.085127,United States,-81.6811534444444,41.5031089191919,
nano-brew-cleveland,Nano Brew Cleveland,brewpub,1859 W 25th St,Cleveland,Ohio,44113,http://www.nanobrewcleveland.com,2168626631,2018-07-24 01:34:02.049365,2018-08-24 15:44:34.666352,United States,-81.7045531,41.4860486,
bookhouse-brewing-llc,"Bookhouse Brewing, LLC.",planning,,Cleveland,Ohio,44113-3104,http://www.bookhouse.beer,4144264555,2018-07-24 01:33:59.635008,2018-08-11 21:38:56.174504,United States,,,
bad-tom-smith-brewing,Bad Tom Smith Brewing,brewpub,1836 W 25th St,Cleveland,Ohio,44113-3142,,,2018-07-24 01:33:59.472992,2018-08-24 15:43:23.67068,United States,-81.7051638,41.4861772,
boss-dog-brewing,Boss Dog Brewing,brewpub,2179 Lee Rd,Cleveland,Ohio,44118-2907,http://www.bossdogbrewing.com,2163212337,2018-07-24 01:33:59.648557,2018-08-24 15:43:28.002138,United States,-81.5652955454545,41.5003064545455,
earlybird-brewing-company,Earlybird Brewing Company,contract,737 Bolivar Rd Ste 4100,Cleveland,Ohio,44115-1259,http://www.earlybirdbrewing.com,,2018-07-24 01:34:00.550171,2018-08-11 21:38:58.131671,United States,,,
cleveland-brewing-company-butcher-and-the-brewer,Cleveland Brewing Company @ Butcher and The Brewer,brewpub,2043 E 4th St,Cleveland,Ohio,44115-1023,,,2018-07-24 01:34:00.244073,2018-08-24 15:43:38.200119,United States,-81.690036,41.4991502,
collision-bend-brewing-co,Collision Bend Brewing Co,brewpub,1250 Old River Rd,Cleveland,Ohio,44113-1243,http://www.collisionbendbrewery.com,2162737879,2018-07-24 01:34:00.272554,2018-08-24 15:43:39.140912,United States,-81.703971902824,41.4988482948004,
forest-city-brewery,Forest City Brewery,brewpub,2135 Columbus Rd Ste A,Cleveland,Ohio,44113-4243,http://www.forestcitybrewery.com,,2018-07-24 01:34:00.789864,2018-08-11 21:38:58.641991,United States,,,
goldhorn-brewery,Goldhorn Brewery,brewpub,1361 E 55th St,Cleveland,Ohio,44103-1301,,,2018-07-24 01:34:00.857569,2018-08-24 15:43:56.793986,United States,-81.6516143,41.5214479,
granite-city-food-and-brewery,Granite City Food & Brewery,brewpub,24519 Cedar Rd,Cleveland,Ohio,44124-3780,,,2018-07-24 01:34:00.909133,2018-08-24 15:43:58.715607,United States,-81.5040317990171,41.5033931,
great-lakes-brewing-co,Great Lakes Brewing Co,brewpub,2516 Market Ave,Cleveland,Ohio,44113-3434,http://www.greatlakesbrewing.com,,2018-07-24 01:34:00.960003,2018-08-24 15:44:00.888632,United States,-81.7044266,41.4844172,
great-lakes-brewing-co,Great Lakes Brewing Co,regional,1947 W 28th St,Cleveland,Ohio,44113-3422,http://www.greatlakesbrewing.com,2167714404,2018-07-24 01:34:00.974065,2018-08-24 15:44:01.374642,United States,-81.705711125,41.484058025,
gypsy-brewery,Gypsy Brewery,micro,3506 Vega Ave,Cleveland,Ohio,44113-4900,,,2018-07-24 01:34:01.000137,2018-08-24 15:44:01.842333,United States,-81.7078548787879,41.4744919393939,
hansa-brewery,Hansa Brewery,brewpub,2717 Lorain Ave,Cleveland,Ohio,44113-3414,http://www.hansabrewery.com,2166316585,2018-07-24 01:34:01.028666,2018-08-24 15:44:02.87467,United States,-81.7047913939394,41.4834420707071,
market-garden-brewery,Market Garden Brewery,micro,1947 W 25th St,Cleveland,Ohio,44113-3418,http://www.marketgardenbrewery.com,2166214000,2018-07-24 01:34:01.733855,2018-08-24 15:44:26.350725,United States,-81.7036495,41.4848964,
market-garden-brewery,Market Garden Brewery,micro,1849 W 24th St,Cleveland,Ohio,44113,,2166214000,2018-07-24 01:34:01.746488,2018-08-24 15:44:26.77996,United States,-81.7027281463415,41.4857374634146,
masthead-brewing-co,Masthead Brewing Co,brewpub,1261 Superior Ave E,Cleveland,Ohio,44114-3204,http://www.mastheadbrewingco.com,4192604770,2018-07-24 01:34:01.759648,2018-08-24 15:44:27.21835,United States,-81.6853889,41.5041432,
noble-beast-brewing-co,Noble Beast Brewing Co.,brewpub,1470 Lakeside Ave E,Cleveland,Ohio,44114-1137,http://noblebeastbeer.com,7175859216,2018-07-24 01:34:02.122757,2018-08-24 15:44:36.014256,United States,-81.6869233422819,41.5076810738255,
platform-beer-co,Platform Beer Co,regional,4125 Lorain Ave,Cleveland,Ohio,44113-3718,http://platformbeer.co,2162021386,2018-07-24 01:34:02.434872,2018-08-24 15:44:43.506319,United States,-81.7140045,41.4799605,
platform-beer-co-production-facility,Platform Beer Co - Production Facility,micro,3506 Vega Ave,Cleveland,Ohio,44113-4900,http://www.platformbeer.co,,2018-07-24 01:34:02.449164,2018-08-24 15:44:43.918825,United States,-81.7078548787879,41.4744919393939,
southern-tier-brewing-co,Southern Tier Brewing Co,planning,,Cleveland,Ohio,44115-1111,,,2018-07-24 01:34:03.003749,2018-08-11 21:39:04.634142,United States,,,
saucy-brew-works,Saucy Brew Works,brewpub,2885 Detroit Ave,Cleveland,Ohio,44113-2765,http://www.saucybrewworks.com,2166662568,2018-07-24 01:34:02.872046,2018-08-24 15:44:56.596325,United States,-81.7105691,41.4894793,
terrestrial-brewing-company,Terrestrial Brewing Company,micro,7524 Father Frascati Dr,Cleveland,Ohio,44102-2087,,2164659999,2018-07-24 01:34:03.180011,2018-08-24 15:45:05.546287,United States,-81.7361552,41.4869219,
the-cleveland-brewery,The Cleveland Brewery,micro,777 E 185th St,Cleveland,Ohio,44119-2170,http://Www.facebook.com/216brew,2165346992,2018-07-24 01:34:03.268807,2018-08-24 15:45:08.304212,United States,-81.549766,41.586428,
the-jolly-scholar,The Jolly Scholar,brewpub,11111 Euclid Ave,Cleveland,Ohio,44106-1715,http://www.thejollyscholar.com,2163680090,2018-07-24 01:34:03.294506,2018-08-24 15:45:08.800982,United States,-81.6083649792596,41.5074076,
west-east-brewing-co,West East Brewing Co,contract,4125 Lorain Ave,Cleveland,Ohio,44113-3718,,2162021386,2018-07-24 01:34:03.644649,2018-08-24 15:45:19.966285,United States,-81.7140045,41.4799605,
working-class-brewery,Working Class Brewery,micro,17448 Lorain Ave,Cleveland,Ohio,44111-4028,http://www.workingclassbrewery.com,2164175112,2018-07-24 01:34:03.752449,2018-08-24 15:45:23.98969,United States,-81.820461,41.44993,
tailspin-brewing-co,Tailspin Brewing Co,micro,626 S 2nd St,Coldwater,Ohio,45828-9603,http://Www.TailspinBrewing.co,4198529366,2018-07-24 01:34:03.13966,2018-08-24 15:45:04.105017,United States,-84.6288605,40.4731640714286,
birdfish-brewing-co,BirdFish Brewing Co,micro,16 S Main St,Columbiana,Ohio,44408-1348,http://www.birdfishbrew.com,3303339385,2018-07-24 01:33:59.587787,2018-08-24 15:43:26.570254,United States,-80.6935303590754,40.8884869995027,
barleys-brewing-company-ale-house-no-1,Barley's Brewing Company (Ale House No. 1),brewpub,467 N High St,Columbus,Ohio,43215-2007,http://www.barleysbrewing.com,6142282537,2018-07-24 01:33:59.536265,2018-08-24 15:43:25.107046,United States,-83.0027669,39.9719408,
knotty-pine-brewing,Knotty Pine Brewing,brewpub,1765 W 3rd Ave,Columbus,Ohio,43212-2769,http://www.knottypinebrewing.net,6148171515,2018-07-24 01:34:01.349603,2018-08-24 15:44:14.258719,United States,-83.0529324,39.9852813,
random-precision-brewing-company,Random Precision Brewing Company,micro,2365 W Dublin Granville Rd,Columbus,Ohio,43235-2700,http://www.randomprecisionbrewing.com,6143893864,2018-07-24 01:34:02.629015,2018-08-24 15:44:50.093664,United States,-83.05232,40.090144,
hoof-hearted-brewing-brewery-and-kitchen,Hoof Hearted Brewing - Brewery and Kitchen,brewpub,850 N 4th St,Columbus,Ohio,43215-1845,,6144014033,2018-07-24 01:34:01.164692,2018-08-11 21:38:59.473715,United States,,,
actual-brewing-company-llc,"Actual Brewing Company, LLC",micro,655 N James Rd,Columbus,Ohio,43219-1837,http://wwww.actualbeer.com,6146363825,2018-07-24 01:33:59.39476,2018-08-24 15:43:21.512918,United States,-82.9080986,39.9868523,
anheuser-busch-inc-a-columbus,Anheuser-Busch Inc â Columbus,large,700 Schrock Rd,Columbus,Ohio,43229-1123,,6148886644,2018-07-24 01:33:59.446106,2018-08-24 15:43:22.613628,United States,-82.99307,40.102197,
brewery-in-planning-worthington-oh,"Brewery In Planning - Worthington, OH.",planning,,Columbus,Ohio,43085,,,2018-07-24 01:33:59.980433,2018-08-11 21:38:57.061119,United States,,,
elevator-brewing-co-production-facility,Elevator Brewing Co - Production facility,micro,165 N 4th St,Columbus,Ohio,43215-2906,http://elevatorbrewery.com,6146792337,2018-07-24 01:34:00.595501,2018-08-11 21:38:58.225583,United States,,,
columbus-brewing-co,Columbus Brewing Co,regional,2555 Harrison Rd,Columbus,Ohio,43204-3511,http://www.columbusbrewing.com,6142243626,2018-07-24 01:34:00.308372,2018-08-24 15:43:39.577231,United States,-83.0692897,39.9675898,
commonhouse-ales,Commonhouse Ales,micro,535 Short St,Columbus,Ohio,43215-5614,http://www.commonhouseales.com,6142530272,2018-07-24 01:34:00.335339,2018-08-24 15:43:40.493592,United States,-83.0036774052528,39.9504533390161,
elevator-brewery-and-draught-haus,Elevator Brewery and Draught Haus,brewpub,161 N High St,Columbus,Ohio,43215-2402,http://www.elevatorbrewing.com,6142280500,2018-07-24 01:34:00.578448,2018-08-24 15:43:48.045781,United States,-83.0017892,39.9656697,
endeavor-brewing-company,Endeavor Brewing Company,micro,909 W 5th Ave,Columbus,Ohio,43212,http://www.endeavorbrewingco.com,6144567074,2018-07-24 01:34:00.610939,2018-08-24 15:43:49.009572,United States,-83.030429,39.988002,
four-string-brewing-company-west-side-production-facility,Four String Brewing Company - West Side Production Facility,micro,660 N Hague Ave,Columbus,Ohio,43204-,,6147251282,2018-07-24 01:34:00.815449,2018-08-11 21:38:58.704862,United States,,,
kindred-beer,Kindred Beer,micro,750 Cross Pointe Rd Unit I and J,Columbus,Ohio,43230,http://www.kindredbeer.com,6146264341,2018-07-24 01:34:01.335856,2018-08-11 21:38:59.878351,United States,,,
four-string-brewing-company,Four String Brewing Company,micro,985 W 6th Ave,Columbus,Ohio,43212-2601,http://www.fourstringbrewing.com,6147251282,2018-07-24 01:34:00.802432,2018-08-24 15:43:55.004169,United States,-83.0327994285714,39.9890465714286,
hofbrauhaus-columbus,Hofbrauhaus Columbus,brewpub,800 Goodale Blvd,Columbus,Ohio,43212-3825,http://www.hofbrauhauscolumbus.com,6142942437,2018-07-24 01:34:01.124569,2018-08-24 15:44:06.5884,United States,-83.025737,39.974313,
hoster-brewing-co,Hoster Brewing Co,contract,760 Harmon Ave,Columbus,Ohio,43223,http://www.hosterbeer.com,6142213606,2018-07-24 01:34:01.204568,2018-08-24 15:44:09.545882,United States,-83.0161537324999,39.9444086863438,
land-grant-brewing-company,Land-Grant Brewing Company,micro,424 W Town St,Columbus,Ohio,43215-4040,http://www.landgrantbrewing.com,2169562634,2018-07-24 01:34:01.408111,2018-08-24 15:44:16.386244,United States,-83.0115076283597,39.95787195,
lineage-brewing,Lineage Brewing,brewpub,2971 N High St,Columbus,Ohio,43202,http://www.lineagebrew.com,6144613622,2018-07-24 01:34:01.459766,2018-08-24 15:44:17.860452,United States,-83.01413155,40.0225652,
permission-brewing-company,Permission Brewing Company,planning,,Columbus,Ohio,43004,http://Www.permissionbrewing.com,6143530762,2018-07-24 01:34:02.395445,2018-08-11 21:39:02.906489,United States,,,
platform-beer-co-taproom,Platform Beer Co Taproom,micro,408 N 6th St,Columbus,Ohio,43215-2137,http://www.platformbeer.co,6148262285,2018-07-24 01:34:02.46381,2018-08-11 21:39:03.103249,United States,,,
north-high-brewing,North High Brewing,micro,1125 Cleveland Ave,Columbus,Ohio,43201-2900,http://www.northhighbrewing.com,6142263244,2018-07-24 01:34:02.150095,2018-08-24 15:44:37.037024,United States,-82.982658,39.992787,
pretentious-barrel-house,Pretentious Barrel House,micro,745 Taylor Ave,Columbus,Ohio,43219-2526,http://www.pretentiousbarrelhouse.com,6148877687,2018-07-24 01:34:02.505851,2018-08-24 15:44:45.806979,United States,-82.960769,39.981855,
seventh-son-brewing-co,Seventh Son Brewing Co,micro,1101 N 4th St,Columbus,Ohio,43201-3683,http://www.seventhsonbrewing.com,6144212337,2018-07-24 01:34:02.884789,2018-08-11 21:39:04.173756,United States,,,
sideswipe-brewing,Sideswipe Brewing,micro,2419 Scioto Harper Dr,Columbus,Ohio,43204-3420,http://www.sideswipebrewing.com,6147199654,2018-07-24 01:34:02.923713,2018-08-24 15:44:58.409261,United States,-83.0662676671791,39.9672375080153,
smokehouse-brewing,Smokehouse Brewing,brewpub,1130 Dublin Rd,Columbus,Ohio,43215-1039,http://www.smokehousebrewing.com,6144850227,2018-07-24 01:34:02.949419,2018-08-24 15:44:59.423524,United States,-83.047935,39.973715,
the-brew-brothers-/-scioto-downs-racino,The Brew Brothers / Scioto Downs Racino,brewpub,6000 S. High Street,Columbus,Ohio,43207,,,2018-07-24 01:34:03.217409,2018-08-24 15:45:06.485592,United States,-82.995426,39.922819,
zaftig-brewing-co,Zaftig Brewing Co.,micro,7020 Huntley Rd Ste A,Columbus,Ohio,43229-1050,http://www.drinkzaftig.com,6146362537,2018-07-24 01:34:03.790161,2018-08-11 21:39:07.221619,United States,,,
wolfs-ridge-brewing,Wolf's Ridge Brewing,micro,215 N 4th St,Columbus,Ohio,43215-2510,http://www.wolfsridgebrewing.com,6144293936,2018-07-24 01:34:03.725244,2018-08-24 15:45:23.060824,United States,-82.9951795344828,39.9577586034483,
gordon-biersch-brewery-restaurant-columbus,Gordon Biersch Brewery Restaurant - Columbus,brewpub,401 N Front St Ste 120,Columbus,Ohio,43215-8200,http://www.gordonbiersch.com/restaurant,6142462900,2018-07-24 01:34:00.869892,2018-08-11 21:38:58.821695,United States,,,
hasseman-brewing,Hasseman Brewing,micro,115 S 6th St,Coshocton,Ohio,43812-1625,http://www.hassemanbrewing.com,7402941364,2018-07-24 01:34:01.044087,2018-08-24 15:44:03.442905,United States,-81.8617655714286,40.2723994285714,
brewery-in-planning-cuyahoga-falls,Brewery in Planning - Cuyahoga Falls,planning,,Cuyahoga Falls,Ohio,44221-2946,,,2018-07-24 01:33:59.827543,2018-08-11 21:38:56.672083,United States,,,
hiho-brewing-co,HiHO Brewing Co,brewpub,1707 Front St,Cuyahoga Falls,Ohio,44221-4711,http://www.hihobrewingco.com,2343347564,2018-07-24 01:34:01.098762,2018-08-24 15:44:05.605797,United States,-81.4853611797515,41.1281350246101,
mcarthurs-brew-house,McArthur's Brew House,micro,2721 Front St,Cuyahoga Falls,Ohio,44221-1904,http://www.mcarthursbrewhouse.com,3308054600,2018-07-24 01:34:01.786255,2018-08-24 15:44:28.115256,United States,-81.4723705789474,41.1461834736842,
missing-mountain-brewing-company,Missing Mountain Brewing Company,brewpub,2811 Front St,Cuyahoga Falls,Ohio,44262,http://www.missingmountain.com,,2018-07-24 01:34:01.841784,2018-08-24 15:44:29.488872,United States,-81.4692809652492,41.148384529808,
ohio-brewing-company,Ohio Brewing Company,micro,2250 Front St,Cuyahoga Falls,Ohio,44221-2510,http://www.ohiobrewing.com,2342086243,2018-07-24 01:34:02.226279,2018-08-24 15:44:38.781805,United States,-81.4748217,41.1444116,
dayton-beer-co-production-brewery-and-bierhall,Dayton Beer Co Production Brewery & Bierhall,micro,41 Madison St,Dayton,Ohio,45402-2105,http://www.thedaytonbeerco.com,9372282337,2018-07-24 01:34:00.437854,2018-08-24 15:43:43.518954,United States,-84.1852886764706,39.7622667647059,
branch-and-bone-artisan-ales,Branch & Bone Artisan Ales,micro,905 Wayne Ave,Dayton,Ohio,45410-1247,http://www.branchandboneales.com,9377237608,2018-07-24 01:33:59.703133,2018-08-24 15:43:30.0134,United States,-84.1772341867514,39.7522308470898,
carillon-brewing-company,Carillon Brewing Company,brewpub,1000 Carillon Blvd,Dayton,Ohio,45409-2023,http://www.carillonbrewingco.org,9372932841,2018-07-24 01:34:00.172995,2018-08-24 15:43:35.87686,United States,-84.20121,39.730102,
eudora-brewing-co,Eudora Brewing Co,micro,4716 Wilmington Pike,Dayton,Ohio,45440-2021,http://www.eudorabrewing.com,9377236863,2018-07-24 01:34:00.639595,2018-08-24 15:43:49.484029,United States,-84.162271,39.735916,
fifth-street-brewpub,Fifth Street Brewpub,brewpub,1600 E 5th St,Dayton,Ohio,45403-2304,http://Fifthstreetbrewpub.coop,9374430919,2018-07-24 01:34:00.715688,2018-08-24 15:43:51.803202,United States,-84.1881863,39.7572259,
lock-27-brewing,Lock 27 Brewing,brewpub,329 E 1st St,Dayton,Ohio,45402-1705,http://www.lock27brewing.com,9374332739,2018-07-24 01:34:01.528732,2018-08-24 15:44:19.833247,United States,-84.1869352943494,39.7633200283236,
nowhere-in-particular-brewing-company,Nowhere In Particular Brewing Company,proprietor,6826 Loop Rd,Dayton,Ohio,45459-2159,http://www.nipbrewco.com,5133487282,2018-07-24 01:34:02.179093,2018-08-11 21:39:02.309793,United States,,,
warped-wing-brewing-co,Warped Wing Brewing Co,micro,26 Wyandot St,Dayton,Ohio,45402-2145,http://www.warpedwing.com,9372227003,2018-07-24 01:34:03.617226,2018-08-11 21:39:06.759333,United States,,,
toxic-brew-company,Toxic Brew Company,brewpub,431 E 5th St,Dayton,Ohio,45402-2911,http://www.toxicbrewcompany.com,9379853618,2018-07-24 01:34:03.428605,2018-08-24 15:45:13.057473,United States,-84.1843655035001,39.7572488739183,
4kd-crick-brewery,4kd Crick Brewery,brewpub,211 Carpenter Rd,Defiance,Ohio,43512-1718,http://Www.4kdcrickbrewery.com,4199562863,2018-07-24 01:33:59.379617,2018-08-24 15:43:20.950956,United States,-84.341647,41.296252,
staas-brewing-company,Staas Brewing Company,micro,31 W Winter St,Delaware,Ohio,43015-1948,http://www.staasbrewing.com,7404174690,2018-07-24 01:34:03.049868,2018-08-24 15:45:01.241487,United States,-83.069285,40.300173,
restoration-brew-worx,Restoration Brew Worx,brewpub,25 N Sandusky St,Delaware,Ohio,43015-1901,http://www.restorationbrewworx.com,,2018-07-24 01:34:02.643689,2018-08-24 15:44:50.593253,United States,-83.0677272040816,40.3005620204082,
brewery-in-planning-dublin,Brewery in Planning - Dublin,planning,,Dublin,Ohio,43016-8696,,8152366393,2018-07-24 01:33:59.840997,2018-08-11 21:38:56.714016,United States,,,
franklin-brewing-co,Franklin Brewing Co,micro,1345 East Ave,Elyria,Ohio,44035-7681,,,2018-07-24 01:34:00.830431,2018-08-24 15:43:55.892933,United States,-82.1004199230769,41.3503449487179,
swine-city-brewing-company,Swine City Brewing Company,micro,4614 Industry Dr,Fairfield,Ohio,45014-1923,http://www.swinecitybrewing.com,7045601214,2018-07-24 01:34:03.101287,2018-08-24 15:45:02.73968,United States,-84.5310617847279,39.3489541799819,
findlay-brewing-co,Findlay Brewing Co.,micro,213 E. Crawford St.,Findlay,Ohio,45840,http://www.findlaybrewingcompany.com,4197227395,2018-07-24 01:34:00.765368,2018-08-24 15:43:53.656472,United States,-83.6481739387755,41.0376755306122,
wooly-pig-farm-brewery,Wooly Pig Farm Brewery,micro,23631 Township Road 167,Fresno,Ohio,43824-9704,http://www.woolypigfarmbrewery.com,7406935050,2018-07-24 01:34:03.738089,2018-08-24 15:45:23.502585,United States,-81.7357237229063,40.2914143959077,
pigskin-brewing-company,Pigskin Brewing Company,brewpub,81 Mill St Ste 150,Gahanna,Ohio,43230-1718,,6149449311,2018-07-24 01:34:02.407928,2018-08-11 21:39:02.940371,United States,,,
gotl-brewing-co,GOTL Brewing Co,brewpub,5243 Lake Rd E,Geneva,Ohio,44041-9433,http://www.gotlbrewing.com,4403614864,2018-07-24 01:34:00.883277,2018-08-24 15:43:57.754375,United States,-80.9443411428571,41.8612053571429,
virant-family-winery-/-black-angus-brewery,Virant Family Winery / Black Angus Brewery,micro,541 Atkins Rd,Geneva,Ohio,44041,http://www.virantfamilywinery.com,4404666279,2018-07-24 01:34:03.575268,2018-08-11 21:39:06.638541,United States,,,
neon-groundhog-brewery-majestic-oak-winery,Neon Groundhog Brewery - Majestic Oak Winery,micro,13554 Mohler Rd,Grand Rapids,Ohio,43522-9648,http://www.majesticoakwinery.com,4198756474,2018-07-24 01:34:02.078563,2018-08-11 21:39:01.99807,United States,,,
wild-side-brewing-company,Wild Side Brewing Company,micro,24194 Front St,Grand Rapids,Ohio,43522,http://www.wildsidebrewing.com,4193892776,2018-07-24 01:34:03.699779,2018-08-24 15:45:22.079663,United States,-83.8673138450704,41.4125325915493,
granville-brewing-company,Granville Brewing Company,micro,5371 Columbus Rd,Granville,Ohio,43023-9192,http://www.granvillewbrewing.com,,2018-07-24 01:34:00.934617,2018-08-24 15:43:59.706732,United States,-82.5886160260201,40.0352737879005,
three-tigers-brewing-company,Three Tigers Brewing Company,brewpub,140 N Prospect St,Granville,Ohio,43023-1337,http://www.threetigersbrewing.com,7409204680,2018-07-24 01:34:03.414924,2018-08-24 15:45:12.602109,United States,-82.5182671257866,40.0683988595088,
grove-city-brewing-company,Grove City Brewing Company,brewpub,3946 Broadway,Grove City,Ohio,43123-2623,http://www.grovecitybrewingcompany.com,6149910338,2018-07-24 01:34:00.987158,2018-08-11 21:38:59.080123,United States,,,
municipal-brew-works,Municipal Brew Works,micro,20 High St,Hamilton,Ohio,45011-2709,http://municipalbrewworks.com,5136422424,2018-07-24 01:34:01.982802,2018-08-24 15:44:33.605914,United States,-84.5638199,39.4009136,
quarter-barrel-brewery-and-pub,Quarter Barrel Brewery and Pub,brewpub,103 Main St,Hamilton,Ohio,45013,,5135552525,2018-07-24 01:34:02.54607,2018-08-24 15:44:47.286601,United States,-84.3556606,39.1246414,
maize-valley-craft-brewery,Maize Valley Craft Brewery,brewpub,6193 Edison St NE,Hartville,Ohio,44632-9326,http://www.maizevalley.com,3308778344,2018-07-24 01:34:01.678577,2018-08-24 15:44:24.353876,United States,-81.2781363777854,40.9534088842131,
homestead-beer-co,Homestead Beer Co.,micro,811 Irving Wick Dr W,Heath,Ohio,43056-1199,http://www.homesteadbeerco.com,7405228018,2018-07-24 01:34:01.137556,2018-08-24 15:44:07.092529,United States,-82.4738071904762,40.0249478095238,
two-bandits-brewing-company,Two Bandits Brewing Company,brewpub,106 E High St,Hicksville,Ohio,43526,,4195421087,2018-07-24 01:34:03.479882,2018-08-24 15:45:14.982938,United States,-84.7617010816327,41.2936116326531,
brewery-in-planning-pensacola,Brewery In Planning - Pensacola,planning,,Hilliard,Ohio,43026-7511,,,2018-07-24 01:33:59.897948,2018-08-11 21:38:56.862677,United States,,,
the-blue-heron-brewery,The Blue Heron Brewery,planning,,Hinckley,Ohio,44233,http://www.bookblueheron.com,,2018-07-24 01:34:03.192607,2018-08-11 21:39:05.274853,United States,,,
black-frog-brewing-co,Black Frog Brewing Co,micro,831 S McCord Rd,Holland,Ohio,43528-8746,http://www.blackfrogbrewery.com,4193897136,2018-07-24 01:33:59.619904,2018-08-24 15:43:27.53047,United States,-83.7032185,41.6171284,
alematic-artisan-ales,Alematic Artisan Ales,planning,,Huber Heights,Ohio,45424-3857,http://www.alematicbrewing.com,9376122337,2018-07-24 01:33:59.421849,2018-08-11 21:38:55.598197,United States,,,
hop-tree-brewing-company-ltd,Hop Tree Brewing Company Ltd,brewpub,1297 Hudson Gate Dr,Hudson,Ohio,44236-3764,http://www.hoptreebrewing.com,3303420060,2018-07-24 01:34:01.179083,2018-08-24 15:44:08.582497,United States,-81.4451820505962,41.20893905,
paradune-brewing,Paradune Brewing,micro,10551 1/2 County Rd 286,Huntsville,Ohio,43324,,,2018-07-24 01:34:02.31899,2018-08-11 21:39:02.770843,United States,,,
sixth-sense-brewing-company,Sixth Sense Brewing Company,micro,175 Main St.,Jackson,Ohio,45640,http://www.sixthsensebrewing.com,7405773681,2018-07-24 01:34:02.936537,2018-08-24 15:44:58.974477,United States,-82.6387643333333,39.0532398888889,
madcap-brew-co,Madcap Brew Co.,micro,1422 Mogadore Rd,Kent,Ohio,44240-7536,,3305489654,2018-07-24 01:34:01.607767,2018-08-24 15:44:21.826119,United States,-81.372012,41.139183,
lil-paws-winery,Lil Paws Winery,micro,17574-A Mahoning Ave,Lake Milton,Ohio,44429-9583,http://www.lilpawswinery.com,3309709463,2018-07-24 01:34:01.446673,2018-08-11 21:39:00.222448,United States,,,
bottlehouse-brewery,BottleHouse Brewery,micro,13368 Madison Ave,Lakewood,Ohio,44107-4840,http://www.thebottlehousebrewingcompany.com,2162142120,2018-07-24 01:33:59.675448,2018-08-24 15:43:28.982988,United States,-81.7844570504357,41.47721765,
buckeye-beer-engine,Buckeye Beer Engine,brewpub,15315 Madison Ave,Lakewood,Ohio,44107-4020,http://www.buckeyebeerengine.com,2162262337,2018-07-24 01:34:00.110184,2018-08-24 15:43:33.862777,United States,-81.803918,41.477245,
pedestrian-brewing,Pedestrian Brewing,planning,,Lakewood,Ohio,44107-3309,http://pedestrian.beer,2162620740,2018-07-24 01:34:02.383463,2018-08-11 21:39:02.874165,United States,,,
double-edge-brewing-co,Double Edge Brewing Co,micro,158 W Chestnut St,Lancaster,Ohio,43130-4308,http://www.double-edge.beer,7402777465,2018-07-24 01:34:00.508397,2018-08-24 15:43:45.629197,United States,-82.6042529,39.7123647,
mosaic-brewing,Mosaic Brewing,planning,,Lancaster,Ohio,43130-4308,http://www.double.edge.beer,6149402500,2018-07-24 01:34:01.909991,2018-08-11 21:39:01.657933,United States,,,
rockmill-brewing-co,Rockmill Brewing Co,micro,5705 Lithopolis Rd NW,Lancaster,Ohio,43130-9515,http://www.rockmillbrewery.com,7402058076,2018-07-24 01:34:02.752955,2018-08-11 21:39:03.765795,United States,,,
numbers-brewing-company,Numbers Brewing Company,brewpub,127 N Beaver St,Lisbon,Ohio,44432-1121,,3308705305,2018-07-24 01:34:02.192847,2018-08-24 15:44:37.896269,United States,-80.7697013842693,40.7725335728921,
brewery-in-planning-lockland,Brewery in Planning - Lockland,planning,,Lockland,Ohio,45215-4548,,,2018-07-24 01:33:59.855357,2018-08-11 21:38:56.750401,United States,,,
brewery-33-hocking-hills-llc,"Brewery 33 Hocking Hills, LLC",micro,12684 College Prospect Dr,Logan,Ohio,43138-8983,,,2018-07-24 01:33:59.776938,2018-08-24 15:43:31.903553,United States,-82.4499156473896,39.5437818471703,
bascule-brewery-and-public-house,Bascule Brewery And Public House,micro,1397 Colorado Ave,Lorain,Ohio,44052-3377,http://www.basculebrewingcompany.com,,2018-07-24 01:33:59.548485,2018-08-24 15:43:25.54014,United States,-82.15710792,41.46560548,
narrow-path-brewing-company,Narrow Path Brewing Company,micro,106 Karl Brown Way,Loveland,Ohio,45140-2902,http://www.narrowpathbrewing.com,5133123414,2018-07-24 01:34:02.065035,2018-08-11 21:39:01.962364,United States,,,
cornerstone-brewing-co,Cornerstone Brewing Co,brewpub,70 W  Main St,Madison,Ohio,44057-3126,,4402399820,2018-07-24 01:34:00.361282,2018-08-24 15:43:41.540723,United States,-81.0481406638583,41.7713699430323,
double-wing-brewing-co,Double Wing Brewing Co,brewpub,7840 Doty Rd,Madison,Ohio,44057-9511,http://www.ratbrew.com,4404663485,2018-07-24 01:34:00.523442,2018-08-24 15:43:46.08414,United States,-81.0053790162622,41.7403730920009,
sonder-brewing,Sonder Brewing,planning,,Maineville,Ohio,45039-8103,http://www.sonderbrewery.com,6303473323,2018-07-24 01:34:02.976313,2018-08-11 21:39:04.502588,United States,,,
the-phoenix-brewing-company,The Phoenix Brewing Company,micro,131 N Diamond St,Mansfield,Ohio,44902-1331,http://www.phoenixbrewing.com,4195222552,2018-07-24 01:34:03.333563,2018-08-24 15:45:10.239327,United States,-82.513951877551,40.7620183673469,
laxton-hollow-brewing-works,Laxton Hollow Brewing Works,micro,302 E Main St,Mansfield,Ohio,44904-1300,http://www.laxtonhollow.com,4195252842,2018-07-24 01:34:01.421064,2018-08-11 21:39:00.148681,United States,,,
hoof-hearted-brewing,Hoof Hearted Brewing,micro,300 County Road 26,Marengo,Ohio,43334-9678,http://www.hoofheartedbrewing.com,5672333115,2018-07-24 01:34:01.151369,2018-08-11 21:38:59.446265,United States,,,
moeller-brew-barn,Moeller Brew Barn,micro,8016 Marion Dr,Maria Stein,Ohio,45860-8706,http://www.moellerbrewbarn.com,4199253005,2018-07-24 01:34:01.86912,2018-08-24 15:44:30.369841,United States,-84.49312675,40.4214478333333,
marietta-brewing-co,Marietta Brewing Co,brewpub,167 Front St,Marietta,Ohio,45750-3125,http://www.mariettabrewingcompany.com,7403732739,2018-07-24 01:34:01.721163,2018-08-24 15:44:25.825116,United States,-81.4533999253708,39.4118463474054,
twentynine-brewpub,TwentyNine Brewpub,brewpub,1775 Marion-Waldo Rd,Marion,Ohio,43302,,7407514586,2018-07-24 01:34:03.45405,2018-08-24 15:45:13.926962,United States,-83.1163532990739,40.5550920372396,
dalton-union-winery-and-brewery,Dalton Union Winery & Brewery,micro,2110 Shirk Rd,Marysville,Ohio,43040,http://www.daltonunion.com,9373193667,2018-07-24 01:34:00.409523,2018-08-11 21:38:57.834395,United States,,,
16-lots-brewing,16 Lots Brewing,brewpub,753 Reading Rd,Mason,Ohio,45040-1303,http://www.16lots.com,5134863672,2018-07-24 01:33:59.340292,2018-08-24 15:43:20.466284,United States,-84.3183801,39.3545967,
the-common-beer-company,The Common Beer Company,planning,,Mason,Ohio,45040,https://commonbeercompany.com/,5136580170,2018-07-24 01:34:03.281111,2018-08-11 21:39:05.678355,United States,,,
paradigm-shift-brewing,Paradigm Shift Brewing,micro,128 North Ave NE,Massillon,Ohio,44646-5526,http://www.paradigmshiftbrew.com,3308800008,2018-07-24 01:34:02.306146,2018-08-24 15:44:40.762137,United States,-81.5218392857143,40.7986581428571,
royal-docks-brewhouse-and-cannery,Royal Docks Brewhouse and Cannery,micro,5646 Wales Ave NW,Massillon,Ohio,44646,,,2018-07-24 01:34:02.821,2018-08-24 15:44:55.288209,United States,-81.498326,40.844016,
granite-city-food-and-brewery-#25,Granite City Food & Brewery (#25),brewpub,2300 Village Dr W,Maumee,Ohio,43537-7550,http://www.gcfb.net,4198789050,2018-07-24 01:34:00.921702,2018-08-11 21:38:58.931637,United States,,,
lager-heads-brewing-co,Lager Heads Brewing Co.,micro,325 W Smith Rd,Medina,Ohio,44256-2352,http://www.lagerheads.us,3307212337,2018-07-24 01:34:01.362921,2018-08-24 15:44:14.713552,United States,-81.8684437878401,41.1363337718929,
lager-heads-smokehouse,Lager Heads Smokehouse,brewpub,2832 Abbeyville Rd,Medina,Ohio,44256,,3307251947,2018-07-24 01:34:01.375978,2018-08-24 15:44:15.205879,United States,-81.8875505358769,41.1998060514877,
pinups-and-pints,Pinups & Pints,micro,10963 Lower Valley Pike,Medway,Ohio,45341-9706,http://www.pinupsandpints.com,9378491400,2018-07-24 01:34:02.420752,2018-08-24 15:44:43.086987,United States,-84.045082,39.860912,
cle-brewing,CLE Brewing,micro,9431 Mercantile Dr,Mentor,Ohio,44060,http://www.smarterbrewing.com,4405278330,2018-07-24 01:34:00.231645,2018-08-24 15:43:37.726041,United States,-81.3064457271104,41.6962288733784,
the-brew-mentor,The Brew Mentor,micro,9528 Diamond Centre Dr,Mentor,Ohio,44060-1876,http://www.thebrewmentor.com,4409512739,2018-07-24 01:34:03.244453,2018-08-24 15:45:07.354727,United States,-81.3000101194962,41.7146846240162,
brewery-in-planning-miami-county,Brewery in Planning - Miami County,planning,,Miami County,Ohio,45373,,,2018-07-24 01:33:59.868806,2018-08-11 21:38:56.785919,United States,,,
lucky-star-brewery,Lucky Star Brewery,brewpub,219 S 2nd St,Miamisburg,Ohio,45342-2924,http://www.luckystarbrewery.com,9378662739,2018-07-24 01:34:01.592723,2018-08-24 15:44:21.243588,United States,-84.2878244325161,39.6394357308258,
star-city-brewing-company,Star City Brewing Company,micro,319 S 2nd St,Miamisburg,Ohio,45342-2926,http://www.starcitybrewing.com,9377017827,2018-07-24 01:34:03.063187,2018-08-24 15:45:01.856252,United States,-84.2885964531528,39.6379944,
saint-hazards-brewery,Saint Hazards Brewery,brewpub,1233 Fox Road,Middle Bass Island,Ohio,43446,,4192856121,2018-07-24 01:34:02.846085,2018-08-11 21:39:04.044964,United States,,,
rivals-sports-grille,Rivals Sports Grille,contract,6710 Smith Rd,Middleburg Heights,Ohio,44130-2656,http://www.rivalscleveland.com,2162670005,2018-07-24 01:34:02.709911,2018-08-24 15:44:52.006635,United States,-81.8043347217913,41.3853154944618,
fat-heads-brewery,Fat Head's Brewery,regional,,Middleburg Heights,Ohio,44130-2472,http://www.fatheads.com,2168980242,2018-07-24 01:34:00.652393,2018-08-11 21:38:58.338831,United States,,,
rivals-brewing-company,Rivals Brewing Company,planning,,middleburg hts,Ohio,44130,https://www.facebook.com/RivalsBrewingCo/,3306316700,2018-07-24 01:34:02.696434,2018-08-11 21:39:03.640571,United States,,,
figleaf-brewing-company,FigLeaf Brewing Company,micro,3387 Cincinnati Dayton Rd,Middletown,Ohio,45044-8905,http://www.figleafbrewing.com,9373612573,2018-07-24 01:34:00.753183,2018-08-24 15:43:53.210516,United States,-84.3467897503445,39.4668811445812,
rolling-mill-brewing-company,Rolling Mill Brewing Company,micro,916 1st Ave,Middletown,Ohio,45044-8217,http://www.rollingmillbc.com,5132174444,2018-07-24 01:34:02.780169,2018-08-24 15:44:54.362427,United States,-84.4068312304314,39.516166855348,
little-miami-brewing-company,Little Miami Brewing Company,brewpub,208 Mill St,Milford,Ohio,45150-1072,http://www.littlemiamibrewing.com,5137131121,2018-07-24 01:34:01.502344,2018-08-24 15:44:19.329048,United States,-84.2962316155259,39.1716103489388,
millersburg-brewing,Millersburg Brewing,brewpub,60 E Jackson St,Millersburg,Ohio,44654-1257,http://www.millersburgbrewing.com,3306744728,2018-07-24 01:34:01.814421,2018-08-24 15:44:29.057266,United States,-81.9167786662561,40.5542432241595,
sandy-springs-brewing-company,Sandy Springs Brewing Company,brewpub,232 N Market St,Minerva,Ohio,44657-1616,http://www.sandyspringsbrewery.com,3304516926,2018-07-24 01:34:02.859052,2018-08-24 15:44:56.171546,United States,-81.1038201428571,40.7295667857143,
rivertown-brewing-co-monroe-barrel-house,Rivertown Brewing Co - Monroe Barrel House,micro,6550 Hamilton Lebanon Rd,Monroe,Ohio,45044-9285,http://www.rivertownbrewery.com,5133607839,2018-07-24 01:34:02.723835,2018-08-24 15:44:52.45229,United States,-84.4121541708543,39.445756120603,
valley-vineyards-winery-and-cellar-dweller-brewing,Valley Vineyards Winery & Cellar Dweller Brewing,brewpub,2276 E US Highway 22 and 3,Morrow,Ohio,45152-9414,http://www.valleyvineyards.com,5138992485,2018-07-24 01:34:03.547682,2018-08-11 21:39:06.572666,United States,,,
bardwell-winery-and-brewery,Bardwell Winery and Brewery,micro,716 N High St,Mount Orab,Ohio,45154,http://www.bardwellwinery.com,,2018-07-24 01:33:59.521928,2018-08-24 15:43:24.632375,United States,-83.9209789,39.0419795,
sons-of-toil-brewing-llc,Sons Of Toil Brewing LLC,micro,14090 Klein Rd,Mount Orab,Ohio,45154-8312,http://www.sonsoftoilllc.com/,5132509082,2018-07-24 01:34:02.98979,2018-08-11 21:39:04.580291,United States,,,
stein-brewing-company,Stein Brewing Company,planning,,Mount Vernon,Ohio,43050-3323,http://www.SteinBrewCo.com,,2018-07-24 01:34:03.075326,2018-08-11 21:39:04.840027,United States,,,
levitate,Levitate,planning,,Mount Victory,Ohio,43340-8908,,3133849757,2018-07-24 01:34:01.433959,2018-08-11 21:39:00.183655,United States,,,
flatrock-brewery,Flatrock Brewery,micro,621 N Perry St,Napoleon,Ohio,43545-1701,http://www.flatrockbrewery.com,4199661440,2018-07-24 01:34:00.777646,2018-08-24 15:43:54.107897,United States,-84.1245567040122,41.390907169874,
multiple-brewing-company,Multiple Brewing Company,micro,82 W Washington St,Nelsonville,Ohio,45764-1135,,6144957199,2018-07-24 01:34:01.966684,2018-08-24 15:44:33.126409,United States,-82.2334335904399,39.4610958206791,
white-shutter-winery-and-brewery,White Shutter Winery and Brewery,micro,3794 County Hwy 56,Nevada,Ohio,44849,http://www.whiteshutterwinery.com,4198352900,2018-07-24 01:34:03.673509,2018-08-11 21:39:06.88668,United States,,,
new-bremen-brewing-company,New Bremen Brewing Company,planning,,New Bremen,Ohio,45869-1328,http://www.gongoozlersbeer.com,,2018-07-24 01:34:02.091335,2018-08-11 21:39:02.05515,United States,,,
kennedy-vineyard,Kennedy Vineyard,micro,3911 State Route 722,New Madison,Ohio,45346,http://www.kennedyvineyard.net,9372738381,2018-07-24 01:34:01.322473,2018-08-11 21:38:59.842962,United States,,,
brewery-in-planning-newark,Brewery in Planning - Newark,planning,,Newark,Ohio,43055-6722,,7404044646,2018-07-24 01:33:59.883047,2018-08-11 21:38:56.817444,United States,,,
bucks-brewing-co,Buck's Brewing Co,micro,993 Mount Vernon Rd,Newark,Ohio,43055-4728,,7406412337,2018-07-24 01:34:00.138752,2018-08-24 15:43:34.862434,United States,-82.4175214285714,40.0836782857143,
dankhouse-brewing-company,DankHouse Brewing Company,micro,161 Forry St,Newark,Ohio,43055-3760,http://www.dankhousebrewing.com,,2018-07-24 01:34:00.423381,2018-08-24 15:43:43.044322,United States,-82.4172052767494,40.0442340994456,
trek-brewing,Trek Brewing,micro,1486 Granville Rd,Newark,Ohio,43055-1538,http://www.trekbeer.com,,2018-07-24 01:34:03.441398,2018-08-24 15:45:13.492387,United States,-82.4556440922082,40.057228172848,
crooked-pecker-brewing,Crooked Pecker Brewing,planning,,Newbury,Ohio,44065-9735,,4404763427,2018-07-24 01:34:00.393016,2018-08-11 21:38:57.807958,United States,,,
shale-brewing-co,Shale Brewing Co,micro,7253 Whipple Ave NW,North Canton,Ohio,44720,http://www.shalebrewing.com,3307768812,2018-07-24 01:34:02.898532,2018-08-24 15:44:57.536028,United States,-81.422424,40.866706,
fat-heads-brewery-and-saloon,Fat Head's Brewery & Saloon,brewpub,24581 Lorain Rd,North Olmsted,Ohio,44070-2170,http://www.fatheadscleveland.com,4408011001,2018-07-24 01:34:00.665353,2018-08-24 15:43:49.935334,United States,-81.8944099285714,41.4266774285714,
quarter-barrel-brewery,Quarter Barrel Brewery,brewpub,107 E Church St,Oxford,Ohio,45056-1317,,5135232525,2018-07-24 01:34:02.533842,2018-08-24 15:44:46.74239,United States,-84.7404518645508,39.5114273748486,
combustion-brewery,Combustion Brewery,micro,80 W Church St Ste 101,Pickerington,Ohio,43147-1484,http://www.combustionbrewing.com,6143628450,2018-07-24 01:34:00.321282,2018-08-11 21:38:57.647942,United States,,,
maple-lawn-brewery,Maple Lawn Brewery,micro,110 Mulberry Ave,Pomeroy,Ohio,45769-1004,http://www.maplelawnbrew.com,7406915018,2018-07-24 01:34:01.692736,2018-08-24 15:44:24.897035,United States,-82.034268,39.027513,
catawba-island-brewing-company,Catawba Island Brewing Company,micro,2330 East Harbor Rd,Port Clinton,Ohio,43452-1517,http://catawbaislandbrewing.com,4199607764,2018-07-24 01:34:00.190028,2018-08-11 21:38:57.390578,United States,,,
portsmouth-brewing-co/maults,Portsmouth Brewing Co/Maults,brewpub,224 Second St,Portsmouth,Ohio,45662-0218,http://www.portsmouthohbrewing.com,7403546106,2018-07-24 01:34:02.492315,2018-08-11 21:39:03.180028,United States,,,
ill-mannered-brewing-company,Ill Mannered Brewing Company,micro,30 Grace Dr,Powell,Ohio,43065-8466,,,2018-07-24 01:34:01.234489,2018-08-24 15:44:10.589286,United States,-83.0740121,40.1635259,
put-in-bay-brewing-co,Put-In-Bay Brewing Co,brewpub,441 Catawba Ave,Put In Bay,Ohio,43456-6536,http://www.putinbaybrewery.com,4192854677,2018-07-24 01:34:02.52004,2018-08-24 15:44:46.252942,United States,-82.8199647560697,41.6518895639117,
hightower-brewing-co,Hightower Brewing Co,micro,3445 County Road 16 Unit B,Rayland,Ohio,43943-7765,http://www.hightowerbrewingcompany.com,7408590764,2018-07-24 01:34:01.085895,2018-08-11 21:38:59.302776,United States,,,
rocky-river-brewing-co,Rocky River Brewing Co,brewpub,21290 Center Ridge Rd,Rocky River,Ohio,44116-3204,http://www.rockyriverbrewco.com,4408952739,2018-07-24 01:34:02.765828,2018-08-24 15:44:53.919071,United States,-81.8553198004012,41.4610006539348,
baithouse-brewery,Baithouse Brewery,planning,,Sandusky,Ohio,44870,http://www.baithousebrewery.com,4193665372,2018-07-24 01:33:59.499576,2018-08-11 21:38:55.796958,United States,,,
main-sail-brewery-/-atwood-yacht-club,Main Sail Brewery / Atwood Yacht Club,micro,2637 Lodge Rd SW,Sherrodsville,Ohio,44675-9719,http://www.atwoodyachtclub.com,3307352135,2018-07-24 01:34:01.664774,2018-08-11 21:39:00.824869,United States,,,
brewery-in-planning-solon-oh,"Brewery in Planning - Solon, OH",planning,,Solon,Ohio,44139-3884,,4407252441,2018-07-24 01:33:59.912688,2018-08-11 21:38:56.891422,United States,,,
crooked-handle-brewing-co,Crooked Handle Brewing Co.,micro,760 N Main St,Springboro,Ohio,45066-8944,http://www.crookedhandle.com,9377903450,2018-07-24 01:34:00.37511,2018-08-24 15:43:42.029617,United States,-84.2308281642615,39.5766464255113,
mother-stewarts-brewing-co,Mother Stewart's Brewing Co,micro,109 W North St,Springfield,Ohio,45504-2546,,,2018-07-24 01:34:01.922876,2018-08-24 15:44:31.724232,United States,-83.8119656562835,39.9271684098324,
brewery-in-planning-stow-oh,"Brewery in Planning - Stow, OH",planning,,Stow,Ohio,44224-1009,,,2018-07-24 01:33:59.92737,2018-08-11 21:38:56.930462,United States,,,
headtrip-brewery,Headtrip Brewery,micro,1634 Norton Rd,Stow,Ohio,44224-1412,http://www.headtripbrewery.com,,2018-07-24 01:34:01.057827,2018-08-24 15:44:03.986943,United States,-81.442913,41.202942,
brew-kettle-production-works,Brew Kettle - Production Works,micro,20102 Progress Dr,Strongsville,Ohio,44149-3259,,,2018-07-24 01:33:59.74873,2018-08-24 15:43:30.985337,United States,-81.8499456618911,41.326376260745,
the-brew-kettle-taproom-and-smokehouse,"The Brew Kettle, Taproom and Smokehouse",brewpub,8377 Pearl Rd,Strongsville,Ohio,44136-1637,http://www.thebrewkettle.com,4402398788,2018-07-24 01:34:03.230257,2018-08-24 15:45:06.93345,United States,-81.8224061,41.3471323,
the-lodge-restaurant-and-microbrewery,The Lodge Restaurant & Microbrewery,brewpub,29042 Hide AWay Hills Rd,Sugar Grove,Ohio,43155,http://www.hideawayhillslodge.com,7405697944,2018-07-24 01:34:03.320154,2018-08-11 21:39:05.797756,United States,,,
on-the-fly-brewing-company,On The Fly Brewing Company,planning,,Sunbury,Ohio,43074-9022,http://www.ontheflybrewing.com,6145618735,2018-07-24 01:34:02.266686,2018-08-11 21:39:02.578734,United States,,,
brubakers-brewery-and-pub,Brubaker's Brewery & Pub,planning,,Sylvania,Ohio,43560-9586,,,2018-07-24 01:34:00.09593,2018-08-11 21:38:57.224061,United States,,,
inside-the-five-brewing,Inside The Five Brewing,brewpub,5703 Main St,Sylvania,Ohio,43560-4901,http://www.insidethefive.com,5674087212,2018-07-24 01:34:01.256439,2018-08-24 15:44:11.117165,United States,-83.7032814897959,41.7172650204082,
upside-brewing,Upside Brewing,brewpub,5692 N Main St,Sylvania,Ohio,43560-1928,http://www.facebook.com/UpsideBrewing,4198826061,2018-07-24 01:34:03.52024,2018-08-11 21:39:06.493882,United States,,,
the-laird-arcade-brewery,The Laird Arcade Brewery,micro,114 S Washington St Ste D,Tiffin,Ohio,44883-3915,,4196186489,2018-07-24 01:34:03.306965,2018-08-11 21:39:05.771662,United States,,,
earnest-brew-works,Earnest Brew Works,micro,4342 S Detroit Ave,Toledo,Ohio,43614-5367,http://www.earnestbrewworks.com,4193402589,2018-07-24 01:34:00.564452,2018-08-24 15:43:47.476366,United States,-83.61522535,41.590252,
great-black-swamp-brewing-co,Great Black Swamp Brewing Co,micro,3323 Monroe St,Toledo,Ohio,43606-4553,http://www.greatblackswampbrewing.com,4199731256,2018-07-24 01:34:00.947855,2018-08-24 15:44:00.392221,United States,-83.5462275,41.6530711,
maumee-bay-brewing-co,Maumee Bay Brewing Co,brewpub,27 Broadway St Ste A,Toledo,Ohio,43604-8701,http://www.maumeebaybrewing.com,4192431302,2018-07-24 01:34:01.772559,2018-08-11 21:39:01.229488,United States,,,
patron-saints-brewery,Patron Saints Brewery,micro,4730 W Bancroft St #8,Toledo,Ohio,43615,http://www.PatronSaintsBrewery.com,,2018-07-24 01:34:02.370427,2018-08-24 15:44:42.182151,United States,-83.650886,41.662495,
black-cloister-brewing-co,Black Cloister Brewing Co,brewpub,619 Monroe St,Toledo,Ohio,43604-1015,http://www.blackcloister.com,4192141500,2018-07-24 01:33:59.604808,2018-08-24 15:43:27.01922,United States,-83.5399665,41.6499863,
millercoors-brewing-co-trenton,MillerCoors Brewing Co - Trenton,large,2525 Wayne Madison Rd,Trenton,Ohio,45067-9760,http://www.millerbrewing.com,5138964601,2018-07-24 01:34:01.800502,2018-08-24 15:44:28.536563,United States,-84.4829713872495,39.45673615,
brewery-in-planning-upper-arlington,Brewery in Planning - Upper Arlington,planning,,Upper Arlington,Ohio,43221-4112,,,2018-07-24 01:33:59.940755,2018-08-11 21:38:56.962985,United States,,,
hairless-hare-brewery,Hairless Hare Brewery,micro,738 W National Rd,Vandalia,Ohio,45377-1015,http://www.hairlessharebrewery.com,9373876476,2018-07-24 01:34:01.01419,2018-08-11 21:38:59.14504,United States,,,
endless-pint-brewing,Endless Pint Brewing,planning,,Versailles,Ohio,45380,http://www.endlesspintbrewing.com,4197338806,2018-07-24 01:34:00.626534,2018-08-11 21:38:58.282589,United States,,,
brewery-in-planning-wadsworth,Brewery In Planning - Wadsworth,planning,,Wadsworth,Ohio,44281-7401,,,2018-07-24 01:33:59.95411,2018-08-11 21:38:56.993423,United States,,,
wadsworth-brewing-company,Wadsworth Brewing Company,brewpub,126 Main St,Wadsworth,Ohio,44281-1432,http://www.wadsworthbrewingcompany.com,3304754935,2018-07-24 01:34:03.588809,2018-08-24 15:45:18.522838,United States,-81.7298028773239,41.0247866061802,
clubhouse-brewing-company-ltd,Clubhouse Brewing Company Ltd,micro,668 N River Rd NW,Warren,Ohio,44483,,3305487854,2018-07-24 01:34:00.256668,2018-08-24 15:43:38.690746,United States,-80.8267686739182,41.2660285565131,
modern-methods-brewing-company,Modern Methods Brewing Company,micro,125 David Grohl Alley,Warren,Ohio,44481,http://www.modernmethodsbrew.com,3303331594,2018-07-24 01:34:01.855138,2018-08-11 21:39:01.498465,United States,,,
ramblin-reds-brewing-company,Ramblin Reds Brewing Company,brewpub,1493 N Shoop Ave Unit A,Wauseon,Ohio,43567-2801,http://www.northriverbrewingco.com,4193352000,2018-07-24 01:34:02.616113,2018-08-11 21:39:03.430454,United States,,,
ridge-runner-brewing-llc,Ridge Runner Brewing LLC,planning,,Wauseon,Ohio,43567-9294,,,2018-07-24 01:34:02.684158,2018-08-11 21:39:03.601538,United States,,,
brewery-in-planning-waynesville,Brewery in Planning - Waynesville,planning,,Waynesville,Ohio,45068-7004,,9375813539,2018-07-24 01:33:59.966907,2018-08-11 21:38:57.026232,United States,,,
grainworks-brewing-company,Grainworks Brewing Company,micro,7790 Service Center Dr,West Chester,Ohio,45069-2442,,5134802337,2018-07-24 01:34:00.895548,2018-08-11 21:38:58.874552,United States,,,
dogberry-brewing-llc,DogBerry Brewing LLC,micro,9964 Crescent Park Dr,"West Chester ",Ohio,45069,http://www.dogberrybrewing.com,5138478208,2018-07-24 01:34:00.494161,2018-08-11 21:38:58.020851,United States,,,
spires-social-brewing-co,Spires Social Brewing Co.,planning,,Westerville,Ohio,43082-8919,http://www.spiressocial.com,6144268057,2018-07-24 01:34:03.036757,2018-08-11 21:39:04.706354,United States,,,
temperance-row-brewing-and-uptown-deli,Temperance Row Brewing and Uptown Deli,brewpub,41 N State St,Westerville,Ohio,43081-2123,http://www.uptowndeliandbrew.com,6148912337,2018-07-24 01:34:03.166712,2018-08-24 15:45:05.109297,United States,-82.9280656410251,40.1149313497525,
sibling-revelry-brewing,Sibling Revelry Brewing,micro,29305 Clemens Rd,Westlake,Ohio,44145-1008,http://www.siblingrevelrybrewing.com,4404718589,2018-07-24 01:34:02.911036,2018-08-24 15:44:57.971013,United States,-81.9462011060172,41.4704023782235,
2-tones-brewing-co,2 Tones Brewing Co.,micro,,Whitehall,Ohio,43213-1308,http://www.2tonesbrewingco.com,,2018-07-24 01:33:59.365623,2018-08-11 21:38:55.402592,United States,,,
old-firehouse-brewery,Old Firehouse Brewery,micro,237 W Main St,Williamsburg,Ohio,45176-1342,http://www.oldfirehousebrewery.com,5135369071,2018-07-24 01:34:02.239893,2018-08-24 15:44:39.318887,United States,-84.0530761824684,39.0539839584237,
brim-kitchen-and-brewery,Brim Kitchen and Brewery,brewpub,3941 Erie St,Willoughby,Ohio,44094-7704,http://www.brimbrewery.com,4402068183,2018-07-24 01:34:00.06339,2018-08-24 15:43:32.840271,United States,-81.4063770145957,41.6434696930999,
willoughby-brewing-co,Willoughby Brewing Co,brewpub,4057 Erie St,Willoughby,Ohio,44094-7804,http://www.willoughbybrewing.com,4409750202,2018-07-24 01:34:03.711898,2018-08-24 15:45:22.591082,United States,-81.4054897216877,41.64152155,
brausch-brewery,Brausch Brewery,micro,1030 S South St,Wilmington,Ohio,45177-2924,,9373022337,2018-07-24 01:33:59.721113,2018-08-24 15:43:30.49171,United States,-83.8309158461538,39.4327471153846,
jafb-brewery,JAFB Brewery,micro,120 Beall Ave,Wooster,Ohio,44691-3673,http://www.jafbbeer.com,3306011827,2018-07-24 01:34:01.309371,2018-08-24 15:44:12.683138,United States,-81.93429705,40.7995432,
devil-wind-brewing-llc,Devil Wind Brewing LLC,micro,130 S Detroit St,Xenia,Ohio,45385,http://www.devilwindbrewing.com,9376090002,2018-07-24 01:34:00.464148,2018-08-24 15:43:44.178504,United States,-83.9291368536585,39.6829479756097,
yellow-springs-brewery,Yellow Springs Brewery,micro,305 N Walnut St Ste B,Yellow Springs,Ohio,45387-2059,http://www.yellowspringsbrewery.com,9377670222,2018-07-24 01:34:03.778131,2018-08-11 21:39:07.182324,United States,,,
noble-creature-cask-house,Noble Creature Cask House,brewpub,126 E Rayen Ave,Youngstown,Ohio,44503-1619,http://www.noblecreaturebeer.com,2347191827,2018-07-24 01:34:02.135796,2018-08-24 15:44:36.494376,United States,-80.6457616215263,41.1022792972554,
weasel-boy-brewing-co-llc,Weasel Boy Brewing Co  LLC,brewpub,126 Muskingum Ave Unit E,Zanesville,Ohio,43701-4921,http://www.weaselboybrewing.com,7404553767,2018-07-24 01:34:03.631289,2018-08-11 21:39:06.789173,United States,,,
y-bridge-brewing-company,Y Bridge Brewing Company,micro,1417 Linden Ave,Zanesville,Ohio,43701,,7408684265,2018-07-24 01:34:03.76581,2018-08-24 15:45:24.462486,United States,-82.0042296122449,39.9560342857143,